,station_name,lat,lng,city,district,village
0,捷運橋頭火車站,22.75931,120.30988,高雄市,橋頭區,橋頭里
1,高雄高商(五褔二路),22.62546,120.30784,高雄市,新興區,永寧里
2,澄清湖,22.65331,120.34949,高雄市,鳥松區,大華里
3,察哈爾街口,22.64692,120.29658,高雄市,三民區,安邦里
4,臺鐵鳳山站,22.63155,120.35767,高雄市,鳳山區,文華里
5,下勤和,23.16805,120.7756,高雄市,桃源區,勤和里
6,衛武社區,22.62695,120.34431,高雄市,苓雅區,衛武里
7,美術館(明誠四路),22.66205,120.28635,高雄市,鼓山區,龍水里
8,五福民權路口(高雄高商),22.62615,120.31039,高雄市,新興區,浩然里
9,安東街口(十全二路),22.64599,120.29533,高雄市,三民區,安邦里
10,中央圓環,22.72192,120.30482,高雄市,楠梓區,瑞屏里
11,明正國小(捷運草衙站),22.58118,120.3277,高雄市,前鎮區,明正里
12,文學院,22.63374,120.26131,高雄市,鼓山區,桃源里
13,中鴻鋼鐵(岡山),22.82472,120.29884,高雄市,岡山區,嘉興里
14,臺鐵正義站(澄清路),22.63416,120.34456,高雄市,三民區,寶民里
15,重和路口,22.68218,120.3142,高雄市,左營區,福山里
16,中賢里,22.90801,120.20602,高雄市,湖內區,中賢里
17,中興(新發公路),22.99612,120.64309,高雄市,六龜區,中興里
18,育德街口,22.81186,120.28008,高雄市,岡山區,灣裡里
19,四維國小(民權一路),22.62274,120.31216,高雄市,苓雅區,晴朗里
20,輕軌凱旋公園站(中正一路),22.62996,120.32408,高雄市,苓雅區,正言里
21,茄萣站,22.86876,120.19884,高雄市,茄萣區,崎漏里
22,五福中正路口,22.62973,120.32064,高雄市,苓雅區,凱旋里
23,木業公司(六龜),23.00046,120.64495,高雄市,六龜區,中興里
24,大寮農會,22.60159,120.39788,高雄市,大寮區,會社里
25,美崙山,23.06753,120.68565,高雄市,六龜區,新發里
26,中崙一路,22.6009,120.35051,高雄市,鳳山區,中崙里
27,衛武營都會公園(南京路),22.61798,120.34572,高雄市,鳳山區,國隆里
28,必勝路,22.67543,120.284,高雄市,左營區,自助里
29,復華中學,22.6205,120.31417,高雄市,苓雅區,普天里
30,鳳山行政中心(澄清路),22.63032,120.34451,高雄市,鳳山區,忠孝里
31,正義高中,22.60113,120.34013,高雄市,鳳山區,正義里
32,捷運楠梓加工區站,22.71835,120.30649,高雄市,楠梓區,宏毅里
33,先鋒路,22.67865,120.28271,高雄市,左營區,崇實里
34,金屬中心,22.71441,120.32599,高雄市,楠梓區,稔田里
35,監理所(高楠路),22.73266,120.32024,高雄市,楠梓區,惠民里
36,成功南路,22.7506,120.31406,高雄市,橋頭區,橋南里
37,新庄(新莊路),22.74556,120.30183,高雄市,橋頭區,新莊里
38,高雄車站(中山路),22.63682,120.30221,高雄市,三民區,港西里
39,鳳南路口,22.59217,120.3404,高雄市,鳳山區,南成里
40,濟天宮(國慶六街),22.58758,120.33797,高雄市,前鎮區,明正里
41,六龜新站(親水公園),23.00615,120.64858,高雄市,六龜區,興龍里
42,灣子內(岡山),22.80953,120.28278,高雄市,岡山區,灣裡里
43,北嶺墘,22.82115,120.26947,高雄市,路竹區,北嶺里
44,味全公司,22.82728,120.26658,高雄市,路竹區,北嶺里
45,立大食品廠,22.83649,120.26476,高雄市,路竹區,北嶺里
46,鳳鳴國小,22.51528,120.35778,高雄市,小港區,龍鳳里
47,東盟公司,22.84868,120.26247,高雄市,路竹區,竹南里
48,南路竹,22.85523,120.26117,高雄市,路竹區,竹南里
49,路竹,22.859,120.26014,高雄市,路竹區,竹東里
50,北路竹,22.86303,120.25795,高雄市,路竹區,竹東里
51,國際商工(輕軌五權國小站),22.62103,120.32644,高雄市,苓雅區,朝陽里
52,高新醫院,22.86554,120.25679,高雄市,路竹區,竹東里
53,中山大仁路口,22.87349,120.25422,高雄市,路竹區,竹東里
54,大湖火車站,22.87771,120.25243,高雄市,湖內區,湖東里
55,橡膠廠,22.59477,120.28243,高雄市,旗津區,南汕里
56,烏松,22.59842,120.28018,高雄市,旗津區,北汕里
57,南勢巷站,22.77639,120.41319,高雄市,燕巢區,深水里
58,台農飼料廠,22.8982,120.23618,高雄市,湖內區,太爺里
59,牛蹄寮(富樂夢觀光工廠),22.90227,120.2319,高雄市,湖內區,太爺里
60,太爺(湖內國中),22.90895,120.22739,高雄市,湖內區,太爺里
61,嘉南藥理大學,22.92101,120.22506,台南市,仁德區,保安里
62,三信家商,22.62199,120.32926,高雄市,苓雅區,福海里
63,保安里,22.92356,120.22375,台南市,仁德區,保安里
64,橋頭市場,22.75525,120.31129,高雄市,橋頭區,仕隆里
65,台糖花卉中心,22.74092,120.3251,高雄市,楠梓區,清豐里
66,牛稠仔,22.95366,120.21774,台南市,仁德區,仁愛里
67,二空新村,22.96123,120.21711,台南市,東區,東智里
68,空軍醫院,22.96553,120.21644,台南市,東區,崇明里
69,大同巷,22.96871,120.21598,台南市,東區,崇明里
70,大林(大同路二段),22.97461,120.21436,台南市,東區,大福里
71,大同路,22.97678,120.2139,台南市,南區,新生里
72,南台南,22.98133,120.21137,台南市,中西區,法華里
73,五塊厝(三多一路),22.62288,120.33177,高雄市,苓雅區,福人里
74,健康路,22.98132,120.20664,台南市,南區,竹溪里
75,南門路,22.98166,120.20374,台南市,中西區,大南里
76,府前路口,22.98814,120.20462,台南市,中西區,郡王里
77,忠義路,22.99063,120.20264,台南市,中西區,永華里
78,西門路二段,22.99521,120.1993,台南市,中西區,水仙里
79,西門路三段,22.99929,120.20108,台南市,中西區,普濟里
80,成功路(台南),22.99848,120.20452,台南市,中西區,赤嵌里
81,台南火車站,22.99746,120.21003,台南市,中西區,赤嵌里
82,頂烏松,22.59842,120.28018,高雄市,旗津區,北汕里
83,中洲三路,22.60182,120.27692,高雄市,旗津區,復興里
84,自由路(被服廠),22.62499,120.34559,高雄市,鳳山區,協和里
85,鳳鳴里,22.51372,120.35934,高雄市,小港區,鳳鳴里
86,七賢二路,22.63478,120.30078,高雄市,新興區,建華里
87,捷運都會公園站,22.7301,120.32063,高雄市,楠梓區,惠豐里
88,民族裕誠路口,22.6649,120.31636,高雄市,三民區,鼎泰里
89,民族派出所,22.64806,120.31707,高雄市,三民區,灣中里
90,捷運技擊館站,22.62754,120.33421,高雄市,苓雅區,正大里
91,逢甲路,22.67073,120.48786,屏東縣,屏東市,武廟里
92,屏東電信局,22.67062,120.48966,屏東縣,屏東市,金泉里
93,自由路(建華一街口),22.66687,120.48669,屏東縣,屏東市,擇仁里
94,勞工處,22.66506,120.48213,屏東縣,屏東市,厚生里
95,自由市場,22.62569,120.35103,高雄市,鳳山區,協和里
96,大同國小,22.66535,120.47653,屏東縣,屏東市,安鎮里
97,青果社,22.66144,120.46975,屏東縣,屏東市,清溪里
98,建國路,22.65835,120.46792,屏東縣,屏東市,清溪里
99,西屏東,22.65452,120.46307,屏東縣,屏東市,前進里
100,磚仔窯,22.64215,120.41769,高雄市,大寮區,義和里
101,鳳屏二路,22.64154,120.4135,高雄市,大寮區,江山里
102,海邊新田路口,22.61977,120.29211,高雄市,苓雅區,博仁里
103,江山村口,22.64015,120.40512,高雄市,大寮區,後庄里
104,慈惠醫院,22.63868,120.39748,高雄市,大寮區,後庄里
105,高雄客運鳳山站(澄瀾砲台),22.62454,120.35698,高雄市,鳳山區,興仁里
106,後庄(鳳屏一路),22.63743,120.39463,高雄市,大寮區,中庄里
107,後庄農會,22.63627,120.39264,高雄市,大寮區,中庄里
108,新光高中(鳳屏一路),22.63471,120.38987,高雄市,大寮區,後庄里
109,中庄,22.63082,120.38443,高雄市,大寮區,後庄里
110,埤頂,22.62758,120.3791,高雄市,鳳山區,鳳東里
111,鳳山轉運站(捷運大東站),22.6261,120.36337,高雄市,鳳山區,新興里
112,上埤頂,22.62658,120.37629,高雄市,鳳山區,埤頂里
113,中山東路,22.62625,120.37529,高雄市,鳳山區,埤頂里
114,捷運鳳山國中站(郵局),22.62448,120.37142,高雄市,鳳山區,東門里
115,通益市場,22.62912,120.3539,高雄市,鳳山區,鎮西里
116,中山國小(光復路),22.62925,120.34996,高雄市,鳳山區,忠孝里
117,婦幼館,22.62934,120.34776,高雄市,鳳山區,忠孝里
118,興達國小,22.87545,120.19624,高雄市,茄萣區,崎漏里
119,覺民路口(澄清路),22.63746,120.34486,高雄市,三民區,寶業里
120,澄清路,22.64267,120.34608,高雄市,三民區,本揚里
121,鳳山龍山寺,22.6217,120.35984,高雄市,鳳山區,和興里
122,澄清湖棒球場,22.65522,120.36008,高雄市,鳥松區,鳥松里
123,鳥松區公所(中正路),22.65983,120.36414,高雄市,鳥松區,鳥松里
124,十九灣,22.67097,120.36138,高雄市,仁武區,考潭里
125,考潭,22.67702,120.35811,高雄市,仁武區,考潭里
126,灣子內(仁武),22.68232,120.35504,高雄市,仁武區,灣內里
127,新庄(鳳仁路),22.69291,120.34968,高雄市,仁武區,文武里
128,八卦寮,22.69603,120.34825,高雄市,仁武區,文武里
129,通法寺,22.69888,120.34679,高雄市,仁武區,仁武里
130,仁武區公所(派出所),22.7015,120.34846,高雄市,仁武區,仁武里
131,黃埔新村,22.62042,120.36436,高雄市,鳳山區,誠正里
132,仁武里,22.70236,120.35213,高雄市,仁武區,仁武里
133,文武橋,22.9868,120.63707,高雄市,六龜區,文武里
134,安樂一街口,22.70927,120.35315,高雄市,仁武區,文武里
135,後庄(中正路),22.71479,120.35206,高雄市,仁武區,文武里
136,林子邊,22.72239,120.35043,高雄市,大社區,中里里
137,三奶里,22.72692,120.3484,高雄市,大社區,觀音里
138,大社農會,22.72956,120.34683,高雄市,大社區,大社里
139,三中路口(三民路),22.73076,120.34332,高雄市,大社區,大社里
140,高雄少年法院,22.73096,120.33538,高雄市,楠梓區,五常里
141,楠梓路口,22.72832,120.33032,高雄市,楠梓區,享平里
142,東門,22.62365,120.36938,高雄市,鳳山區,東門里
143,崎漏電信局,22.87458,120.19386,高雄市,茄萣區,崎漏里
144,永豐路口,22.60566,120.33413,高雄市,前鎮區,瑞隆里
145,中一街,22.72077,120.30716,高雄市,楠梓區,瑞屏里
146,草衙市場,22.57849,120.32236,高雄市,前鎮區,草衙里
147,銘傳路口(九如四路),22.66576,120.28433,高雄市,鼓山區,前峰里
148,岡山農工(河華路),22.80128,120.29085,高雄市,岡山區,壽天里
149,捷運鳳山站,22.62598,120.35614,高雄市,鳳山區,興仁里
150,台上街,22.80493,120.29722,高雄市,岡山區,台上里
151,文山學園,22.64081,120.34879,高雄市,鳳山區,文衡里
152,大埤,22.88042,120.34639,高雄市,阿蓮區,峰山里
153,黃埔四村,22.62233,120.37373,高雄市,鳳山區,誠信里
154,臺鐵內惟站,22.66575,120.28801,高雄市,鼓山區,龍水里
155,赤崁東路(新富光),22.74207,120.25348,高雄市,梓官區,赤崁里
156,民權路,22.73471,120.34862,高雄市,大社區,保安里
157,八德路一(鳳松路口),22.63864,120.3624,高雄市,鳳山區,文山里
158,前鋒社區,22.66734,120.28548,高雄市,鼓山區,雄峰里
159,舊鐵橋溼地(三和瓦窯),22.663,120.4264,高雄市,大樹區,竹寮里
160,大昌醫院,22.65779,120.31989,高雄市,三民區,灣子里
161,崎漏農會,22.8738,120.19145,高雄市,茄萣區,崎漏里
162,五甲三誠路口,22.59221,120.32684,高雄市,鳳山區,五福里
163,大樹區公所,22.6851,120.41481,高雄市,大樹區,龍目里
164,坔埔,22.65803,120.3848,高雄市,鳥松區,坔埔里
165,影劇七村,22.62055,120.38138,高雄市,大寮區,忠義里
166,高碼山莊,22.65821,120.38947,高雄市,鳥松區,華美里
167,華美,22.65842,120.39191,高雄市,鳥松區,仁美里
168,仁美國小,22.65798,120.3942,高雄市,鳥松區,仁美里
169,井仔腳,22.66837,120.40939,高雄市,大樹區,井腳里
170,小坪頂,22.68069,120.40899,高雄市,大樹區,小坪里
171,龍目,22.68545,120.41644,高雄市,大樹區,龍目里
172,大樹路,22.68713,120.4245,高雄市,大樹區,大樹里
173,大樹市場,22.68814,120.43236,高雄市,大樹區,檨腳里
174,商協一號,22.61849,120.3838,高雄市,大寮區,忠義里
175,大樹分駐所,22.69036,120.43318,高雄市,大樹區,檨腳里
176,大樹,22.692,120.43246,高雄市,大樹區,檨腳里
177,水管路口(神農路),22.65941,120.37306,高雄市,鳥松區,坔埔里
178,五甲市場,22.59573,120.33158,高雄市,鳳山區,南和里
179,岡山交流道,22.78718,120.31856,高雄市,燕巢區,瓊林里
180,大社中正路(保社里),22.74652,120.35078,高雄市,大社區,保社里
181,吉貝公司,22.73981,120.34851,高雄市,大社區,保社里
182,中都濕地公園(同盟三路),22.64865,120.2855,高雄市,三民區,德西里
183,經五路,22.72164,120.30185,高雄市,楠梓區,瑞屏里
184,自強三路口(三多四路),22.61268,120.30098,高雄市,苓雅區,意誠里
185,台貿六村,22.61563,120.38682,高雄市,大寮區,光武里
186,小港行政中心,22.56514,120.3382,高雄市,小港區,港南里
187,北汕巷,22.59893,120.27757,高雄市,旗津區,北汕里
188,鳳源里,22.52464,120.34457,高雄市,小港區,鳳源里
189,中山路(中正路口),22.7319,120.34825,高雄市,大社區,大社里
190,安招里,22.79086,120.33963,高雄市,燕巢區,瓊林里
191,橋頭地檢署,22.73899,120.30478,高雄市,橋頭區,新莊里
192,福山國中,22.67932,120.31457,高雄市,左營區,福山里
193,明善堂(黃埔路),22.62298,120.36562,高雄市,鳳山區,鎮東里
194,坊崁,22.76147,120.44685,高雄市,大樹區,統嶺里
195,統嶺坑,22.75617,120.44774,高雄市,大樹區,統嶺里
196,麻竹園,22.74633,120.44707,高雄市,大樹區,興田里
197,商協二號,22.61389,120.38895,高雄市,大寮區,光武里
198,大樹農會,22.69094,120.43227,高雄市,大樹區,檨腳里
199,興山里,22.69412,120.42545,高雄市,大樹區,興山里
200,和山里口,22.69703,120.4205,高雄市,大樹區,興山里
201,山頂崎腳,22.69652,120.4097,高雄市,大樹區,和山里
202,五叉路口,22.69958,120.40542,高雄市,大樹區,和山里
203,崎頂,22.7016,120.39617,高雄市,仁武區,烏林里
204,清淨寺A(仁林路),22.7011,120.39083,高雄市,仁武區,烏林里
205,油庫,22.70115,120.38796,高雄市,仁武區,烏林里
206,磚廠,22.69877,120.37962,高雄市,仁武區,烏林里
207,久保祥公司,22.69201,120.37009,高雄市,仁武區,烏林里
208,山仔頂,22.61103,120.39241,高雄市,大寮區,山頂里
209,東亞漆廠,22.68862,120.36687,高雄市,仁武區,考潭里
210,忠山藥廠,22.68584,120.36414,高雄市,仁武區,考潭里
211,埤內巷,22.68262,120.36427,高雄市,仁武區,考潭里
212,天后宮(成功路),22.68146,120.3621,高雄市,仁武區,考潭里
213,考潭里,22.67938,120.36195,高雄市,仁武區,考潭里
214,綠園山莊,22.67679,120.36292,高雄市,仁武區,考潭里
215,鞏威新村,22.67439,120.36356,高雄市,仁武區,考潭里
216,經三路口,22.72124,120.30614,高雄市,楠梓區,瑞屏里
217,建工路,22.64834,120.31897,高雄市,三民區,正興里
218,西塢食品,22.75037,120.35208,高雄市,大社區,保社里
219,經五開發路口,22.72045,120.30239,高雄市,楠梓區,瑞屏里
220,輔英科大,22.60847,120.39478,高雄市,大寮區,永芳里
221,明善堂,22.62358,120.36687,高雄市,鳳山區,鎮東里
222,杉林分駐所,22.97439,120.54165,高雄市,杉林區,上平里
223,大仁路(裕賀牛觀光工廠),22.77018,120.38329,高雄市,燕巢區,橫山里
224,營房(大樹),22.67968,120.42592,高雄市,大樹區,大樹里
225,綠陽山莊,22.67391,120.42588,高雄市,大樹區,竹寮里
226,竹寮,22.672,120.42602,高雄市,大樹區,竹寮里
227,雄獅大地,22.66932,120.42603,高雄市,大樹區,竹寮里
228,九大加油站,22.65844,120.42476,高雄市,大樹區,九曲里
229,大樹國中,22.65644,120.42265,高雄市,大樹區,九曲里
230,庄內(九曲北極殿),22.65084,120.42242,高雄市,大樹區,九曲里
231,勵志新城,22.78994,120.29627,高雄市,岡山區,忠孝里
232,九曲路,22.64778,120.4205,高雄市,大樹區,九曲里
233,建軍路口,22.62866,120.34153,高雄市,鳳山區,忠義里
234,中正國小,22.63111,120.33441,高雄市,苓雅區,正道里
235,輔仁路口(建國一路),22.63184,120.332,高雄市,苓雅區,正大里
236,大仁國中,22.63271,120.32932,高雄市,苓雅區,五福里
237,福德市場,22.6329,120.32734,高雄市,苓雅區,正文里
238,聖功醫院,22.63269,120.32461,高雄市,苓雅區,五權里
239,道明中學,22.63311,120.32276,高雄市,苓雅區,五權里
240,凱旋路口,22.63396,120.31908,高雄市,三民區,港新里
241,建國二路,22.63737,120.31221,高雄市,三民區,港新里
242,大寮,22.60111,120.39938,高雄市,大寮區,會社里
243,鐵路新村,22.63752,120.30824,高雄市,三民區,博愛里
244,南安國小,22.76443,120.24339,高雄市,彌陀區,漯底里
245,公館(大樹),22.67703,120.42545,高雄市,大樹區,竹寮里
246,翠屏路口(中山路),22.73165,120.35027,高雄市,大社區,大社里
247,橋頭地方法院(1),22.73876,120.30453,高雄市,橋頭區,新莊里
248,山明路(北林路),22.5643,120.36472,高雄市,小港區,山明里
249,大寮路口,22.59773,120.40063,高雄市,大寮區,會社里
250,油管路口,22.60645,120.35445,高雄市,鳳山區,中榮里
251,國校前,22.90326,120.18377,高雄市,茄萣區,嘉賜里
252,仕豐路,22.75084,120.30804,高雄市,橋頭區,仕和里
253,九甲圍,22.74222,120.29439,高雄市,橋頭區,甲北里
254,甲昌路,22.7388,120.29449,高雄市,橋頭區,甲南里
255,甲圍國小,22.7361,120.29324,高雄市,橋頭區,甲南里
256,中山高中,22.72834,120.29171,高雄市,楠梓區,藍田里
257,左營高中,22.69357,120.29704,高雄市,左營區,進學里
258,北昌五街口,22.64303,120.37408,高雄市,鳳山區,鎮北里
259,左營南站,22.67954,120.28732,高雄市,左營區,埤西里
260,極光精舍,22.59372,120.40752,高雄市,大寮區,大寮里
261,海青工商,22.67478,120.28653,高雄市,左營區,自助里
262,明誠中學,22.66574,120.29155,高雄市,鼓山區,龍水里
263,海專路口(德賢路),22.72765,120.30922,高雄市,楠梓區,翠屏里
264,立群路口,22.56302,120.35518,高雄市,小港區,店鎮里
265,軟體園區,22.6046,120.29933,高雄市,前鎮區,鎮北里
266,中興里,22.72476,120.27765,高雄市,楠梓區,中興里
267,山明里,22.5621,120.3665,高雄市,小港區,店鎮里
268,三丘田,22.87775,120.59981,高雄市,六龜區,新寮里
269,紫竹寺,22.99892,120.5518,高雄市,杉林區,杉林里
270,榮佑路,22.68176,120.32083,高雄市,左營區,福山里
271,新福市場,22.59252,120.41063,高雄市,大寮區,大寮里
272,岡山國小,22.79092,120.29449,高雄市,岡山區,忠孝里
273,中正堂(岡山),22.79077,120.28939,高雄市,岡山區,仁壽里
274,大義二路口,22.78744,120.28648,高雄市,岡山區,仁壽里
275,醒村,22.78445,120.28423,高雄市,岡山區,後協里
276,後協,22.78434,120.28229,高雄市,岡山區,後協里
277,西後協,22.78433,120.27648,高雄市,岡山區,後協里
278,頂潭路口,22.77905,120.26981,高雄市,岡山區,福興里
279,福興里,22.77715,120.26919,高雄市,岡山區,福興里
280,石螺潭,22.7726,120.26843,高雄市,岡山區,石潭里
281,包公廟路口,22.59176,120.41381,高雄市,大寮區,大寮里
282,春木工廠,22.76582,120.26733,高雄市,梓官區,梓信里
283,北梓官,22.76251,120.26684,高雄市,梓官區,梓義里
284,大舍甲農會(大舍西路),22.74695,120.26151,高雄市,梓官區,大舍里
285,赤崁東路(北赤崁),22.74045,120.25106,高雄市,梓官區,赤東里
286,赤崁(梓官),22.73761,120.24765,高雄市,梓官區,赤東里
287,蚵寮國小(南赤崁),22.73443,120.2494,高雄市,梓官區,赤東里
288,蚵寮教會,22.73336,120.25052,高雄市,梓官區,禮蚵里
289,茄冬坑,22.735,120.25401,高雄市,梓官區,茄苳里
290,典寶,22.73699,120.25813,高雄市,梓官區,典寶里
291,典寶橋,22.73832,120.26436,高雄市,梓官區,典寶里
292,大寮國小,22.5911,120.41681,高雄市,大寮區,大寮里
293,北林路,22.56028,120.36815,高雄市,小港區,店鎮里
294,新光人壽,22.50016,120.39288,高雄市,林園區,文賢里
295,六龜大橋,22.99665,120.64144,高雄市,六龜區,中興里
296,南屏路,22.657,120.30007,高雄市,鼓山區,龍子里
297,中正西路,22.7824,120.24693,高雄市,彌陀區,彌仁里
298,彌壽宮,22.7784,120.24735,高雄市,彌陀區,彌壽里
299,彌陀國中(進學路),22.77616,120.24676,高雄市,彌陀區,海尾里
300,漯底路,22.76917,120.24483,高雄市,彌陀區,漯底里
301,頂厝(彌陀),22.76542,120.24348,高雄市,彌陀區,漯底里
302,南天宮(彌陀),22.76073,120.2385,高雄市,彌陀區,南寮里
303,大明街口,22.59086,120.41897,高雄市,大寮區,大寮里
304,南寮,22.76021,120.23667,高雄市,彌陀區,南寮里
305,秀傳醫院,22.7965,120.29453,高雄市,岡山區,岡山里
306,壽華路,22.79727,120.29312,高雄市,岡山區,壽天里
307,空軍機校,22.79919,120.28465,高雄市,岡山區,壽峰里
308,育才路口,22.80513,120.27699,高雄市,岡山區,本洲里
309,南本洲,22.80735,120.26524,高雄市,岡山區,本洲里
310,本洲,22.80787,120.26102,高雄市,岡山區,本洲里
311,西本洲,22.80808,120.25847,高雄市,永安區,維新里
312,工業區(本洲),22.8083,120.25162,高雄市,永安區,維新里
313,維新-岡,22.80827,120.24677,高雄市,永安區,維新里
314,上寮路口(大寮路),22.59194,120.42199,高雄市,大寮區,上寮里
315,西維新,22.80943,120.24329,高雄市,永安區,維新里
316,天文宮,22.81336,120.24279,高雄市,永安區,維新里
317,南天宮(永安),22.81653,120.24152,高雄市,永安區,維新里
318,牧場,22.81874,120.24044,高雄市,永安區,維新里
319,永安國中,22.82349,120.23828,高雄市,永安區,保寧里
320,永安,22.81856,120.22627,高雄市,永安區,永華里
321,永安國小,22.81589,120.22437,高雄市,永安區,永華里
322,西永安,22.81677,120.22139,高雄市,永安區,永華里
323,新港,22.81779,120.21064,高雄市,永安區,新港里
324,新港國小,22.82192,120.20879,高雄市,永安區,新港里
325,北新港,22.82839,120.20657,高雄市,永安區,新港里
326,鹽村,22.83349,120.2086,高雄市,永安區,鹽田里
327,華中路,22.58986,120.42875,高雄市,大寮區,大寮里
328,鹽田,22.83405,120.20971,高雄市,永安區,鹽田里
329,塭仔邊,22.82965,120.21314,高雄市,永安區,鹽田里
330,永仁公園,22.68259,120.33212,高雄市,仁武區,八卦里
331,六張犁,22.90867,120.49043,高雄市,旗山區,永和里
332,圓富里,22.91598,120.49455,高雄市,旗山區,圓富里
333,口隘庄內,22.92029,120.49629,高雄市,旗山區,圓富里
334,口隘,22.92235,120.49714,高雄市,旗山區,圓富里
335,圓潭農會,22.92693,120.50024,高雄市,旗山區,圓富里
336,圓潭農場,22.92939,120.50205,高雄市,旗山區,中正里
337,圓潭,22.9325,120.5033,高雄市,旗山區,中正里
338,中隘,22.93943,120.50671,高雄市,旗山區,中正里
339,大發工業區管理中心,22.58221,120.42875,高雄市,大寮區,過溪里
340,埔姜林,22.94907,120.51104,高雄市,旗山區,大林里
341,大林(旗甲路四段),22.95954,120.51578,高雄市,旗山區,大林里
342,旗甲二路,22.96078,120.51791,高雄市,旗山區,大林里
343,刺仔寮,22.96125,120.52865,高雄市,杉林區,月眉里
344,杉林農會,22.9643,120.53211,高雄市,杉林區,月眉里
345,月眉,22.96754,120.5337,高雄市,杉林區,月眉里
346,電力公司(杉林),22.96992,120.53612,高雄市,杉林區,月眉里
347,杉林國中,22.97074,120.53877,高雄市,杉林區,月眉里
348,杉林區公所(衛生所),22.97194,120.53996,高雄市,杉林區,上平里
349,中興北路一,22.69317,120.43295,高雄市,大樹區,檨腳里
350,潮寮活動中心,22.56595,120.42867,高雄市,大寮區,潮寮里
351,南河,22.97769,120.54453,高雄市,杉林區,上平里
352,杉林里,22.99867,120.54988,高雄市,杉林區,杉林里
353,杉林角,22.99904,120.55785,高雄市,杉林區,杉林里
354,內灣,23.0068,120.56979,高雄市,杉林區,杉林里
355,白水泉,23.01704,120.5547,高雄市,杉林區,木梓里
356,木梓國小,23.01948,120.54632,高雄市,杉林區,木梓里
357,木梓,23.02108,120.54394,高雄市,杉林區,木梓里
358,潮寮國中,22.56427,120.4251,高雄市,大寮區,潮寮里
359,六龜農會(光復路),22.99545,120.63514,高雄市,六龜區,義寶里
360,六龜戲院前,22.99528,120.6377,高雄市,六龜區,義寶里
361,潮寮,22.5626,120.42855,高雄市,大寮區,潮寮里
362,興瓏,23.00512,120.64851,高雄市,六龜區,興龍里
363,育幼院,23.00599,120.65601,高雄市,六龜區,興龍里
364,舊潭,23.01248,120.66546,高雄市,六龜區,興龍里
365,北舊潭,23.01569,120.66545,高雄市,六龜區,興龍里
366,獅額頭,23.02234,120.66417,高雄市,六龜區,新發里
367,新發,23.02837,120.66338,高雄市,六龜區,新發里
368,新發國小,23.03169,120.66374,高雄市,六龜區,新發里
369,灰窯(六龜),23.03528,120.66524,高雄市,六龜區,新發里
370,頂新發,23.04314,120.66776,高雄市,六龜區,新發里
371,水冬瓜,23.05253,120.66756,高雄市,六龜區,荖濃里
372,會結,22.55439,120.42323,高雄市,大寮區,會結里
373,番仔埔,23.05966,120.6694,高雄市,六龜區,荖濃里
374,下崁,23.06961,120.67281,高雄市,六龜區,荖濃里
375,荖濃,23.07201,120.67303,高雄市,六龜區,荖濃里
376,荖濃國小,23.07311,120.673,高雄市,六龜區,荖濃里
377,下長份,23.07767,120.67556,高雄市,六龜區,荖濃里
378,長份,23.07942,120.67674,高雄市,六龜區,荖濃里
379,頂濃路口,23.08309,120.679,高雄市,六龜區,荖濃里
380,外埔,23.08499,120.67944,高雄市,六龜區,荖濃里
381,頂荖濃,23.08639,120.6799,高雄市,六龜區,荖濃里
382,大圳,23.08999,120.68288,高雄市,六龜區,荖濃里
383,昭明變電所站,22.54832,120.41156,高雄市,大寮區,義仁里
384,建山路口,23.09624,120.6826,高雄市,桃源區,建山里
385,大埔路口,23.10101,120.68341,高雄市,桃源區,建山里
386,妙通寺,23.10003,120.68594,高雄市,桃源區,建山里
387,羨仔腳,23.10531,120.69352,高雄市,桃源區,建山里
388,寶來,23.10829,120.69942,高雄市,六龜區,寶來里
389,露營區,23.0503,120.67516,高雄市,六龜區,新發里
390,寶來國中,23.11059,120.70299,高雄市,六龜區,寶來里
391,囉囉埔,23.11143,120.71228,高雄市,六龜區,寶來里
392,檢查哨,23.12001,120.70992,高雄市,桃源區,高中里
393,長老教會,23.13058,120.71922,高雄市,桃源區,高中里
394,高中二村,23.13412,120.72309,高雄市,桃源區,高中里
395,大肚關,23.13857,120.7391,高雄市,桃源區,高中里
396,舊社,23.14367,120.74806,高雄市,桃源區,高中里
397,深溝,23.15278,120.75889,高雄市,桃源區,桃源里
398,桃源區公所(衛生所),23.1589,120.76401,高雄市,桃源區,桃源里
399,桃源,23.15948,120.76572,高雄市,桃源區,桃源里
400,義仁路,22.54646,120.41004,高雄市,大寮區,義仁里
401,六龜農會(太平路),22.99561,120.63505,高雄市,六龜區,義寶里
402,美濃站,22.90168,120.5416,高雄市,美濃區,泰安里
403,美濃區公所(衛生所),22.89519,120.54252,高雄市,美濃區,合和里
404,水廠(中壇),22.88929,120.5369,高雄市,美濃區,祿興里
405,中壇,22.88715,120.53455,高雄市,美濃區,祿興里
406,中美旅社,22.88641,120.53265,高雄市,美濃區,祿興里
407,中壇廟,22.8866,120.52947,高雄市,美濃區,祿興里
408,昭明派出所,22.54471,120.40628,高雄市,大寮區,義仁里
409,中壇橋,22.88661,120.52601,高雄市,美濃區,祿興里
410,旗美商工,22.88627,120.51955,高雄市,美濃區,福安里
411,崙仔頂,22.88545,120.50907,高雄市,美濃區,福安里
412,旗山紙廠,22.88478,120.50288,高雄市,旗山區,東平里
413,一號橋(中壇),22.88355,120.49731,高雄市,旗山區,東平里
414,橋頭地方法院(2),22.7373,120.3042,高雄市,橋頭區,新莊里
415,金鴻山金寶塔,22.7169,120.39103,高雄市,仁武區,仁福里
416,灣仔內,22.64879,120.3149,高雄市,三民區,灣興里
417,三民公園(博愛路口),22.64535,120.30394,高雄市,三民區,達明里
418,明德橋,23.20228,120.79626,高雄市,桃源區,勤和里
419,圓通寺,22.54175,120.40434,高雄市,大寮區,義仁里
420,中山大學行政大樓,22.625,120.26591,高雄市,鼓山區,桃源里
421,土庫三路(清豐路口),22.7392,120.32829,高雄市,楠梓區,清豐里
422,東六新經路口,22.72457,120.30842,高雄市,楠梓區,瑞屏里
423,中正高中,22.626,120.33798,高雄市,苓雅區,正義里
424,紐約57街,22.6632,120.28843,高雄市,鼓山區,龍水里
425,中興北路,22.69534,120.43305,高雄市,大樹區,檨腳里
426,中洲二路口,22.58289,120.29077,高雄市,旗津區,上竹里
427,高師大燕巢校區(歸燕食巢),22.787,120.40476,高雄市,燕巢區,深水里
428,天鳳宮,22.58196,120.29144,高雄市,旗津區,上竹里
429,變電所(十全),22.64615,120.29346,高雄市,三民區,安邦里
430,港後路口,22.56713,120.33215,高雄市,小港區,港口里
431,三陽造船廠,22.57986,120.29315,高雄市,旗津區,上竹里
432,昭明,22.53971,120.40366,高雄市,大寮區,義仁里
433,佛公,22.57524,120.32534,高雄市,前鎮區,草衙里
434,湖底橋(杉林),22.98129,120.55347,高雄市,杉林區,上平里
435,隘丁寮,22.98286,120.55574,高雄市,杉林區,新庄里
436,球場路口,22.65506,120.33652,高雄市,鳥松區,大華里
437,中正路(通安路口),22.73127,120.25432,高雄市,梓官區,智蚵里
438,中洲國小,22.57807,120.29454,高雄市,旗津區,上竹里
439,哨船街,22.62258,120.26941,高雄市,鼓山區,哨船頭里
440,甲仙站,23.08258,120.58781,高雄市,甲仙區,西安里
441,濟公廟,23.08245,120.60016,高雄市,甲仙區,東安里
442,鳳林一路,22.5364,120.40166,高雄市,大寮區,義仁里
443,咖啡村,23.07526,120.61118,高雄市,甲仙區,東安里
444,鹽桑坑,23.07787,120.6211,高雄市,甲仙區,東安里
445,白雲橋,23.0631,120.6216,高雄市,甲仙區,西安里
446,上直瀨,23.07052,120.6465,高雄市,六龜區,荖濃里
447,下直瀨,23.07051,120.65351,高雄市,六龜區,荖濃里
448,上智橋,23.07138,120.66018,高雄市,六龜區,荖濃里
449,高中里,23.12971,120.71783,高雄市,桃源區,高中里
450,哨船頭,22.61975,120.26926,高雄市,鼓山區,哨船頭里
451,仁武高中,22.70147,120.35454,高雄市,仁武區,文武里
452,大順路口(建工路),22.64915,120.32278,高雄市,三民區,正順里
453,林內橋,22.53411,120.4009,高雄市,林園區,林內里
454,漁故鄉(蚵仔寮漁港),22.7275,120.25761,高雄市,梓官區,智蚵里
455,水安里,22.66266,120.41093,高雄市,大樹區,水寮里
456,水寮,22.66551,120.40958,高雄市,大樹區,水寮里
457,博愛職訓中心,22.64661,120.28939,高雄市,三民區,德西里
458,營口路,22.5698,120.37089,高雄市,小港區,松金里
459,海洋探索館(旗津漁港停車場),22.58942,120.28751,高雄市,旗津區,南汕里
460,岡山農工(嘉新西路),22.80221,120.29303,高雄市,岡山區,岡山里
461,苗圃,22.88916,120.6241,高雄市,六龜區,新寮里
462,水寮中山路,22.66705,120.40911,高雄市,大樹區,水寮里
463,經六路,22.72178,120.30035,高雄市,楠梓區,瑞屏里
464,林內,22.53177,120.39957,高雄市,林園區,林內里
465,高師大燕巢校區(致理大樓),22.78906,120.40597,高雄市,燕巢區,深水里
466,和平里,23.0386,120.66605,高雄市,六龜區,新發里
467,朝天宮(旗文路),22.90433,120.47923,高雄市,旗山區,永和里
468,嶺頂,22.90826,120.47456,高雄市,內門區,東埔里
469,石溝,22.91133,120.46624,高雄市,內門區,內南里
470,二層橋,22.91712,120.46231,高雄市,內門區,內南里
471,農會(內門),22.91737,120.45692,高雄市,內門區,觀亭里
472,觀音亭,22.91833,120.45387,高雄市,內門區,觀亭里
473,中埔,22.92002,120.45116,高雄市,內門區,中埔里
474,內門國中,22.92253,120.45337,高雄市,內門區,觀亭里
475,中厝,22.52949,120.39886,高雄市,林園區,中厝里
476,中埔頭,22.92349,120.45396,高雄市,內門區,觀亭里
477,菜公坑,22.92736,120.45675,高雄市,內門區,光興里
478,內埔橋,22.93178,120.4596,高雄市,內門區,內豊里
479,十三甲,22.93676,120.46151,高雄市,內門區,內豊里
480,內門國小,22.93957,120.46144,高雄市,內門區,內豊里
481,內門區公所,22.94165,120.46234,高雄市,內門區,內門里
482,內門,22.94509,120.4637,高雄市,內門區,內門里
483,內湖,22.9616,120.47184,高雄市,內門區,三平里
484,蘇遠埔,22.96688,120.46814,高雄市,內門區,木柵里
485,潭頭,22.52636,120.39718,高雄市,林園區,潭頭里
486,木柵,22.97558,120.46876,高雄市,內門區,木柵里
487,頂寮橋,22.98219,120.46961,高雄市,內門區,木柵里
488,椰樹橋,22.98934,120.46886,高雄市,內門區,內興里
489,內興里,22.99359,120.46728,高雄市,內門區,內興里
490,分水嶺,23.00086,120.46835,高雄市,內門區,內興里
491,茄冬橋,23.00517,120.46871,台南市,南化區,東和里
492,金馬寮,23.00834,120.4701,台南市,南化區,東和里
493,北頭,23.01571,120.47259,台南市,南化區,東和里
494,大坪,23.02171,120.47395,台南市,南化區,東和里
495,西部,23.03267,120.47517,台南市,南化區,西埔里
496,新金潭,22.52394,120.39689,高雄市,林園區,潭頭里
497,界址,23.03713,120.47736,台南市,南化區,西埔里
498,南化派出所,23.04245,120.47704,台南市,南化區,南化里
499,南化(加油站),23.04353,120.47855,台南市,南化區,南化里
500,孔宅,22.57957,120.37128,高雄市,小港區,孔宅里
501,溝坪路口,22.92304,120.4977,高雄市,旗山區,圓富里
502,舊圓潭,22.92461,120.49435,高雄市,旗山區,圓富里
503,西圓潭,22.92739,120.49278,高雄市,旗山區,圓富里
504,大埔尾,22.93154,120.49327,高雄市,旗山區,圓富里
505,大埔,22.93879,120.49215,高雄市,內門區,永富里
506,紅土崎,22.94435,120.49179,高雄市,內門區,永富里
507,介壽路,22.52028,120.396,高雄市,林園區,潭頭里
508,太祖廟,22.94837,120.49143,高雄市,內門區,永富里
509,萊仔坑,22.95522,120.49371,高雄市,內門區,永富里
510,埔頂,22.95972,120.49548,高雄市,內門區,永富里
511,龍山路口,22.96571,120.49776,高雄市,內門區,永富里
512,寶林,22.96769,120.49771,高雄市,內門區,永富里
513,寶山公園,22.97204,120.49762,高雄市,內門區,永富里
514,市仔尾寮,22.97558,120.49758,高雄市,內門區,永吉里
515,田螺窟,22.97821,120.49787,高雄市,內門區,永吉里
516,頂庄,22.9823,120.50043,高雄市,內門區,永興里
517,永興社區,22.98558,120.50172,高雄市,內門區,永興里
518,清水岩路口,22.51722,120.39544,高雄市,林園區,潭頭里
519,藤坑口,22.9885,120.50224,高雄市,內門區,永興里
520,南溝坪,22.9905,120.50168,高雄市,內門區,溝坪里
521,興天宮,22.99273,120.50069,高雄市,內門區,溝坪里
522,溝坪,22.99418,120.5009,高雄市,內門區,溝坪里
523,頭社,22.99921,120.50276,高雄市,內門區,溝坪里
524,頂頭社,23.00135,120.50338,高雄市,內門區,溝坪里
525,竹圍,23.00332,120.50797,高雄市,內門區,金竹里
526,金竹國小,23.00896,120.51373,高雄市,內門區,金竹里
527,金瓜寮,23.01285,120.51993,高雄市,內門區,金竹里
528,竹峰寺,23.01384,120.5239,高雄市,內門區,金竹里
529,峰山里,22.87622,120.35341,高雄市,阿蓮區,峰山里
530,埤子尾(中山路),22.85988,120.3243,高雄市,阿蓮區,崗山里
531,土庫(阿蓮),22.8426,120.32061,高雄市,阿蓮區,玉庫里
532,北文街口,22.64084,120.36916,高雄市,鳳山區,鎮北里
533,德松路口,22.76395,120.30755,高雄市,橋頭區,德松里
534,林園站,22.50193,120.38784,高雄市,林園區,頂厝里
535,捷運青埔站(成功南路),22.74369,120.31686,高雄市,橋頭區,橋南里
536,水管路口(高楠公路),22.70441,120.32397,高雄市,仁武區,高楠里
537,員工服務中心,22.72385,120.30656,高雄市,楠梓區,瑞屏里
538,木業公司(梓官),22.74432,120.25703,高雄市,梓官區,赤東里
539,大遼里,22.77693,120.30013,高雄市,岡山區,劉厝里
540,中山一路口,22.63442,120.3035,高雄市,新興區,黎明里
541,輔英科大校區,22.60399,120.39169,高雄市,大寮區,永芳里
542,捷運楠梓加工區(加工區內),22.71916,120.30616,高雄市,楠梓區,瑞屏里
543,中鴻公司,22.53264,120.3716,高雄市,小港區,山明里
544,高英工商,22.59447,120.40204,高雄市,大寮區,三隆里
545,中山工商,22.60271,120.39704,高雄市,大寮區,會社里
546,東林西路,22.50312,120.39108,高雄市,林園區,頂厝里
547,南區資源回收廠(北林路),22.55012,120.37565,高雄市,小港區,山明里
548,長庚復健大樓,22.65046,120.35303,高雄市,鳥松區,鳥松里
549,文山高中,22.64847,120.35418,高雄市,鳥松區,鳥松里
550,慈濟大學推廣中心,22.80748,120.28529,高雄市,岡山區,灣裡里
551,太爺(中正路一段),22.90955,120.22636,高雄市,湖內區,太爺里
552,海峰,22.7635,120.3327,高雄市,橋頭區,中崎里
553,埔尾,23.05194,120.67569,高雄市,六龜區,新發里
554,文化街口,22.7877,120.29656,高雄市,岡山區,仁義里
555,果貿社區,22.671,120.28661,高雄市,左營區,果貿里
556,岡山農工,22.80241,120.29152,高雄市,岡山區,岡山里
557,茄萣電信局,22.90935,120.18437,高雄市,茄萣區,白雲里
558,台泥公司,22.81705,120.27383,高雄市,岡山區,本洲里
559,東方路口(東方技術學院),22.88166,120.24927,高雄市,湖內區,大湖里
560,大湖,22.88851,120.24283,高雄市,湖內區,大湖里
561,威武廟,22.90742,120.18396,高雄市,茄萣區,白雲里
562,田尾里,22.89458,120.24052,高雄市,湖內區,田尾里
563,仁佑診所,22.91003,120.22414,高雄市,湖內區,太爺里
564,圍內,22.90916,120.22089,高雄市,湖內區,葉厝里
565,分局,22.50931,120.39466,高雄市,林園區,林園里
566,葉厝甲,22.90878,120.21721,高雄市,湖內區,葉厝里
567,湖內農會,22.90865,120.21468,高雄市,湖內區,中賢里
568,湖內區公所(圍子內),22.90846,120.21133,高雄市,湖內區,文賢里
569,文賢里,22.90804,120.20866,高雄市,湖內區,中賢里
570,草仔寮-湖內,22.91198,120.19562,高雄市,湖內區,忠興里
571,林園高中,22.51349,120.39506,高雄市,林園區,林園里
572,白砂崙,22.91287,120.18509,高雄市,茄萣區,萬福里
573,南白砂崙,22.91077,120.18463,高雄市,茄萣區,白雲里
574,茄萣區公所(茄萣國中),22.90639,120.18369,高雄市,茄萣區,白雲里
575,曾厝,22.90119,120.18406,高雄市,茄萣區,嘉安里
576,頂茄萣,22.89816,120.18472,高雄市,茄萣區,嘉福里
577,茄萣農會(下茄萣),22.8958,120.18507,高雄市,茄萣區,保定里
578,光萣,22.89273,120.18631,高雄市,茄萣區,大定里
579,成功橋,22.88991,120.187,高雄市,茄萣區,吉定里
580,創意北路,22.71464,120.30034,高雄市,楠梓區,宏榮里
581,力行路(永芳國小),22.60634,120.39652,高雄市,大寮區,永芳里
582,中山工商(力行路),22.60421,120.39789,高雄市,大寮區,永芳里
583,芎林六街口,22.74829,120.33144,高雄市,楠梓區,清豐里
584,大寮區公所,22.60456,120.39571,高雄市,大寮區,永芳里
585,一隧,22.93135,120.64416,高雄市,六龜區,新興里
586,勞動女性紀念公園,22.59443,120.28063,高雄市,旗津區,南汕里
587,五甲農會,22.59649,120.33356,高雄市,鳳山區,南和里
588,南京瑞隆東路口,22.60715,120.34576,高雄市,鳳山區,老爺里
589,哈瑪星旅運接駁中心(輕軌哈瑪星站),22.62118,120.27538,高雄市,鼓山區,麗興里
590,金福路口(草衙三路),22.57021,120.32956,高雄市,前鎮區,草衙里
591,創意南路,22.7132,120.30216,高雄市,楠梓區,宏榮里
592,竹仔門,22.86941,120.58238,高雄市,美濃區,龍肚里
593,晉禾公司,22.80752,120.2936,高雄市,岡山區,岡山里
594,漯底公園,22.76736,120.25598,高雄市,梓官區,梓信里
595,誠德里,22.62228,120.37598,高雄市,鳳山區,誠智里
596,柑提,22.83841,120.35189,高雄市,田寮區,新興里
597,輕軌夢時代站(統一時代百貨),22.59515,120.30508,高雄市,前鎮區,興邦里
598,龍肚路口,22.8754,120.57371,高雄市,美濃區,龍肚里
599,大學一街口,22.72686,120.29458,高雄市,楠梓區,藍田里
600,興達港立體停車場,22.87168,120.1944,高雄市,茄萣區,崎漏里
601,高雄中學,22.63796,120.29736,高雄市,三民區,建東里
602,五分仔,22.79481,120.24392,高雄市,彌陀區,鹽埕里
603,三塊厝,22.85427,120.22848,高雄市,路竹區,竹滬里
604,新竹滬,22.86141,120.22761,高雄市,路竹區,竹滬里
605,明誠路口(中華一路),22.66222,120.29261,高雄市,鼓山區,龍水里
606,大舍甲農會(大舍辦事處),22.74662,120.26167,高雄市,梓官區,大舍里
607,捷運南岡山站,22.78065,120.30046,高雄市,岡山區,大遼里
608,假日市集,22.87923,120.21419,高雄市,茄萣區,崎漏里
609,南保寧,22.83261,120.23482,高雄市,永安區,保寧里
610,保寧,22.83536,120.23471,高雄市,永安區,保寧里
611,下甲,22.84777,120.23038,高雄市,路竹區,新達里
612,大湖埤,22.87453,120.22507,高雄市,湖內區,海山里
613,興達遠洋漁港,22.87684,120.21429,高雄市,茄萣區,崎漏里
614,情人碼頭,22.88085,120.21139,高雄市,茄萣區,崎漏里
615,興達港(正大路),22.87882,120.20391,高雄市,茄萣區,崎漏里
616,崎漏,22.87751,120.18905,高雄市,茄萣區,崎漏里
617,北崎漏,22.87922,120.18848,高雄市,茄萣區,崎漏里
618,臺鐵新左營站,22.68876,120.30762,高雄市,左營區,尾北里
619,興達港海巡署基地,22.87639,120.20103,高雄市,茄萣區,崎漏里
620,茄萣郵局,22.90421,120.18702,高雄市,茄萣區,嘉賜里
621,白雲里,22.91199,120.1873,高雄市,茄萣區,白雲里
622,耶穌聖名堂,22.64894,120.34492,高雄市,鳥松區,大華里
623,新竹滬 ,22.86146,120.22747,高雄市,路竹區,頂寮里
624,大學東路口,22.72739,120.29044,高雄市,楠梓區,藍田里
625,中庄消防分隊(八德路口),22.63251,120.39635,高雄市,大寮區,中庄里
626,彌陀加油站,22.78992,120.24563,高雄市,彌陀區,鹽埕里
627,鹽埕,22.78724,120.24677,高雄市,彌陀區,鹽埕里
628,凱旋四路,22.60342,120.32361,高雄市,前鎮區,瑞竹里
629,活動中心(燕巢區),22.78264,120.36168,高雄市,燕巢區,南燕里
630,海光公司,22.55052,120.36545,高雄市,小港區,山明里
631,成功一路口,22.63146,120.29063,高雄市,前金區,新生里
632,楠梓火車站,22.72754,120.32565,高雄市,楠梓區,惠楠里
633,燕巢果菜市場,22.76021,120.3593,高雄市,燕巢區,鳳雄里
634,西溪路,22.49025,120.39309,高雄市,林園區,西溪里
635,鳳芸站,22.48704,120.39748,高雄市,林園區,鳳芸里
636,健仁醫院,22.72377,120.3294,高雄市,楠梓區,中陽里
637,頂庄棒球場,22.5884,120.35786,高雄市,鳳山區,過埤里
638,汕尾,22.48159,120.40958,高雄市,林園區,中汕里
639,常順街口,22.7329,120.3363,高雄市,楠梓區,五常里
640,中芸,22.49011,120.3974,高雄市,林園區,中芸里
641,高鐵總機廠,22.75985,120.34586,高雄市,燕巢區,鳳雄里
642,八德路口(大灣),22.67654,120.34037,高雄市,仁武區,大灣里
643,高雄科大(第一東校區),22.75812,120.33613,高雄市,橋頭區,中崎里
644,慈雲寺(楠梓區公所),22.73019,120.32716,高雄市,楠梓區,東寧里
645,電力公司(楠梓),22.73294,120.33056,高雄市,楠梓區,東寧里
646,楠梓派出所(旗楠路),22.73131,120.32899,高雄市,楠梓區,東寧里
647,立文路,22.66447,120.30586,高雄市,左營區,新上里
648,中芸國小(側門),22.48818,120.39602,高雄市,林園區,中芸里
649,楠陽國小,22.72504,120.3295,高雄市,楠梓區,中陽里
650,大學6街口,22.72379,120.28181,高雄市,楠梓區,中興里
651,華夏路口(重愛路),22.68704,120.3137,高雄市,左營區,福山里
652,桂德街口,22.58328,120.35744,高雄市,小港區,桂林里
653,三多三路口,22.61571,120.31192,高雄市,前鎮區,忠孝里
654,岡山文化中心(後門),22.78278,120.29952,高雄市,岡山區,大遼里
655,輕軌五權國小站(三多二路),22.62049,120.32511,高雄市,苓雅區,林榮里
656,大順一路口,22.65633,120.3088,高雄市,左營區,新上里
657,光華五福路口,22.6263,120.31473,高雄市,苓雅區,中正里
658,復興三路口,22.61142,120.31031,高雄市,前鎮區,盛豐里
659,三民區公所,22.64721,120.2999,高雄市,三民區,安邦里
660,育英路,22.79401,120.28193,高雄市,岡山區,協和里
661,仙峰宮站,22.72729,120.42326,高雄市,大樹區,三和里
662,民生二里,23.27919,120.71957,高雄市,那瑪夏區,達卡努瓦里
663,那瑪夏,23.22542,120.69409,高雄市,那瑪夏區,南沙魯里
664,錫安山,23.21124,120.66852,高雄市,那瑪夏區,南沙魯里
665,大德三路口,22.78884,120.29948,高雄市,岡山區,後紅里
666,鼓山行政中心(興隆),22.63606,120.28066,高雄市,鼓山區,鼓岩里
667,小林,23.16237,120.63985,高雄市,甲仙區,小林里
668,澄新二街口,22.66982,120.35714,高雄市,仁武區,仁慈里
669,澄新四街口,22.67105,120.35686,高雄市,仁武區,仁慈里
670,大灣,22.68017,120.35018,高雄市,仁武區,仁和里
671,通安路,22.73306,120.25451,高雄市,梓官區,茄苳里
672,新開紀念公園,23.05707,120.67737,高雄市,六龜區,新發里
673,通港路,22.72607,120.25853,高雄市,梓官區,信蚵里
674,和春技術學院(大發校區),22.60602,120.42745,高雄市,大寮區,琉球里
675,興隆路口,22.61263,120.4107,高雄市,大寮區,琉球里
676,自由路口(大寮),22.61685,120.39222,高雄市,大寮區,中興里
677,仁愛路(大寮),22.62942,120.39506,高雄市,大寮區,前庄里
678,水寮中華路,22.66498,120.40594,高雄市,大樹區,水安里
679,高鐵路,22.69377,120.31659,高雄市,仁武區,高楠里
680,文學路口(中華路),22.69784,120.34781,高雄市,仁武區,文武里
681,部立旗山醫院(中華路),22.88042,120.48384,高雄市,旗山區,大德里
682,龍肚,22.87793,120.57066,高雄市,美濃區,龍肚里
683,新威大橋,22.89018,120.64751,高雄市,六龜區,大津里
684,茂林風景區入口,22.88061,120.65008,高雄市,茂林區,茂林里
685,茂林區公所,22.88601,120.6636,高雄市,茂林區,茂林里
686,射日英雄,22.88676,120.66675,高雄市,茂林區,茂林里
687,萬山里,22.90996,120.68078,高雄市,茂林區,萬山里
688,喜樂亭(萬山上部落),22.91025,120.68368,高雄市,茂林區,萬山里
689,東林東路,22.50372,120.39722,高雄市,林園區,東林里
690,龍頭山遊憩區,22.90928,120.69006,高雄市,茂林區,多納里
691,蛇頭山觀景台,22.91578,120.69651,高雄市,茂林區,多納里
692,多納古戰場,22.91608,120.71195,高雄市,茂林區,多納里
693,多納,22.90946,120.7139,高雄市,茂林區,多納里
694,聖母宮,22.81643,120.30199,高雄市,岡山區,嘉興里
695,林園區公所,22.50768,120.39496,高雄市,林園區,林園里
696,文英里,22.63778,120.35644,高雄市,鳳山區,文英里
697,光明路口,22.61197,120.41261,高雄市,大寮區,琉球里
698,義和社區,22.63952,120.41814,高雄市,大寮區,義和里
699,溪寮國小,22.62988,120.42083,高雄市,大寮區,溪寮里
700,溪寮社區,22.6295,120.41791,高雄市,大寮區,溪寮里
701,滷味博物館,22.8172,120.2669,高雄市,岡山區,本洲里
702,本工六路口,22.81241,120.26346,高雄市,岡山區,本洲里
703,永安工業區,22.8082,120.25236,高雄市,永安區,維新里
704,本工五路口,22.80969,120.27032,高雄市,岡山區,本洲里
705,大莊里,22.81121,120.32689,高雄市,岡山區,大莊里
706,樹德科技大學(校區),22.76373,120.37627,高雄市,燕巢區,橫山里
707,會結路口,22.55556,120.4125,高雄市,大寮區,潮寮里
708,大學十一街口,22.72809,120.28695,高雄市,楠梓區,藍田里
709,高雄物產館,22.6805,120.29777,高雄市,左營區,尾北里
710,大舍北路,22.74812,120.26147,高雄市,梓官區,大舍里
711,平安街口,22.7572,120.26231,高雄市,梓官區,梓平里
712,衛武營國家藝術文化中心(三多路),22.6245,120.34087,高雄市,苓雅區,正義里
713,衛武營都會公園,22.62407,120.33746,高雄市,苓雅區,正義里
714,中正體育場,22.62391,120.33532,高雄市,苓雅區,福西里
715,輔仁路口(三多一路),22.62368,120.3339,高雄市,苓雅區,福西里
716,菁華幼兒園,22.65105,120.3396,高雄市,鳥松區,大華里
717,本和街口,22.65349,120.32859,高雄市,三民區,本館里
718,自立路口,22.63417,120.29839,高雄市,新興區,建興里
719,新庄(鳳林二路),22.56179,120.4119,高雄市,大寮區,新厝里
720,輕軌五權國小站(凱旋二路),22.62108,120.32509,高雄市,苓雅區,林靖里
721,高雄文化中心(和平一路),22.62732,120.31911,高雄市,苓雅區,同慶里
722,麗尊酒店,22.62723,120.3131,高雄市,新興區,德生里
723,新興高中,22.62474,120.30573,高雄市,新興區,永寧里
724,捷運中央公園站,22.62489,120.30103,高雄市,前金區,長生里
725,捷運美麗島站,22.63017,120.30192,高雄市,新興區,東坡里
726,輔英科大圖書館,22.6025,120.38916,高雄市,大寮區,山頂里
727,忠誠路口,22.65806,120.36093,高雄市,鳥松區,鳥松里
728,新庄變電所,22.56902,120.41136,高雄市,大寮區,過溪里
729,孟子路口,22.67822,120.30242,高雄市,左營區,新光里
730,仁雄澄合街口,22.68064,120.35065,高雄市,仁武區,灣內里
731,輕軌凱旋公園站(民生醫院),22.62766,120.32243,高雄市,苓雅區,同慶里
732,凱旋醫院(高師大),22.62343,120.32411,高雄市,苓雅區,林靖里
733,中都濕地公園(美都路),22.64826,120.28812,高雄市,三民區,德西里
734,國軍高雄總醫院(捷運衛武營站),22.62548,120.3404,高雄市,苓雅區,正義里
735,捷運五塊厝站(中正一路),22.62931,120.32887,高雄市,苓雅區,正言里
736,城市光廊(捷運中央公園站),22.62303,120.30035,高雄市,前金區,長生里
737,大立百貨,22.6214,120.29577,高雄市,前金區,社東里
738,濃公,22.57362,120.41021,高雄市,大寮區,過溪里
739,五福瀨南街口,22.62404,120.28259,高雄市,鹽埕區,江南里
740,建國四路口,22.62508,120.28062,高雄市,鹽埕區,教仁里
741,輕軌壽山公園站,22.62604,120.27773,高雄市,鼓山區,登山里
742,捷運西子灣站,22.62261,120.27448,高雄市,鼓山區,峰南里
743,鼓山市場,22.62251,120.27287,高雄市,鼓山區,新民里
744,中山大學(隧道口),22.62387,120.26991,高雄市,鼓山區,壽山里
745,濱海二路,22.62166,120.26998,高雄市,鼓山區,惠安里
746,鼓山輪渡站,22.61974,120.27062,高雄市,鼓山區,維生里
747,新濱碼頭,22.6199,120.27246,高雄市,鼓山區,維生里
748,健能游泳池,22.59135,120.32904,高雄市,鳳山區,五福里
749,童心幼稚園,22.59161,120.33029,高雄市,鳳山區,天興里
750,南成國小,22.5948,120.33495,高雄市,鳳山區,南成里
751,潮寮路口,22.57724,120.409,高雄市,大寮區,過溪里
752,家樂福五甲店,22.59643,120.33733,高雄市,鳳山區,富榮里
753,飛鳳宮,22.58743,120.34731,高雄市,鳳山區,南成里
754,南成里,22.58763,120.34904,高雄市,鳳山區,南成里
755,高雄科大(燕巢),22.77294,120.40073,高雄市,燕巢區,深水里
756,九如四路,22.64855,120.27887,高雄市,鼓山區,厚生里
757,岡山電信局,22.78459,120.29614,高雄市,岡山區,信義里
758,岡山稽徵所(國稅局),22.78453,120.29116,高雄市,岡山區,信義里
759,楠梓國中,22.73545,120.32626,高雄市,楠梓區,東寧里
760,家樂福新楠站(清豐一路),22.73641,120.33176,高雄市,楠梓區,清豐里
761,大崎腳(大寮),22.58217,120.40703,高雄市,大寮區,三隆里
762,楠梓高中,22.74462,120.33118,高雄市,楠梓區,清豐里
763,高雄科大(第一西校區),22.7514,120.33158,高雄市,楠梓區,清豐里
764,中崙國中,22.60313,120.35308,高雄市,鳳山區,中榮里
765,北昌三街口,22.64533,120.37276,高雄市,鳳山區,鎮北里
766,南京路口(興隆街),22.60654,120.34491,高雄市,鳳山區,新甲里
767,南京路口(南福街),22.61314,120.34628,高雄市,鳳山區,海洋里
768,林園,22.50407,120.39392,高雄市,林園區,文賢里
769,鎮北國小,22.64294,120.36758,高雄市,鳳山區,忠誠里
770,牛潮埔休閒公園,22.64413,120.36618,高雄市,鳳山區,忠誠里
771,文前路口,22.66337,120.36237,高雄市,鳥松區,鳥松里
772,五里埔(小林國小),23.14788,120.63074,高雄市,甲仙區,小林里
773,大崎腳路口,22.58468,120.40598,高雄市,大寮區,三隆里
774,康定路,22.58418,120.32066,高雄市,前鎮區,明道里
775,關山里,23.11266,120.60612,高雄市,甲仙區,關山里
776,甲仙區公所.衛生所,23.08387,120.58817,高雄市,甲仙區,和安里
777,美術東四路口(明誠四路),22.66137,120.28968,高雄市,鼓山區,龍水里
778,新榮巷,23.07024,120.5786,高雄市,甲仙區,大田里
779,大社區公所,22.73038,120.34689,高雄市,大社區,大社里
780,匏子寮,23.04846,120.55441,高雄市,甲仙區,寶隆里
781,重愛路(新莊高中),22.68347,120.31796,高雄市,左營區,福山里
782,鳳南路,22.59955,120.33707,高雄市,鳳山區,一甲里
783,小份尾,22.99922,120.57324,高雄市,杉林區,集來里
784,新開,23.06388,120.6815,高雄市,六龜區,新發里
785,三隆路口,22.5873,120.40491,高雄市,大寮區,三隆里
786,松柏街口,22.57037,120.36235,高雄市,小港區,泰山里
787,益群路(德民路口),22.7238,120.29757,高雄市,楠梓區,翠屏里
788,新庄國小,22.98721,120.56171,高雄市,杉林區,新庄里
789,高坪35街口,22.5556,120.37978,高雄市,小港區,坪頂里
790,大愛里,22.967,120.54338,高雄市,杉林區,月眉里
791,九如四路口(逢甲路),22.66374,120.28363,高雄市,鼓山區,前峰里
792,逢甲路口(九如四路),22.66376,120.28277,高雄市,鼓山區,前峰里
793,七號公園,22.7146,120.29653,高雄市,楠梓區,秀昌里
794,高大管理學院,22.73242,120.28813,高雄市,楠梓區,藍田里
795,北興龍,23.00629,120.64947,高雄市,六龜區,興龍里
796,高雄監獄,22.59222,120.40289,高雄市,大寮區,三隆里
797,美術東五路口,22.65924,120.29228,高雄市,鼓山區,龍水里
798,旗山農工,22.90194,120.48325,高雄市,旗山區,永和里
799,旗山衛生所,22.89026,120.48013,高雄市,旗山區,湄洲里
800,黃埔公園,22.62201,120.36825,高雄市,鳳山區,東門里
801,福誠高中,22.59021,120.32444,高雄市,鳳山區,五福里
802,鳳新高中(南京路),22.61346,120.34576,高雄市,鳳山區,新富里
803,竹仔寮抽水站,22.66836,120.42609,高雄市,大樹區,竹寮里
804,河堤公園(明誠二路),22.66067,120.31078,高雄市,左營區,新上里
805,奇美博物館,22.93535,120.22105,台南市,仁德區,成功里
806,聚亨公司,22.80434,120.29468,高雄市,岡山區,岡山里
807,古嚴寺,22.71167,120.38725,高雄市,仁武區,仁福里
808,岡山文化中心,22.78384,120.2974,高雄市,岡山區,大遼里
809,一甲(路竹),22.87159,120.27346,高雄市,路竹區,甲北里
810,大中路口(民族一路),22.67762,120.31895,高雄市,左營區,菜公里
811,草衙,22.57705,120.32378,高雄市,前鎮區,草衙里
812,紅毛港文化園區,22.54919,120.318,高雄市,小港區,鳳森里
813,上平里,22.97615,120.54286,高雄市,杉林區,上平里
814,介壽路口,22.68045,120.28261,高雄市,左營區,崇實里
815,鼎中路口,22.66006,120.31971,高雄市,三民區,鼎中里
816,鎮中路口,22.58585,120.31979,高雄市,前鎮區,平昌里
817,瑞豐站(瑞隆路),22.60589,120.33734,高雄市,前鎮區,瑞隆里
818,小港站,22.56528,120.34073,高雄市,小港區,小港里
819,仁愛路(鳳山),22.62392,120.3728,高雄市,鳳山區,東門里
820,小港醫院,22.56647,120.36326,高雄市,小港區,宏亮里
821,福安,22.89655,120.51945,高雄市,美濃區,福安里
822,高坪60街口,22.55546,120.38203,高雄市,小港區,坪頂里
823,鳳山商工(建國路三段),22.63641,120.35623,高雄市,鳳山區,文華里
824,高坪39街口,22.55283,120.38311,高雄市,小港區,坪頂里
825,朝鳳寺(家和五街),22.58622,120.34395,高雄市,鳳山區,南成里
826,嘉峰里活動中心,22.82791,120.31194,高雄市,岡山區,嘉峰里
827,久堂里(永豐餘造紙),22.65896,120.41993,高雄市,大樹區,久堂里
828,月天寺,22.62542,120.41,高雄市,大寮區,翁園里
829,西門,22.62686,120.35268,高雄市,鳳山區,鎮西里
830,柴頭溪口,22.9694,120.64123,高雄市,六龜區,文武里
831,海富路,22.68888,120.2892,高雄市,左營區,明建里
832,過昌街,22.58695,120.36104,高雄市,鳳山區,過埤里
833,榮總側門,22.6796,120.32182,高雄市,左營區,福山里
834,路竹農會,22.86102,120.26022,高雄市,路竹區,竹東里
835,宏平路口,22.57293,120.36669,高雄市,小港區,松金里
836,飛機路,22.57328,120.35896,高雄市,小港區,濟南里
837,勞工育樂中心,22.65275,120.35978,高雄市,鳥松區,鳥松里
838,大立百貨(文武二街口),22.62186,120.29761,高雄市,前金區,文西里
839,高坪8路口,22.54514,120.38222,高雄市,小港區,坪頂里
840,公路之家,22.62741,120.3508,高雄市,鳳山區,忠義里
841,大樹圖書館,22.65812,120.41827,高雄市,大樹區,久堂里
842,湖底橋(大樹),22.65837,120.41547,高雄市,大樹區,久堂里
843,高坪11路口,22.54341,120.3807,高雄市,小港區,坪頂里
844,南區資源回收廠,22.55322,120.3762,高雄市,小港區,山明里
845,褒揚街口,22.63998,120.34541,高雄市,三民區,寶業里
846,龍山林社區,22.91123,120.49249,高雄市,旗山區,永和里
847,養護中心,23.07364,120.58062,高雄市,甲仙區,大田里
848,輕軌凱旋中華站(舊凱旋四路),22.59398,120.31124,高雄市,前鎮區,興邦里
849,前鎮國中,22.58345,120.32224,高雄市,前鎮區,明道里
850,捷運前鎮高中站(勞工行政中心),22.58759,120.3223,高雄市,前鎮區,平等里
851,隆后宮,22.89404,120.40263,高雄市,田寮區,古亭里
852,屏東轉運站,22.66954,120.48621,屏東縣,屏東市,崇智里
853,中山國中,22.56681,120.35526,高雄市,小港區,順苓里
854,民族路口(八德一路),22.63536,120.31259,高雄市,新興區,開平里
855,復興,22.96346,120.64268,高雄市,六龜區,文武里
856,鳳山高中,22.62801,120.34654,高雄市,鳳山區,中和里
857,楠梓高中(創新路),22.74511,120.32952,高雄市,楠梓區,清豐里
858,金鼎路口,22.66432,120.32185,高雄市,三民區,鼎西里
859,瑞隆東路,22.60635,120.34309,高雄市,鳳山區,老爺里
860,美術東四路,22.66023,120.29037,高雄市,鼓山區,龍水里
861,正義路口(建國一路),22.63007,120.33802,高雄市,苓雅區,正仁里
862,安樂宮,22.78857,120.24345,高雄市,彌陀區,鹽埕里
863,經六內環北路口,22.72391,120.29972,高雄市,楠梓區,瑞屏里
864,經六西二街口,22.71845,120.30173,高雄市,楠梓區,瑞屏里
865,新威國小,22.89876,120.62703,高雄市,六龜區,新威里
866,污水處理廠,22.58665,120.28738,高雄市,旗津區,南汕里
867,國際商場,22.62525,120.28172,高雄市,鹽埕區,教仁里
868,東三街,22.7216,120.30849,高雄市,楠梓區,瑞屏里
869,新寮,22.8805,120.61411,高雄市,六龜區,新寮里
870,鳳新高中,22.61287,120.34294,高雄市,鳳山區,新強里
871,錦田路口(八德一路),22.63551,120.3102,高雄市,新興區,開平里
872,寶來7-11,23.10885,120.70016,高雄市,六龜區,寶來里
873,移民署,22.79136,120.29609,高雄市,岡山區,平安里
874,二坡,22.92036,120.63987,高雄市,六龜區,新興里
875,建業路,22.57077,120.42869,高雄市,大寮區,潮寮里
876,江山里(鳳屏二路),22.6407,120.40863,高雄市,大寮區,中庄里
877,九兄弟,22.88355,120.61998,高雄市,六龜區,新寮里
878,東六街口,22.72471,120.30868,高雄市,楠梓區,瑞屏里
879,台南航空站,22.94854,120.21678,台南市,仁德區,仁愛里
880,南汕里,22.58556,120.28838,高雄市,旗津區,南汕里
881,健康公園,22.87377,120.19688,高雄市,茄萣區,崎漏里
882,三鳳中街,22.63744,120.29509,高雄市,三民區,興德里
883,博愛三路口,22.68078,120.31059,高雄市,左營區,菜公里
884,建國林森路口,22.63766,120.30437,高雄市,三民區,長明里
885,進學路,22.60573,120.39392,高雄市,大寮區,永芳里
886,水肥處理廠,22.58471,120.28913,高雄市,旗津區,上竹里
887,柳橋西路,22.78994,120.28246,高雄市,岡山區,後協里
888,鳳翔國小,22.59493,120.33986,高雄市,鳳山區,二甲里
889,上寮路口(至學路),22.60796,120.42252,高雄市,大寮區,琉球里
890,中興路(元良公司),22.7762,120.36072,高雄市,燕巢區,角宿里
891,家樂福新楠站(清豐二路站),22.73667,120.33036,高雄市,楠梓區,清豐里
892,中仁路口,22.71755,120.35126,高雄市,仁武區,文武里
893,瑞興市場,22.63097,120.37182,高雄市,鳳山區,中正里
894,不老溫泉,23.06615,120.68497,高雄市,六龜區,新發里
895,市立聯合醫院,22.65513,120.29227,高雄市,鼓山區,龍水里
896,工協街口,22.62947,120.37383,高雄市,鳳山區,中正里
897,中正國小(鳳山),22.62855,120.37392,高雄市,鳳山區,埤頂里
898,電信技術中心,22.83107,120.26345,高雄市,路竹區,北嶺里
899,大灣國中,22.67676,120.34238,高雄市,仁武區,大灣里
900,三和里,22.72443,120.42969,高雄市,大樹區,三和里
901,捷運鹽埕埔站(大仁路),22.62523,120.28532,高雄市,鹽埕區,光明里
902,輕軌凱旋武昌站,22.61654,120.32687,高雄市,鳳山區,武慶里
903,高鐵台南站,22.92415,120.28608,台南市,歸仁區,武東里
904,正興國小(寶興路口),22.64633,120.32664,高雄市,三民區,寶興里
905,駁二藝術特區(大智路),22.62093,120.28511,高雄市,鹽埕區,河濱里
906,第二衛生所,22.59373,120.33325,高雄市,鳳山區,南和里
907,美術館(中華藝校),22.6555,120.28812,高雄市,鼓山區,龍水里
908,鳳山行政中心(中山西路),22.62812,120.3438,高雄市,鳳山區,忠義里
909,路竹區公所(國昌路),22.85443,120.25934,高雄市,路竹區,竹南里
910,路竹高中(國昌路),22.85515,120.25435,高雄市,路竹區,文南里
911,路竹高中(中華路),22.85478,120.25268,高雄市,路竹區,文南里
912,路竹宿舍,22.84434,120.24522,高雄市,路竹區,後鄉里
913,後鄉里,22.84367,120.24463,高雄市,路竹區,後鄉里
914,順安宮,22.84126,120.2426,高雄市,路竹區,後鄉里
915,國昌路口(中山路),22.85323,120.26153,高雄市,路竹區,竹南里
916,阿蓮區公所,22.88327,120.32693,高雄市,阿蓮區,清蓮里
917,仁光路站,22.68319,120.3509,高雄市,仁武區,灣內里
918,美術園區,22.65344,120.28799,高雄市,鼓山區,龍水里
919,大津活動中心,22.89193,120.64733,高雄市,六龜區,大津里
920,大津褔德廟,22.90193,120.64806,高雄市,六龜區,大津里
921,茂林遊客活動中心,22.88012,120.64927,高雄市,六龜區,大津里
922,埤頂派出所,22.62826,120.38057,高雄市,鳳山區,鳳東里
923,梓官區公所,22.76071,120.26669,高雄市,梓官區,梓義里
924,仕隆活動中心,22.75275,120.31075,高雄市,橋頭區,仕隆里
925,土庫二路,22.73928,120.32559,高雄市,楠梓區,清豐里
926,通安路口,22.7325,120.2533,高雄市,梓官區,智蚵里
927,嘉展路口,22.73402,120.25228,高雄市,梓官區,茄苳里
928,中正路一(蚵仔寮),22.73657,120.25012,高雄市,梓官區,赤東里
929,中正路二(蚵仔寮),22.73829,120.24959,高雄市,梓官區,赤東里
930,大社果菜市場,22.73082,120.35567,高雄市,大社區,神農里
931,福壽宮,22.60702,120.27062,高雄市,旗津區,中華里
932,市場前,22.62559,120.36179,高雄市,鳳山區,新興里
933,捷運市議會站,22.62891,120.2943,高雄市,前金區,東金里
934,福山國小,22.68431,120.31588,高雄市,左營區,福山里
935,保雅路,22.59421,120.3497,高雄市,鳳山區,保安里
936,一心一路口(輕軌籬仔內站),22.60628,120.32481,高雄市,前鎮區,竹南里
937,輕軌凱旋瑞田站,22.59958,120.31973,高雄市,前鎮區,瑞竹里
938,輕軌籬仔內站(凱旋四路),22.60436,120.32434,高雄市,前鎮區,瑞竹里
939,輕軌凱旋瑞田站(舊凱旋四路),22.59978,120.31973,高雄市,前鎮區,忠誠里
940,玄龍宮,23.0336,120.53739,高雄市,杉林區,木梓里
941,中興(萬丹路),22.61294,120.39655,高雄市,大寮區,永芳里
942,旗山醫院,22.88111,120.48271,高雄市,旗山區,大德里
943,中華路口(明誠三路),22.66104,120.29323,高雄市,鼓山區,龍子里
944,文信路口,22.66415,120.30015,高雄市,鼓山區,明誠里
945,捷運巨蛋站(篤敬路口),22.66451,120.3028,高雄市,鼓山區,明誠里
946,大順一路(好市多),22.65681,120.30638,高雄市,鼓山區,龍子里
947,龍華國中(忠言路口),22.65871,120.30888,高雄市,左營區,新上里
948,大樂民族店,22.65968,120.31445,高雄市,三民區,灣興里
949,鼎力路,22.66831,120.32333,高雄市,三民區,鼎金里
950,輔英科大中正堂,22.60102,120.38992,高雄市,大寮區,永芳里
951,內溪,22.61339,120.4006,高雄市,大寮區,永芳里
952,樹人醫專(部分班次延駛),22.88274,120.26081,高雄市,路竹區,甲南里
953,海科院,22.63021,120.26197,高雄市,鼓山區,桃源里
954,海工館,22.62929,120.26215,高雄市,鼓山區,桃源里
955,H棟宿舍,22.62719,120.26778,高雄市,鼓山區,桃源里
956,中山大學活動中心,22.62799,120.26536,高雄市,鼓山區,桃源里
957,正修科大宿舍,22.64738,120.35156,高雄市,鳥松區,鳥松里
958,正修科大(後門),22.64906,120.35094,高雄市,鳥松區,鳥松里
959,姑山倉庫(大坑路),22.71024,120.43945,高雄市,大樹區,大坑里
960,大潤發,22.63368,120.35563,高雄市,鳳山區,文華里
961,八德路,22.6383,120.3593,高雄市,鳳山區,文英里
962,文山里,22.63981,120.35625,高雄市,鳳山區,文山里
963,松埔路口(圓照寺),22.65904,120.38056,高雄市,鳥松區,坔埔里
964,永芳路口,22.61398,120.4053,高雄市,大寮區,永芳里
965,農友種苗,22.6604,120.42612,高雄市,大樹區,竹寮里
966,新吉庄,22.68637,120.4302,高雄市,大樹區,大樹里
967,實踐街,22.68896,120.43121,高雄市,大樹區,檨腳里
968,中正一路,22.69342,120.4346,高雄市,大樹區,檨腳里
969,中興東路,22.69147,120.43439,高雄市,大樹區,檨腳里
970,九曲路口,22.654,120.42402,高雄市,大樹區,九曲里
971,高碼,22.65818,120.38931,高雄市,鳥松區,華美里
972,建國新城(文衡路口),22.63608,120.35907,高雄市,鳳山區,文英里
973,井腳里,22.67209,120.40854,高雄市,大樹區,井腳里
974,崇聖殿,22.67405,120.40781,高雄市,大樹區,井腳里
975,朱峰宮,22.61345,120.40792,高雄市,大寮區,琉球里
976,小坪國小,22.68181,120.41116,高雄市,大樹區,小坪里
977,大樹里,22.68681,120.42675,高雄市,大樹區,大樹里
978,保安宮(大樹),22.68712,120.42979,高雄市,大樹區,大樹里
979,文濱路口,22.63761,120.34698,高雄市,鳳山區,文福里
980,青年路口(建國路三段),22.63734,120.35105,高雄市,鳳山區,文福里
981,法元寺,22.6306,120.36153,高雄市,鳳山區,北門里
982,瑞興國小,22.63114,120.36737,高雄市,鳳山區,瑞興里
983,瑞興兒童公園,22.62899,120.36706,高雄市,鳳山區,瑞興里
984,豁落靈宮殿,22.62697,120.36614,高雄市,鳳山區,瑞興里
985,瑞興瑞竹路口,22.62547,120.36711,高雄市,鳳山區,瑞竹里
986,博愛瑞進路口,22.62755,120.37242,高雄市,鳳山區,瑞竹里
987,博愛勝利路口,22.62632,120.37466,高雄市,鳳山區,瑞竹里
988,新莊路口,22.67223,120.29785,高雄市,左營區,新下里
989,久堂里(九曲堂火車站),22.65749,120.41747,高雄市,大樹區,久堂里
990,九曲堂火車站(內),22.65651,120.42071,高雄市,大樹區,久堂里
991,翁園國小,22.6225,120.40902,高雄市,大寮區,翁園里
992,姑山倉庫(大樹農會教育園區),22.70987,120.44039,高雄市,大樹區,大坑里
993,佛陀紀念館,22.75493,120.44608,高雄市,大樹區,統嶺里
994,鳳山寺(大樹),22.69055,120.43185,高雄市,大樹區,檨腳里
995,龍目井,22.68904,120.40929,高雄市,大樹區,龍目里
996,高鐵左營站,22.68703,120.30878,高雄市,左營區,菜公里
997,天聖宮,22.59665,120.27901,高雄市,旗津區,北汕里
998,漢翔公司,22.8093,120.31976,高雄市,岡山區,大莊里
999,大莊公園,22.80763,120.31953,高雄市,岡山區,大莊里
1000,關帝宮,22.80765,120.31778,高雄市,岡山區,大莊里
1001,肉品市場,22.80765,120.3119,高雄市,岡山區,竹圍里
1002,溪寮,22.62695,120.41728,高雄市,大寮區,溪寮里
1003,三多鋼鐵,22.80761,120.30756,高雄市,岡山區,竹圍里
1004,嘉新東路,22.80765,120.30216,高雄市,岡山區,台上里
1005,嘉新東路口,22.80708,120.30133,高雄市,岡山區,台上里
1006,岡山郵局(大仁路),22.80558,120.30153,高雄市,岡山區,竹圍里
1007,竹圍國小,22.8032,120.30161,高雄市,岡山區,竹圍里
1008,旗山市場,22.88989,120.48339,高雄市,旗山區,湄洲里
1009,朝鳳宮,22.61958,120.40932,高雄市,大寮區,琉球里
1010,壽天派出所,22.80111,120.30176,高雄市,岡山區,竹圍里
1011,和平公園,22.7985,120.30201,高雄市,岡山區,竹圍里
1012,碧紅宮,22.79538,120.30251,高雄市,岡山區,碧紅里
1013,順天宮,22.79351,120.30231,高雄市,岡山區,碧紅里
1014,岡山國中(大仁南路),22.79042,120.30224,高雄市,岡山區,後紅里
1015,巷尾路,22.61836,120.40997,高雄市,大寮區,琉球里
1016,江山里(江山路),22.64048,120.40916,高雄市,大寮區,中庄里
1017,鳳山行政中心(光復路),22.62944,120.34325,高雄市,鳳山區,忠義里
1018,捷運大寮站,22.62127,120.39212,高雄市,大寮區,中興里
1019,大寮中正路(捷西路口),22.61915,120.38866,高雄市,大寮區,中興里
1020,大明路口,22.60847,120.34182,高雄市,鳳山區,新甲里
1021,新富路,22.61547,120.34845,高雄市,鳳山區,國富里
1022,黃厝路,22.61625,120.40887,高雄市,大寮區,琉球里
1023,忠孝國小,22.61782,120.34927,高雄市,鳳山區,國光里
1024,國光路口,22.6205,120.3495,高雄市,鳳山區,協和里
1025,捷運鳳山西站(青年路一段),22.62539,120.3493,高雄市,鳳山區,協和里
1026,青年國中,22.63051,120.34953,高雄市,鳳山區,忠孝里
1027,新寮橋,22.87883,120.6048,高雄市,六龜區,新寮里
1028,武侯宮,22.61423,120.41156,高雄市,大寮區,琉球里
1029,建國路口(青年路二段),22.6383,120.35072,高雄市,鳳山區,文衡里
1030,文衡路口,22.64118,120.35122,高雄市,鳳山區,文德里
1031,濱山街口,22.64513,120.3501,高雄市,鳳山區,文德里
1032,五甲派出所,22.59756,120.33521,高雄市,鳳山區,富榮里
1033,澄園,22.64694,120.34775,高雄市,三民區,本揚里
1034,光明巷,22.98458,120.63725,高雄市,六龜區,文武里
1035,文福里,22.63541,120.35031,高雄市,鳳山區,文福里
1036,高雄仁愛之家,22.63967,120.39758,高雄市,大寮區,後庄里
1037,客家文物館,22.65075,120.29594,高雄市,三民區,安宜里
1038,五甲,22.5929,120.32774,高雄市,鳳山區,五福里
1039,民光街口,22.63836,120.39372,高雄市,大寮區,後庄里
1040,過雄街,22.58673,120.35936,高雄市,鳳山區,過埤里
1041,河堤路口(岡山路),22.78614,120.29694,高雄市,岡山區,岡山里
1042,旗津三路,22.59134,120.28327,高雄市,旗津區,南汕里
1043,小港天主教堂,22.56517,120.33347,高雄市,小港區,港口里
1044,高雄餐旅大學(校區),22.56544,120.37177,高雄市,小港區,山明里
1045,頂勤和,23.17988,120.78049,高雄市,桃源區,勤和里
1046,真福山,23.00177,120.56554,高雄市,杉林區,杉林里
1047,青海美術南二路口,22.65145,120.28591,高雄市,鼓山區,龍水里
1048,建國一路,22.62969,120.33911,高雄市,苓雅區,正仁里
1049,凱國路口,22.63583,120.31569,高雄市,三民區,博惠里
1050,建國忠孝路口,22.6376,120.30617,高雄市,三民區,長明里
1051,三民國小,22.63619,120.29057,高雄市,三民區,千北里
1052,建國三路,22.63551,120.28854,高雄市,三民區,千北里
1053,河濱國小,22.63485,120.2865,高雄市,三民區,千北里
1054,北斗街口,22.63181,120.28368,高雄市,鹽埕區,慈愛里
1055,鹽埕分局,22.63079,120.28298,高雄市,鹽埕區,慈愛里
1056,大公路口(建國四路),22.62773,120.28133,高雄市,鹽埕區,陸橋里
1057,巴楠花部落小學,22.96483,120.53999,高雄市,杉林區,月眉里
1058,大榮高中,22.65336,120.27889,高雄市,鼓山區,平和里
1059,中安路(高鳳路口),22.58487,120.36697,高雄市,小港區,孔宅里
1060,鼎山街口,22.65253,120.32011,高雄市,三民區,灣成里
1061,廠邊三路口(飛機路),22.57332,120.35706,高雄市,小港區,濟南里
1062,二坡前,22.92456,120.64141,高雄市,六龜區,新興里
1063,臺鐵美術館站(青海路),22.65171,120.28149,高雄市,鼓山區,民強里
1064,高松陸橋,22.56937,120.37839,高雄市,小港區,松山里
1065,高坪29路口,22.55704,120.3826,高雄市,小港區,坪頂里
1066,高坪11路,22.54627,120.37998,高雄市,小港區,坪頂里
1067,義華路口(大昌二路),22.64492,120.33205,高雄市,三民區,寶興里
1068,大仁東路,22.66122,120.36309,高雄市,鳥松區,鳥松里
1069,鳥松區公所(神農路),22.6593,120.36516,高雄市,鳥松區,鳥松里
1070,大山,22.85319,120.46784,高雄市,旗山區,大山里
1071,澄清澄和路口,22.64384,120.34638,高雄市,三民區,本揚里
1072,高坪35街,22.55284,120.38167,高雄市,小港區,坪頂里
1073,捷運小港站,22.5648,120.35369,高雄市,小港區,二苓里
1074,永和街,22.56311,120.39057,高雄市,小港區,坪頂里
1075,文華國小,22.63441,120.35207,高雄市,鳳山區,文華里
1076,臺鐵三塊厝站(自立路),22.63967,120.29633,高雄市,三民區,建東里
1077,小港路口,22.56381,120.33441,高雄市,小港區,港正里
1078,成功路口,22.63722,120.39103,高雄市,大寮區,後庄里
1079,圓富國中,22.92813,120.50096,高雄市,旗山區,圓富里
1080,新隘丁寮,22.98454,120.55741,高雄市,杉林區,新庄里
1081,益榮,22.98783,120.56356,高雄市,杉林區,新庄里
1082,大華里(澄清路),22.64683,120.34691,高雄市,三民區,本揚里
1083,中街,22.98858,120.56495,高雄市,杉林區,新庄里
1084,旗山新庄,22.98958,120.56624,高雄市,杉林區,新庄里
1085,茶亭,22.99355,120.56889,高雄市,杉林區,新庄里
1086,山尾,22.99736,120.57147,高雄市,杉林區,新庄里
1087,旗山新厝,23.00367,120.57548,高雄市,杉林區,集來里
1088,火山,23.01011,120.57827,高雄市,杉林區,集來里
1089,火山坑,23.01817,120.57205,高雄市,杉林區,集來里
1090,下十張犁,23.01973,120.5674,高雄市,杉林區,集來里
1091,十張犁,23.02239,120.56303,高雄市,杉林區,集來里
1092,新頂埔,23.02346,120.56206,高雄市,杉林區,集來里
1093,新威,22.90385,120.63045,高雄市,六龜區,新威里
1094,頂埔,23.02801,120.56283,高雄市,杉林區,集來里
1095,官埔,23.03264,120.56174,高雄市,杉林區,集來里
1096,八張犁,23.03846,120.55225,高雄市,杉林區,集來里
1097,旗山水廠,23.0427,120.55011,高雄市,杉林區,集來里
1098,寶隆,23.05066,120.5574,高雄市,甲仙區,寶隆里
1099,仙林巷,23.05725,120.56045,高雄市,甲仙區,大田里
1100,大丘園,23.05948,120.56641,高雄市,甲仙區,大田里
1101,田厝(近甲仙),23.06348,120.57251,高雄市,甲仙區,大田里
1102,鎮州路,22.58931,120.3095,高雄市,前鎮區,鎮榮里
1103,鎮東二街口,22.59146,120.31131,高雄市,前鎮區,鎮東里
1104,共榮橋,22.88495,120.55491,高雄市,美濃區,合和里
1105,捷運凱旋站(輕軌前鎮之星站),22.59518,120.31586,高雄市,前鎮區,興邦里
1106,世貿廣場,22.59768,120.31803,高雄市,前鎮區,瑞竹里
1107,瑞祥高中(凱旋四路),22.60266,120.32334,高雄市,前鎮區,瑞竹里
1108,民族一路口,22.66848,120.31596,高雄市,三民區,鼎泰里
1109,輕軌機廠站,22.60935,120.32561,高雄市,前鎮區,瑞北里
1110,輕軌凱旋二聖站,22.61285,120.32716,高雄市,鳳山區,武慶里
1111,三多二路口,22.61949,120.32574,高雄市,苓雅區,朝陽里
1112,中正路口(凱旋一路),22.63103,120.32129,高雄市,苓雅區,五權里
1113,建國路口(凱旋一路),22.63332,120.32044,高雄市,苓雅區,安祥里
1114,憲政路口,22.63372,120.32604,高雄市,苓雅區,五福里
1115,廣善堂,22.90209,120.53205,高雄市,美濃區,瀰濃里
1116,公館(甲仙),23.07728,120.58241,高雄市,甲仙區,大田里
1117,大順覺民路口(科工館),22.64011,120.32775,高雄市,三民區,寶安里
1118,樹德家商,22.64331,120.32668,高雄市,三民區,寶興里
1119,正興國小,22.64508,120.326,高雄市,三民區,寶中里
1120,大慶街口,22.65123,120.33264,高雄市,三民區,本武里
1121,育英醫專(大豐二路),22.65002,120.33408,高雄市,三民區,本武里
1122,皓東路,22.64925,120.33424,高雄市,三民區,本武里
1123,甲仙橋,23.07995,120.58378,高雄市,甲仙區,大田里
1124,皓東路口,22.64841,120.33192,高雄市,三民區,寶玉里
1125,育英醫專(大昌二路),22.65049,120.33156,高雄市,三民區,本武里
1126,南溝路,22.75324,120.30913,高雄市,橋頭區,仕隆里
1127,旗山監理站,22.90059,120.47939,高雄市,旗山區,永和里
1128,佛光山,22.74926,120.44701,高雄市,大樹區,興田里
1129,大昌二路(建工路口),22.652,120.32973,高雄市,三民區,本武里
1130,貝殼館,22.60254,120.27468,高雄市,旗津區,復興里
1131,新光高中(民族路),22.63643,120.38987,高雄市,大寮區,後庄里
1132,後庄國小,22.6384,120.38929,高雄市,大寮區,後庄里
1133,甲樹路口(第二殯儀館橋頭分館),22.7585,120.2971,高雄市,橋頭區,東林里
1134,圖書總館,22.61069,120.30128,高雄市,前鎮區,振興里
1135,民眾服務站,22.56426,120.33637,高雄市,小港區,小港里
1136,旗津國中(旗津二路),22.58853,120.28565,高雄市,旗津區,南汕里
1137,鼓山高中,22.65299,120.27586,高雄市,鼓山區,正德里
1138,綠川里(慈仁宮),22.63542,120.28454,高雄市,鼓山區,綠川里
1139,河邊里活動中心,22.63972,120.28369,高雄市,鼓山區,河邊里
1140,興田,22.74203,120.4482,高雄市,大樹區,興田里
1141,中華路口(七賢二路),22.63337,120.29601,高雄市,前金區,長城里
1142,捷運西子灣站(出口1),22.62193,120.27394,高雄市,鼓山區,峰南里
1143,二苓路,22.56548,120.34703,高雄市,小港區,三苓里
1144,壽民路,22.72156,120.29655,高雄市,楠梓區,加昌里
1145,中都磚窯廠(川東里),22.6404,120.28436,高雄市,三民區,川東里
1146,七賢二路口(中華三路),22.63334,120.29442,高雄市,前金區,長城里
1147,三民市場,22.63618,120.2933,高雄市,三民區,興德里
1148,中華二路口,22.64238,120.29079,高雄市,三民區,德西里
1149,九如新村,22.64328,120.28811,高雄市,三民區,德西里
1150,九如橋,22.64431,120.28507,高雄市,三民區,川東里
1151,新興(大樹),22.73736,120.4477,高雄市,大樹區,興田里
1152,一德路,22.60783,120.31044,高雄市,前鎮區,良和里
1153,六龜大佛,23.05541,120.6769,高雄市,六龜區,新發里
1154,左營市場,22.68775,120.29372,高雄市,左營區,廟東里
1155,半屏山(左營大路),22.69392,120.29935,高雄市,左營區,永清里
1156,復興新村,22.69623,120.30093,高雄市,左營區,復興里
1157,祥和山莊,22.69767,120.30205,高雄市,左營區,祥和里
1158,煉油廠(捷運世運站),22.70275,120.3027,高雄市,楠梓區,宏南里
1159,後昌路(左楠路口),22.70798,120.30123,高雄市,楠梓區,宏南里
1160,莒光新村(後昌路),22.70807,120.29919,高雄市,楠梓區,慶昌里
1161,溪埔,22.73201,120.44727,高雄市,大樹區,溪埔里
1162,莒光國小,22.71031,120.29621,高雄市,楠梓區,和昌里
1163,慈愛大樓,22.71302,120.29408,高雄市,楠梓區,隆昌里
1164,加宏路,22.71673,120.29333,高雄市,楠梓區,宏昌里
1165,亞洲托兒所,22.71819,120.29623,高雄市,楠梓區,加昌里
1166,加昌國小,22.72024,120.2964,高雄市,楠梓區,加昌里
1167,德民路(外環西路口),22.72354,120.29855,高雄市,楠梓區,瑞屏里
1168,少年溪,23.17197,120.77498,高雄市,桃源區,勤和里
1169,彩虹城,22.72475,120.30074,高雄市,楠梓區,瑞屏里
1170,加工區北門,22.72521,120.30401,高雄市,楠梓區,瑞屏里
1171,海專路口,22.72628,120.30982,高雄市,楠梓區,瑞屏里
1172,溪埔派出所,22.72768,120.4445,高雄市,大樹區,溪埔里
1173,高雄科大(楠梓),22.72482,120.31314,高雄市,楠梓區,瑞屏里
1174,加昌路口(捷運後勁站),22.7237,120.31618,高雄市,楠梓區,金田里
1175,仁翔社區,22.73679,120.33708,高雄市,楠梓區,清豐里
1176,興楠路,22.72995,120.33288,高雄市,楠梓區,享平里
1177,家樂福鼎山店,22.65308,120.31923,高雄市,三民區,灣成里
1178,崇實新村(左營南站),22.67793,120.28659,高雄市,左營區,自助里
1179,成功商場,22.63836,120.39059,高雄市,大寮區,後庄里
1180,鳳屏教會,22.6368,120.39157,高雄市,大寮區,後庄里
1181,西子灣(英國領事館官邸),22.61961,120.26642,高雄市,鼓山區,桃源里
1182,文府國小(重忠路口),22.69206,120.31389,高雄市,左營區,福山里
1183,旗津醫院(清靜寺),22.59117,120.28539,高雄市,旗津區,南汕里
1184,開發內環西路口,22.72006,120.30025,高雄市,楠梓區,瑞屏里
1185,溪埔國小,22.72253,120.44338,高雄市,大樹區,溪埔里
1186,芳城市餐廳,22.65208,120.34065,高雄市,鳥松區,大華里
1187,翠峰路,22.67173,120.289,高雄市,左營區,果貿里
1188,翠屏路,22.72925,120.34981,高雄市,大社區,翠屏里
1189,那瑪夏區公所.衛生所,23.27667,120.72052,高雄市,那瑪夏區,達卡努瓦里
1190,新經一路,22.72289,120.30956,高雄市,楠梓區,瑞屏里
1191,民族陸橋,22.64026,120.31526,高雄市,三民區,安寧里
1192,民族社區(九如一路),22.63992,120.31873,高雄市,三民區,安康里
1193,科工館,22.63951,120.32301,高雄市,三民區,安發里
1194,大坑,22.71771,120.44315,高雄市,大樹區,大坑里
1195,大順路口(九如一路),22.63921,120.32639,高雄市,三民區,寶盛里
1196,九如大順路口,22.63893,120.32867,高雄市,三民區,寶盛里
1197,民族國中(覺民路),22.6405,120.33409,高雄市,三民區,寶德里
1198,高速公路口,22.63986,120.33786,高雄市,三民區,寶慶里
1199,義華路口(陽明路),22.64185,120.34184,高雄市,三民區,寶國里
1200,義華路,22.64233,120.34328,高雄市,三民區,寶業里
1201,夢裡活動中心,22.66803,120.35805,高雄市,鳥松區,夢裡里
1202,澄新街,22.67307,120.3564,高雄市,仁武區,仁慈里
1203,小港分局,22.5656,120.34404,高雄市,小港區,小港里
1204,二苓(二苓路),22.56543,120.34826,高雄市,小港區,二苓里
1205,洲仔,22.71368,120.44124,高雄市,大樹區,大坑里
1206,二苓市場,22.56538,120.34963,高雄市,小港區,二苓里
1207,小港高中,22.56678,120.35758,高雄市,小港區,順苓里
1208,社教館,22.56548,120.35891,高雄市,小港區,六苓里
1209,新豐街口,22.56707,120.3606,高雄市,小港區,六苓里
1210,山明路(宏平路口),22.56939,120.362,高雄市,小港區,宏亮里
1211,小港醫院(漢民路口),22.56818,120.36249,高雄市,小港區,宏亮里
1212,宏文路口,22.57146,120.36387,高雄市,小港區,泰山里
1213,飛機路口,22.57228,120.3651,高雄市,小港區,松金里
1214,高松路,22.57276,120.36973,高雄市,小港區,松金里
1215,太平國小,22.57269,120.37181,高雄市,小港區,松山里
1216,姑山國小,22.70831,120.43819,高雄市,大樹區,姑山里
1217,大坪頂,22.56432,120.38708,高雄市,小港區,大坪里
1218,大坪里,22.56463,120.38857,高雄市,小港區,大坪里
1219,神農殿,22.56432,120.38995,高雄市,小港區,坪頂里
1220,坪頂國小(高坪17街),22.56123,120.39135,高雄市,小港區,坪頂里
1221,電信局(小港),22.55952,120.39117,高雄市,小港區,坪頂里
1222,高坪23路一,22.55553,120.38874,高雄市,小港區,坪頂里
1223,九龍寺,22.56269,120.38861,高雄市,小港區,大坪里
1224,旗津市場,22.61224,120.26971,高雄市,旗津區,振興里
1225,鳳陽社區,22.61996,120.37326,高雄市,鳳山區,誠正里
1226,民權一路,22.62449,120.31168,高雄市,新興區,浩然里
1227,國軍高雄總醫院,22.62636,120.34229,高雄市,苓雅區,衛武里
1228,正義路,22.63165,120.33984,高雄市,苓雅區,正仁里
1229,臺鐵正義站(正義路),22.63375,120.34146,高雄市,苓雅區,文昌里
1230,姑婆寮,22.70505,120.43427,高雄市,大樹區,姑山里
1231,正義路口(九如一路),22.63665,120.34257,高雄市,三民區,寶民里
1232,林進興醫院(寶獅里),22.63718,120.33959,高雄市,三民區,寶民里
1233,民族國中(九如一路),22.63836,120.333,高雄市,三民區,寶德里
1234,山東街口,22.64065,120.31211,高雄市,三民區,同德里
1235,青島街口,22.64081,120.30974,高雄市,三民區,德仁里
1236,自由路口(九如二路),22.64087,120.30801,高雄市,三民區,德仁里
1237,大連街口,22.64115,120.30541,高雄市,三民區,達仁里
1238,高雄車站(九如路),22.64137,120.30211,高雄市,三民區,精華里
1239,哈爾濱街口,22.64153,120.2998,高雄市,三民區,精華里
1240,鳳鳴電台,22.64173,120.29736,高雄市,三民區,精華里
1241,實踐大學(校區),22.90466,120.4677,高雄市,內門區,內南里
1242,崑明寺,22.69997,120.4334,高雄市,大樹區,姑山里
1243,安東街口(九如二路),22.64185,120.29549,高雄市,三民區,十美里
1244,通化街口,22.64202,120.29308,高雄市,三民區,十全里
1245,瑞豐站(武營路),22.60696,120.33801,高雄市,鳳山區,新武里
1246,北極殿(鳳山),22.61095,120.33745,高雄市,鳳山區,武漢里
1247,紫竹林精舍,22.61233,120.33724,高雄市,鳳山區,武漢里
1248,監理所(武營路),22.61571,120.33683,高雄市,鳳山區,新強里
1249,武昌路口(武營路),22.61808,120.33649,高雄市,苓雅區,福東里
1250,武營路,22.62035,120.3362,高雄市,苓雅區,福東里
1251,三多一路口,22.62277,120.33585,高雄市,苓雅區,福東里
1252,福德三路,22.62188,120.32771,高雄市,苓雅區,福祥里
1253,大樹活動中心,22.69683,120.43347,高雄市,大樹區,檨腳里
1254,建國一路口,22.63223,120.32821,高雄市,苓雅區,正文里
1255,建工路口(高雄高工),22.64948,120.32465,高雄市,三民區,寶珠里
1256,大豐二路口,22.64613,120.33193,高雄市,三民區,寶珠里
1257,正忠路口,22.64581,120.33044,高雄市,三民區,寶珠里
1258,大豐二路,22.64626,120.32761,高雄市,三民區,寶珠里
1259,福安路口,22.62814,120.32726,高雄市,苓雅區,永康里
1260,福東國小,22.62449,120.32658,高雄市,苓雅區,林靖里
1261,經二路,22.72162,120.30722,高雄市,楠梓區,瑞屏里
1262,瑞隆路,22.60563,120.33183,高雄市,前鎮區,瑞崗里
1263,崗山仔,22.60544,120.32944,高雄市,前鎮區,瑞崗里
1264,竹山亭,22.87291,120.59311,高雄市,六龜區,新寮里
1265,憲德市場,22.60522,120.32624,高雄市,前鎮區,瑞崗里
1266,樂群國小,22.60976,120.32183,高雄市,前鎮區,竹內里
1267,光華國中,22.61184,120.32251,高雄市,前鎮區,竹東里
1268,廣西路口,22.61476,120.32255,高雄市,前鎮區,竹中里
1269,林西街口,22.61756,120.32258,高雄市,苓雅區,林貴里
1270,五權街口,22.62018,120.32187,高雄市,苓雅區,林德里
1271,長青服務中心(和平一路),22.62227,120.32105,高雄市,苓雅區,林德里
1272,師範大學(和平校區),22.62523,120.31992,高雄市,苓雅區,同慶里
1273,捷運文化中心站,22.62954,120.31828,高雄市,苓雅區,凱旋里
1274,和平一路,22.63243,120.31718,高雄市,苓雅區,安祥里
1275,新甲國小,22.61286,120.34068,高雄市,鳳山區,新強里
1276,和平一路口,22.63374,120.31586,高雄市,新興區,順昌里
1277,七賢一路,22.63384,120.31415,高雄市,新興區,順昌里
1278,重信路口,22.68306,120.31225,高雄市,左營區,福山里
1279,民族路口(七賢一路),22.63395,120.31263,高雄市,新興區,開平里
1280,錦田路口(七賢一路),22.63407,120.31092,高雄市,新興區,開平里
1281,復興一路口,22.63412,120.3091,高雄市,新興區,中東里
1282,七賢國小,22.63429,120.3079,高雄市,新興區,南港里
1283,自強路口,22.63251,120.29346,高雄市,前金區,北金里
1284,河東路口,22.63063,120.28778,高雄市,前金區,新生里
1285,七賢三路口,22.62963,120.28473,高雄市,鹽埕區,府北里
1286,大公路,22.62737,120.28315,高雄市,鹽埕區,中原里
1287,重信博愛路口站(福山國中),22.68305,120.31123,高雄市,左營區,福山里
1288,富野路口,22.62817,120.28316,高雄市,鹽埕區,中山里
1289,和平二路口,22.60648,120.32136,高雄市,前鎮區,竹南里
1290,瑞福路口,22.60435,120.33633,高雄市,前鎮區,瑞隆里
1291,公正路口,22.60195,120.33276,高雄市,前鎮區,瑞平里
1292,南正二路口,22.6002,120.32932,高雄市,鳳山區,龍成里
1293,瑞祥國小,22.59976,120.32619,高雄市,前鎮區,瑞祥里
1294,瑞祥高中(班超路),22.60239,120.32495,高雄市,前鎮區,瑞豐里
1295,翠屏里活動中心,22.72679,120.30278,高雄市,楠梓區,翠屏里
1296,聯勤大樓,22.60852,120.31709,高雄市,前鎮區,竹西里
1297,愛群社區,22.6107,120.31208,高雄市,前鎮區,興中里
1298,旗尾國小,22.88184,120.49187,高雄市,旗山區,東平里
1299,林森三路口,22.61211,120.30888,高雄市,前鎮區,盛豐里
1300,苓洲國小(自強三路),22.61454,120.29952,高雄市,苓雅區,城西里
1301,五福路口(自強二路),22.62204,120.29659,高雄市,前金區,社東里
1302,自強派出所,22.62332,120.29617,高雄市,前金區,長生里
1303,前金國小(自強二路),22.62643,120.29491,高雄市,前金區,復元里
1304,七賢二路口(自強一路),22.6313,120.29302,高雄市,前金區,後金里
1305,開發經二路口,22.72271,120.30733,高雄市,楠梓區,瑞屏里
1306,津鳳宮,22.90353,120.64872,高雄市,六龜區,大津里
1307,海星幼稚園,22.5928,120.28399,高雄市,旗津區,南汕里
1308,樂群路,22.71792,120.29726,高雄市,楠梓區,加昌里
1309,加昌樂群路口,22.71592,120.29794,高雄市,楠梓區,加昌里
1310,高雄女中(真愛碼頭),22.62059,120.29209,高雄市,前金區,博孝里
1311,果菜市場,22.71434,120.29485,高雄市,楠梓區,宏昌里
1312,右昌國小,22.71386,120.29299,高雄市,楠梓區,建昌里
1313,加昌軍校路口,22.7126,120.29152,高雄市,楠梓區,建昌里
1314,右昌街口(軍校路),22.70942,120.2929,高雄市,楠梓區,建昌里
1315,左營禮拜堂(海功路),22.6936,120.29353,高雄市,左營區,進學里
1316,葆禎路口,22.66207,120.28117,高雄市,鼓山區,前峰里
1317,日昌路口,22.66044,120.27997,高雄市,鼓山區,內惟里
1318,內惟派出所,22.65843,120.27865,高雄市,鼓山區,建國里
1319,高雄電台,22.65547,120.27878,高雄市,鼓山區,忠正里
1320,六合二路口,22.63113,120.29504,高雄市,前金區,東金里
1321,小圓環,22.62845,120.29604,高雄市,前金區,民生里
1322,市立中醫醫院(大同醫院),22.62675,120.29669,高雄市,前金區,復元里
1323,中央公園,22.62345,120.29805,高雄市,前金區,長生里
1324,文安二街口,22.70594,120.35355,高雄市,仁武區,文武里
1325,六合夜市(大港埔),22.63379,120.30225,高雄市,新興區,黎明里
1326,加油站(六龜),22.99053,120.63655,高雄市,六龜區,文武里
1327,軍校路,22.69761,120.29241,高雄市,左營區,合群里
1328,光華國中(二聖一路),22.61256,120.32112,高雄市,前鎮區,竹中里
1329,中正高工(二聖一路),22.61279,120.31922,高雄市,前鎮區,竹中里
1330,南寧街口,22.6131,120.31702,高雄市,前鎮區,復國里
1331,民權公園(二聖二路),22.6135,120.31383,高雄市,前鎮區,忠孝里
1332,修文街口,22.61393,120.31051,高雄市,前鎮區,盛豐里
1333,二聖二路口,22.61468,120.3087,高雄市,前鎮區,盛興里
1334,林森二路,22.61636,120.30808,高雄市,苓雅區,華堂里
1335,苓雅國中(林森二路),22.61933,120.30691,高雄市,苓雅區,華堂里
1336,青年路口(林森二路),22.621,120.30626,高雄市,苓雅區,美田里
1337,崙仔頂(福安),22.88931,120.50523,高雄市,旗山區,東平里
1338,新興高中(新堀江),22.62395,120.30513,高雄市,新興區,振成里
1339,新興國小,22.62674,120.30431,高雄市,新興區,玉衡里
1340,新興市場,22.62868,120.30442,高雄市,新興區,漢民里
1341,郵政總局(捷運美麗島站),22.6306,120.30456,高雄市,新興區,東坡里
1342,電信總局,22.63342,120.30484,高雄市,新興區,黎明里
1343,三民路,22.72409,120.34922,高雄市,大社區,中里里
1344,中都街口,22.64139,120.28725,高雄市,三民區,豐裕里
1345,錦安,22.97276,120.64055,高雄市,六龜區,文武里
1346,台安街口,22.64089,120.28865,高雄市,三民區,豐裕里
1347,同盟三路,22.63835,120.28528,高雄市,三民區,裕民里
1348,慈德堂,22.64722,120.25368,高雄市,鼓山區,桃源里
1349,香蕉棚(棧二庫棧二之一庫),22.61931,120.27853,高雄市,鼓山區,麗興里
1350,左營火車站,22.67506,120.29388,高雄市,左營區,埤東里
1351,南福街口,22.60951,120.34864,高雄市,鳳山區,中崙里
1352,許厝(凱旋路口),22.61162,120.34993,高雄市,鳳山區,中崙里
1353,五甲社區,22.61414,120.35209,高雄市,鳳山區,和興里
1354,興隆寺,22.66849,120.31257,高雄市,左營區,新上里
1355,東埔派出所,23.02809,120.47313,台南市,南化區,東和里
1356,臺鐵科工館站,22.63693,120.32727,高雄市,三民區,寶盛里
1357,金山路口,22.66262,120.32182,高雄市,三民區,鼎中里
1358,高坪25街口,22.55741,120.38849,高雄市,小港區,坪頂里
1359,鼎金國小,22.65701,120.32134,高雄市,三民區,灣成里
1360,北極殿(左營),22.66855,120.31042,高雄市,左營區,新中里
1361,建軍站(往火車站),22.62492,120.34339,高雄市,苓雅區,衛武里
1362,捷運信義國小站(中正路),22.63087,120.31187,高雄市,新興區,興昌里
1363,新興區公所(捷運信義國小),22.63097,120.30982,高雄市,新興區,中東里
1364,仁愛街口,22.63114,120.3078,高雄市,新興區,成功里
1365,郵政總局,22.63165,120.30473,高雄市,新興區,愛平里
1366,歷史博物館(高雄國際會議中心),22.62615,120.28671,高雄市,鹽埕區,府北里
1367,輕軌駁二蓬萊站(高雄港),22.62107,120.2794,高雄市,鹽埕區,新豐里
1368,亞洲城社區,22.72251,120.29527,高雄市,楠梓區,仁昌里
1369,後昌新路口,22.72181,120.29171,高雄市,楠梓區,仁昌里
1370,仁壽宮,22.72828,120.28313,高雄市,楠梓區,藍田里
1371,南藍田(高雄大學),22.72708,120.28011,高雄市,楠梓區,藍田里
1372,援中國小(藍田路),22.72643,120.27851,高雄市,楠梓區,中興里
1373,興中橋,22.72146,120.27964,高雄市,楠梓區,中和里
1374,智昌街,22.71966,120.28423,高雄市,楠梓區,國昌里
1375,元昌街口,22.72149,120.28773,高雄市,楠梓區,國昌里
1376,國昌國中,22.71948,120.28691,高雄市,楠梓區,裕昌里
1377,駁二藝術特區,22.62086,120.28164,高雄市,鹽埕區,新化里
1378,右昌街口(德民路),22.71815,120.28451,高雄市,楠梓區,興昌里
1379,三山街,22.71446,120.28413,高雄市,楠梓區,福昌里
1380,右昌國中,22.71436,120.28761,高雄市,楠梓區,興昌里
1381,元帥廟,22.71173,120.28738,高雄市,楠梓區,福昌里
1382,永康新村,22.70948,120.29179,高雄市,楠梓區,大昌里
1383,捷運鹽埕埔站(五福四路),22.62316,120.2843,高雄市,鹽埕區,河濱里
1384,左營區公所,22.69002,120.29458,高雄市,左營區,尾西里
1385,文德國小,22.64055,120.3521,高雄市,鳳山區,文衡里
1386,左營國小,22.69085,120.29241,高雄市,左營區,進學里
1387,軍校路(海功路口),22.69326,120.29247,高雄市,左營區,進學里
1388,三山街口(盛昌街),22.71269,120.28616,高雄市,楠梓區,福昌里
1389,後昌路(吉昌街口),22.71651,120.28911,高雄市,楠梓區,裕昌里
1390,藍昌路口,22.71742,120.29086,高雄市,楠梓區,建昌里
1391,塑膠廠,22.71565,120.29919,高雄市,楠梓區,宏榮里
1392,楠梓加工區,22.71683,120.30235,高雄市,楠梓區,宏榮里
1393,東門入口,22.71913,120.30849,高雄市,楠梓區,宏毅里
1394,加昌路,22.71985,120.31035,高雄市,楠梓區,瑞屏里
1395,後勁國小(捷運後勁站),22.72116,120.3136,高雄市,楠梓區,錦屏里
1396,後勁國中(捷運後勁站),22.72186,120.31564,高雄市,楠梓區,金田里
1397,東翠屏里,22.72812,120.31261,高雄市,楠梓區,翠屏里
1398,監理所(都會公園),22.73113,120.31658,高雄市,楠梓區,惠豐里
1399,大智路(光榮國小),22.6235,120.28649,高雄市,鹽埕區,光明里
1400,高楠路,22.73113,120.32022,高雄市,楠梓區,惠豐里
1401,新庄,22.7461,120.30293,高雄市,橋頭區,新莊里
1402,二苓國小(捷運小港站),22.56567,120.35175,高雄市,小港區,二苓里
1403,合群新村,22.56559,120.36493,高雄市,小港區,山明里
1404,山沓,22.56562,120.36742,高雄市,小港區,山明里
1405,高雄餐旅大學(營口路),22.56624,120.37066,高雄市,小港區,山明里
1406,高松(營口路),22.57182,120.37099,高雄市,小港區,松金里
1407,高松市場,22.57334,120.37112,高雄市,小港區,松金里
1408,水利工作站,22.5754,120.37128,高雄市,小港區,松金里
1409,東高雄,22.58414,120.36896,高雄市,小港區,孔宅里
1410,金城路,22.58274,120.36572,高雄市,小港區,合作里
1411,金城路口,22.58131,120.36546,高雄市,小港區,合作里
1412,合作一村,22.58139,120.3623,高雄市,小港區,廈莊里
1413,孔鳳路,22.58149,120.35931,高雄市,小港區,廈莊里
1414,桂林,22.58198,120.35525,高雄市,小港區,桂林里
1415,二甲,22.59894,120.3397,高雄市,鳳山區,二甲里
1416,桂陽路,22.582,120.35271,高雄市,小港區,桂林里
1417,桂林國小,22.5821,120.35018,高雄市,小港區,桂林里
1418,明聖街,22.58218,120.34675,高雄市,小港區,中厝里
1419,中安路口(明聖街),22.58253,120.3445,高雄市,小港區,中厝里
1420,中厝里,22.58317,120.34162,高雄市,小港區,中厝里
1421,右昌(三山街口),22.71086,120.2894,高雄市,楠梓區,廣昌里
1422,明正里,22.58305,120.33549,高雄市,前鎮區,明正里
1423,捷運公司(捷運草衙站),22.58249,120.33205,高雄市,前鎮區,明正里
1424,捷運前鎮高中站(五甲三路口),22.58929,120.32164,高雄市,前鎮區,平等里
1425,鎮海路口,22.59216,120.31941,高雄市,前鎮區,興邦里
1426,捷運凱旋站,22.59684,120.31573,高雄市,前鎮區,忠誠里
1427,光華路口(中山三路),22.60245,120.31107,高雄市,前鎮區,良和里
1428,勞工公園(民權二路),22.60601,120.30995,高雄市,前鎮區,良和里
1429,復興國小,22.6079,120.3119,高雄市,前鎮區,民權里
1430,文殊講堂,22.61099,120.3137,高雄市,前鎮區,興東里
1431,民權公園,22.61407,120.31454,高雄市,前鎮區,忠孝里
1432,福義街口,22.89101,120.50863,高雄市,美濃區,福安里
1433,三多市場(民權二路),22.61633,120.31467,高雄市,前鎮區,忠孝里
1434,仁林路口(澄觀路二段),22.70222,120.35992,高雄市,仁武區,文武里
1435,北草衙,22.5808,120.32289,高雄市,前鎮區,草衙里
1436,凱旋四路口,22.59521,120.31622,高雄市,前鎮區,興邦里
1437,金獅湖站,22.66574,120.32179,高雄市,三民區,鼎中里
1438,金鼎路,22.66482,120.32242,高雄市,三民區,鼎西里
1439,三民高中(金鼎路),22.66326,120.32671,高雄市,三民區,鼎西里
1440,大裕路,22.66057,120.32853,高雄市,三民區,鼎西里
1441,大裕路口,22.65908,120.32811,高雄市,三民區,本和里
1442,大福街,22.65774,120.32613,高雄市,三民區,本和里
1443,霞海東二街口,22.68791,120.32305,高雄市,仁武區,高楠里
1444,大裕幼稚園,22.65599,120.32828,高雄市,三民區,本和里
1445,本館里,22.659,120.32957,高雄市,三民區,本館里
1446,昌富街口,22.65778,120.33083,高雄市,三民區,本館里
1447,本館里活動中心,22.65571,120.33104,高雄市,三民區,本館里
1448,建工市場,22.65386,120.33124,高雄市,三民區,本館里
1449,義德路口(大豐二路),22.64686,120.33449,高雄市,三民區,寶玉里
1450,覺民路口(大昌二路),22.64169,120.33212,高雄市,三民區,寶安里
1451,高雄女中(成功一路),22.62272,120.29432,高雄市,前金區,博孝里
1452,前金國小(成功一路),22.62521,120.29337,高雄市,前金區,國民里
1453,新聞報,22.6273,120.29255,高雄市,前金區,林投里
1454,九番埤濕地公園,22.68492,120.32486,高雄市,仁武區,高楠里
1455,鼎金後路,22.66983,120.32521,高雄市,三民區,鼎強里
1456,鼎貴路,22.67238,120.32471,高雄市,三民區,鼎盛里
1457,鼎安路口,22.67381,120.32385,高雄市,三民區,鼎盛里
1458,天祥路口(鼎中路),22.66629,120.31938,高雄市,三民區,鼎泰里
1459,鼎中路,22.66378,120.31925,高雄市,三民區,鼎泰里
1460,金山路,22.66186,120.32012,高雄市,三民區,鼎中里
1461,鼎西里,22.66067,120.32201,高雄市,三民區,鼎中里
1462,莊敬國小,22.65599,120.32301,高雄市,三民區,灣成里
1463,立志工商,22.65368,120.32614,高雄市,三民區,本文里
1464,覺民路,22.64081,120.33095,高雄市,三民區,寶安里
1465,口湖,22.94852,120.46739,高雄市,內門區,石坑里
1466,正德佛堂,22.65047,120.34274,高雄市,鳥松區,大華里
1467,湖內分局,22.88589,120.24503,高雄市,湖內區,大湖里
1468,五甲國小,22.59836,120.33626,高雄市,鳳山區,富甲里
1469,捷運三多商圈站(中山二路),22.6129,120.3048,高雄市,苓雅區,意誠里
1470,勞工公園(捷運獅甲站),22.60547,120.30821,高雄市,前鎮區,建隆里
1471,南和路口,22.59042,120.33842,高雄市,鳳山區,南成里
1472,朱天宮,22.96668,120.64187,高雄市,六龜區,文武里
1473,明正社區,22.58302,120.32608,高雄市,前鎮區,明正里
1474,小港國中,22.56726,120.33781,高雄市,小港區,港南里
1475,職訓中心(中林路),22.53849,120.36871,高雄市,小港區,山明里
1476,本館路口,22.6551,120.33515,高雄市,鳥松區,大華里
1477,高坪66路,22.55974,120.38291,高雄市,小港區,大坪里
1478,高坪27街口,22.55805,120.38509,高雄市,小港區,坪頂里
1479,鳳林國小(鳳林路),22.52666,120.34239,高雄市,小港區,鳳源里
1480,青山國小,22.57315,120.36201,高雄市,小港區,泰山里
1481,泰山里,22.57307,120.36443,高雄市,小港區,泰山里
1482,北江街口,22.58986,120.32059,高雄市,前鎮區,平等里
1483,翠亨北路,22.5917,120.3189,高雄市,前鎮區,鎮海里
1484,大中路口(華夏路),22.6818,120.30591,高雄市,左營區,菜公里
1485,中山二路,22.60989,120.30597,高雄市,前鎮區,振興里
1486,苓雅市場,22.61693,120.29676,高雄市,苓雅區,田西里
1487,正興國中,22.64396,120.31966,高雄市,三民區,正興里
1488,富民路口,22.66579,120.30454,高雄市,左營區,新上里
1489,富國路,22.66341,120.30669,高雄市,左營區,新上里
1490,水利會,22.66102,120.30769,高雄市,左營區,新上里
1491,七賢路口,22.63453,120.29771,高雄市,新興區,建興里
1492,自立河北路口,22.63709,120.29676,高雄市,三民區,建東里
1493,崗山市場,22.60733,120.33353,高雄市,前鎮區,瑞昌里
1494,崗山北街口,22.60987,120.33315,高雄市,前鎮區,瑞華里
1495,鐵路機料廠,22.61287,120.33272,高雄市,鳳山區,武慶里
1496,鐵路機廠,22.61713,120.33225,高雄市,鳳山區,武慶里
1497,武慶三路,22.61972,120.33196,高雄市,苓雅區,福地里
1498,五塊厝(武慶三路),22.62145,120.33178,高雄市,苓雅區,福人里
1499,愛國國小,22.64474,120.31322,高雄市,三民區,安生里
1500,五權國小(三多二路),22.62028,120.3238,高雄市,苓雅區,林德里
1501,和平路口,22.61951,120.32153,高雄市,苓雅區,林華里
1502,林德官(三和市場),22.61901,120.31991,高雄市,苓雅區,林西里
1503,光華路口(光華夜市),22.61822,120.31746,高雄市,前鎮區,復國里
1504,三多市場(三多三路),22.61709,120.31404,高雄市,前鎮區,忠孝里
1505,勤和里,23.17047,120.77502,高雄市,桃源區,勤和里
1506,漢神百貨,22.6193,120.29587,高雄市,前金區,榮復里
1507,新興(六龜),22.91735,120.63918,高雄市,六龜區,新興里
1508,龍勝路口(凹仔底公園),22.6611,120.29543,高雄市,鼓山區,龍子里
1509,高醫(十全路),22.64499,120.3094,高雄市,三民區,安生里
1510,華榮公園,22.66292,120.2971,高雄市,鼓山區,明誠里
1511,後勁,22.7186,120.31043,高雄市,楠梓區,瑞屏里
1512,後勁派出所,22.71511,120.30936,高雄市,楠梓區,宏毅里
1513,後勁宿舍,22.71167,120.30824,高雄市,楠梓區,宏毅里
1514,國光中學,22.70827,120.306,高雄市,楠梓區,宏榮里
1515,捷運油廠國小站,22.70797,120.30316,高雄市,楠梓區,宏南里
1516,勝利路,22.68073,120.28965,高雄市,左營區,埤西里
1517,海功東路,22.69351,120.2998,高雄市,左營區,屏山里
1518,博愛路口(崇德路),22.6753,120.30438,高雄市,左營區,新光里
1519,至真路口,22.67224,120.30415,高雄市,左營區,新中里
1520,漢神巨蛋,22.6684,120.30321,高雄市,左營區,新下里
1521,捷運巨蛋站,22.66507,120.30316,高雄市,鼓山區,明誠里
1522,明誠路口(博愛二路),22.66157,120.30301,高雄市,鼓山區,明誠里
1523,捷運凹子底站,22.65698,120.30324,高雄市,左營區,新上里
1524,龍德路口(博愛一路),22.65412,120.30348,高雄市,鼓山區,龍子里
1525,崇德路,22.67696,120.3018,高雄市,左營區,新光里
1526,捷運世運站(左楠路),22.70008,120.30241,高雄市,左營區,復興里
1527,龍子里,22.65173,120.29189,高雄市,鼓山區,龍水里
1528,變電所(中華二路),22.6466,120.29162,高雄市,三民區,德西里
1529,永昇國術館,22.90598,120.63245,高雄市,六龜區,新興里
1530,九如三路口,22.64245,120.29138,高雄市,三民區,德西里
1531,台糖物流,22.59819,120.30396,高雄市,前鎮區,興邦里
1532,輕軌經貿園區站,22.6009,120.30272,高雄市,前鎮區,鎮北里
1533,平和路,22.56857,120.33095,高雄市,小港區,港口里
1534,勞工行政中心(捷運前鎮高中站),22.58872,120.32159,高雄市,前鎮區,平等里
1535,天祥一路,22.66777,120.31885,高雄市,三民區,鼎力里
1536,建楠路口,22.72728,120.3294,高雄市,楠梓區,惠楠里
1537,楠梓陸橋,22.72485,120.32377,高雄市,楠梓區,惠楠里
1538,福檳社區,22.68655,120.32037,高雄市,左營區,福山里
1539,社頭,22.88974,120.32232,高雄市,阿蓮區,青旗里
1540,加昌站,22.71908,120.29858,高雄市,楠梓區,加昌里
1541,東林金鋁街口,22.54393,120.3756,高雄市,小港區,山明里
1542,天津街口,22.64565,120.3014,高雄市,三民區,安邦里
1543,十全國小,22.64587,120.29821,高雄市,三民區,安邦里
1544,民益路,22.56722,120.34792,高雄市,小港區,大苓里
1545,航警局,22.57125,120.34862,高雄市,小港區,山東里
1546,山東里,22.5733,120.35086,高雄市,小港區,山東里
1547,青島里,22.57326,120.35415,高雄市,小港區,山東里
1548,山明路口(宏平路),22.56994,120.36011,高雄市,小港區,濟南里
1549,廠邊三路口(宏平路),22.56999,120.35778,高雄市,小港區,濟南里
1550,金府路口,22.56997,120.3552,高雄市,小港區,青島里
1551,宏平路,22.56984,120.35149,高雄市,小港區,正苓里
1552,市立空大,22.56706,120.34473,高雄市,小港區,港興里
1553,金馬賓館當代美術館,22.62782,120.27913,高雄市,鼓山區,山下里
1554,港務公司(西子灣隧道),22.62403,120.27023,高雄市,鼓山區,壽山里
1555,雄鎮北門(打狗英國領事館),22.61754,120.26739,高雄市,鼓山區,哨船頭里
1556,海水浴場,22.62533,120.26483,高雄市,鼓山區,桃源里
1557,山海宮,22.64448,120.25421,高雄市,鼓山區,桃源里
1558,清豐里,22.7384,120.33561,高雄市,楠梓區,清豐里
1559,華夏路口(大中二路),22.68278,120.30797,高雄市,左營區,菜公里
1560,民壯路口,22.63945,120.34014,高雄市,三民區,寶慶里
1561,六龜站(六龜高中),22.99295,120.63565,高雄市,六龜區,義寶里
1562,捷運生態園區站(重上街口),22.67567,120.30605,高雄市,左營區,菜公里
1563,左營國中,22.67861,120.30816,高雄市,左營區,菜公里
1564,曾子路,22.67719,120.3101,高雄市,左營區,菜公里
1565,藍田路口,22.72597,120.29172,高雄市,楠梓區,藍田里
1566,人道國際飯店,22.63862,120.33148,高雄市,三民區,寶盛里
1567,楠梓高中(清豐路口),22.74309,120.33081,高雄市,楠梓區,清豐里
1568,海功路口,22.69472,120.29245,高雄市,左營區,復興里
1569,哈囉市場(孔廟),22.69115,120.30088,高雄市,左營區,屏山里
1570,翠明路,22.68955,120.30157,高雄市,左營區,尾北里
1571,高坪50路口,22.55542,120.3862,高雄市,小港區,坪頂里
1572,輕軌凱旋中華站(鎮興路),22.59304,120.31155,高雄市,前鎮區,興邦里
1573,警廣站(重忠路),22.68824,120.31676,高雄市,左營區,福山里
1574,文府國小,22.69107,120.31432,高雄市,左營區,福山里
1575,文自路口,22.68538,120.31552,高雄市,左營區,福山里
1576,七老爺,22.6083,120.34797,高雄市,鳳山區,中崙里
1577,高雄科大(建工),22.65171,120.32809,高雄市,三民區,本文里
1578,高等法院,22.66128,120.29888,高雄市,鼓山區,明誠里
1579,路竹中華路,22.85028,120.24902,高雄市,路竹區,文南里
1580,北平一街一,22.65004,120.30589,高雄市,三民區,安東里
1581,高雄市立美術館,22.65691,120.2883,高雄市,鼓山區,龍水里
1582,大中路口一(華夏路),22.68374,120.30841,高雄市,左營區,福山里
1583,新光國小,22.68068,120.30453,高雄市,左營區,新光里
1584,崇德路口(華夏路),22.6765,120.30069,高雄市,左營區,新光里
1585,同心新村,22.6742,120.29905,高雄市,左營區,新下里
1586,南屏路口,22.66993,120.29647,高雄市,左營區,新下里
1587,華榮路,22.6677,120.29587,高雄市,鼓山區,華豐里
1588,光陽路竹廠,22.82445,120.26711,高雄市,路竹區,北嶺里
1589,裕誠路口(華榮路),22.66625,120.29691,高雄市,鼓山區,華豐里
1590,自由二路口,22.66472,120.30933,高雄市,左營區,新上里
1591,鼎山街,22.6592,120.32194,高雄市,三民區,灣愛里
1592,大順二路,22.65083,120.32278,高雄市,三民區,灣勝里
1593,左營新光三越,22.68899,120.31072,高雄市,左營區,菜公里
1594,三民家商,22.66585,120.30086,高雄市,鼓山區,明誠里
1595,外環西路,22.72145,120.29884,高雄市,楠梓區,加昌里
1596,重平路口,22.68543,120.31101,高雄市,左營區,福山里
1597,城峰路,22.67643,120.29242,高雄市,左營區,埤東里
1598,翠華國宅,22.67491,120.29053,高雄市,左營區,海勝里
1599,翠華社區,22.67248,120.29185,高雄市,左營區,海勝里
1600,大崎腳(內門),23.00594,120.51042,高雄市,內門區,金竹里
1601,翠屏路口(惠民路),22.72497,120.29914,高雄市,楠梓區,翠屏里
1602,圖書資訊大樓,22.73452,120.28596,高雄市,楠梓區,藍田里
1603,學生第一宿舍,22.73583,120.27779,高雄市,楠梓區,藍田里
1604,籃球場,22.73239,120.27767,高雄市,楠梓區,藍田里
1605,南聖街口,22.58829,120.30798,高雄市,前鎮區,前鎮里
1606,果菜公司,22.64506,120.31427,高雄市,三民區,安生里
1607,重立路口,22.67841,120.31342,高雄市,左營區,菜公里
1608,博愛三路,22.68003,120.30891,高雄市,左營區,菜公里
1609,社尾路口,22.89168,120.31524,高雄市,阿蓮區,青旗里
1610,大學17街口,22.73144,120.28047,高雄市,楠梓區,藍田里
1611,蘇家古厝,22.89389,120.31055,高雄市,阿蓮區,石安里
1612,青旗里,22.89105,120.31922,高雄市,阿蓮區,青旗里
1613,桃子園,22.67153,120.2859,高雄市,左營區,自助里
1614,雄鋒社區(鼓山三路),22.6685,120.28272,高雄市,鼓山區,自強里
1615,銘傳路口(鼓山三路),22.66684,120.28143,高雄市,鼓山區,自強里
1616,自強新村,22.66512,120.28025,高雄市,鼓山區,自強里
1617,內惟,22.66238,120.27786,高雄市,鼓山區,自強里
1618,旗尾(旗美高中),22.8823,120.49419,高雄市,旗山區,東平里
1619,內惟橋,22.65941,120.27597,高雄市,鼓山區,自強里
1620,龍泉寺,22.65606,120.27523,高雄市,鼓山區,龍井里
1621,九如國小,22.65181,120.27737,高雄市,鼓山區,平和里
1622,果貿里活動中心,22.67066,120.28835,高雄市,左營區,果惠里
1623,高坪22路口,22.5593,120.3886,高雄市,小港區,坪頂里
1624,高坪23路二,22.56129,120.38864,高雄市,小港區,坪頂里
1625,美國學校,22.67712,120.2936,高雄市,左營區,埤東里
1626,大學17街大學26街口,22.73019,120.28172,高雄市,楠梓區,藍田里
1627,蓮池潭(翠華路),22.67802,120.29673,高雄市,左營區,埤東里
1628,盛昌街口(三山街),22.71246,120.28574,高雄市,楠梓區,福昌里
1629,靜和醫院,22.78095,120.41683,高雄市,燕巢區,深水里
1630,小港高中(大鵬路),22.56481,120.35844,高雄市,小港區,二苓里
1631,八五大樓,22.61239,120.30001,高雄市,苓雅區,意誠里
1632,環區三路口,22.60764,120.28548,高雄市,前鎮區,鎮北里
1633,常德路,22.73933,120.337,高雄市,楠梓區,清豐里
1634,大成街口(輕軌真愛碼頭站),22.62119,120.28855,高雄市,鹽埕區,育仁里
1635,大智路口(五福四路),22.62195,120.28695,高雄市,鹽埕區,育仁里
1636,壽豐路口,22.72338,120.29419,高雄市,楠梓區,仁昌里
1637,三多二路口(光華夜市),22.61887,120.31749,高雄市,苓雅區,普天里
1638,四維路口(光華一路),22.62076,120.31684,高雄市,苓雅區,林中里
1639,苓雅一路口,22.6225,120.31625,高雄市,苓雅區,林南里
1640,青年路口(光華一路),22.62349,120.31585,高雄市,苓雅區,林南里
1641,四維國小(青年一路),22.6238,120.3134,高雄市,苓雅區,林圍里
1642,二聖公正路口,22.61226,120.33111,高雄市,前鎮區,瑞誠里
1643,民權路口(青年一路),22.62313,120.31132,高雄市,新興區,浩然里
1644,國民市場,22.62217,120.30852,高雄市,新興區,正氣里
1645,青年一路,22.62154,120.30666,高雄市,新興區,正氣里
1646,仁智街口,22.6204,120.30315,高雄市,新興區,振華里
1647,仁德街口(青年二路),22.61964,120.30088,高雄市,前金區,文東里
1648,青年二路,22.61866,120.29832,高雄市,前金區,文西里
1649,文衡澄清路口,22.64152,120.34724,高雄市,鳳山區,文衡里
1650,捷運草衙站(翠亨南路),22.57956,120.329,高雄市,前鎮區,明義里
1651,忠誠路,22.65417,120.36398,高雄市,鳥松區,鳥松里
1652,臺鐵鼓山站,22.64198,120.27848,高雄市,鼓山區,鼓岩里
1653,明鳳三路口,22.58318,120.3375,高雄市,前鎮區,明正里
1654,幸福新城,22.72378,120.29113,高雄市,楠梓區,國昌里
1655,小港國小,22.56253,120.33541,高雄市,小港區,小港里
1656,德昌路(德昌街),22.58118,120.31886,高雄市,前鎮區,德昌里
1657,前鎮行政中心,22.58777,120.31792,高雄市,前鎮區,平昌里
1658,興仁國中,22.58653,120.3141,高雄市,前鎮區,興仁里
1659,興仁路,22.58489,120.31052,高雄市,前鎮區,興化里
1660,前鎮國小,22.58491,120.30876,高雄市,前鎮區,興化里
1661,前鎮輪渡站,22.58788,120.30636,高雄市,前鎮區,鎮北里
1662,仁和南街,22.70051,120.34834,高雄市,仁武區,仁武里
1663,同安路,22.58356,120.31747,高雄市,前鎮區,信義里
1664,三山國王廟,22.6259,120.28376,高雄市,鹽埕區,新樂里
1665,富國路口,22.66533,120.30731,高雄市,左營區,新上里
1666,北右昌(後昌新路),22.71974,120.29144,高雄市,楠梓區,宏昌里
1667,金福路口(翠亨南路),22.57712,120.33105,高雄市,前鎮區,明義里
1668,高雄花市,22.57458,120.33206,高雄市,前鎮區,明義里
1669,崇安街口,22.57238,120.33387,高雄市,小港區,港后里
1670,豐田街口,22.57072,120.3351,高雄市,小港區,港后里
1671,忠孝路口(四維三路),22.61844,120.30811,高雄市,苓雅區,日中里
1672,大業北路,22.56301,120.34802,高雄市,小港區,小港里
1673,沿海路口,22.54037,120.37094,高雄市,小港區,山明里
1674,二苓(大業北路),22.56477,120.34656,高雄市,小港區,小港里
1675,土庫六路,22.74216,120.33288,高雄市,楠梓區,清豐里
1676,清豐里活動中心,22.73923,120.33278,高雄市,楠梓區,清豐里
1677,燕巢區公所(中安路),22.78848,120.36162,高雄市,燕巢區,南燕里
1678,中西路,22.79122,120.35951,高雄市,燕巢區,南燕里
1679,輕軌高雄展覽館站(新光碼頭),22.61092,120.29881,高雄市,苓雅區,苓東里
1680,燕巢區公所(中興路),22.78808,120.36245,高雄市,燕巢區,南燕里
1681,立信路口,22.66604,120.30894,高雄市,左營區,新上里
1682,鼎貴路口(獅湖國小),22.67246,120.32319,高雄市,三民區,鼎盛里
1683,德惠路口,22.72617,120.30218,高雄市,楠梓區,翠屏里
1684,大學南路(藍昌路口),22.73243,120.29152,高雄市,楠梓區,藍田里
1685,鳳山商工,22.63585,120.35743,高雄市,鳳山區,文華里
1686,大學21路一,22.72314,120.27946,高雄市,楠梓區,中和里
1687,大學21路二,22.72725,120.28191,高雄市,楠梓區,藍田里
1688,捷運生態園區站(博愛公園),22.67689,120.30657,高雄市,左營區,新光里
1689,忠言路,22.65826,120.30624,高雄市,左營區,新上里
1690,明誠路口(自由二路),22.66041,120.30888,高雄市,左營區,新上里
1691,河堤路口(明誠二路),22.66019,120.31269,高雄市,三民區,鼎泰里
1692,捷運後驛站,22.64821,120.30318,高雄市,三民區,安泰里
1693,民族社區(民族一路),22.64093,120.31391,高雄市,三民區,同德里
1694,北平一街二,22.64984,120.30759,高雄市,三民區,安東里
1695,同盟一路口,22.64931,120.30907,高雄市,三民區,安東里
1696,高醫(高雄醫學大學),22.64651,120.30892,高雄市,三民區,安生里
1697,南訓中心(凱旋四路),22.59306,120.30798,高雄市,前鎮區,興邦里
1698,建興停車場,22.64792,120.32114,高雄市,三民區,正興里
1699,建興路一,22.64586,120.32348,高雄市,三民區,寶龍里
1700,建興市場,22.6445,120.32496,高雄市,三民區,寶中里
1701,科工館(覺民路),22.64176,120.3238,高雄市,三民區,寶中里
1702,捷運凱旋站1(輕軌前鎮之星站),22.59573,120.31544,高雄市,前鎮區,興邦里
1703,南七路口,22.5898,120.29524,高雄市,前鎮區,鎮北里
1704,捷運信義國小站(民族路),22.63177,120.31318,高雄市,新興區,興昌里
1705,南四路口,22.593,120.29317,高雄市,前鎮區,鎮北里
1706,南一路口,22.59754,120.29029,高雄市,前鎮區,鎮北里
1707,加油站(前鎮科技產業園區),22.60122,120.2906,高雄市,前鎮區,鎮北里
1708,東六街,22.60367,120.28962,高雄市,前鎮區,鎮北里
1709,東十二街,22.60459,120.28905,高雄市,前鎮區,鎮北里
1710,北一路,22.60685,120.28757,高雄市,前鎮區,鎮北里
1711,西十二街,22.60563,120.28841,高雄市,前鎮區,鎮北里
1712,西六街,22.60336,120.28983,高雄市,前鎮區,鎮北里
1713,中六路,22.60081,120.29203,高雄市,前鎮區,鎮北里
1714,南二路口,22.59738,120.29406,高雄市,前鎮區,鎮北里
1715,鳥松國中,22.66551,120.3711,高雄市,鳥松區,鳥松里
1716,店北路口,22.56357,120.35027,高雄市,小港區,二苓里
1717,獅甲國小,22.60698,120.30665,高雄市,前鎮區,建隆里
1718,清水寺(六龜),22.87491,120.59566,高雄市,六龜區,新寮里
1719,中正高工(國軍高雄門診中心),22.60985,120.31716,高雄市,前鎮區,竹西里
1720,英明國中,22.61605,120.32508,高雄市,苓雅區,林榮里
1721,鄭和南路口,22.60532,120.31557,高雄市,前鎮區,竹南里
1722,藝術公園,22.60545,120.31318,高雄市,前鎮區,竹南里
1723,美術東六街口(明誠四路),22.66105,120.2913,高雄市,鼓山區,龍水里
1724,民康街口,22.66187,120.29421,高雄市,鼓山區,明誠里
1725,裕豐街口,22.66486,120.29488,高雄市,鼓山區,明誠里
1726,大昌二路口,22.6435,120.33265,高雄市,三民區,寶泰里
1727,德民黃昏市場,22.72053,120.28838,高雄市,楠梓區,國昌里
1728,興中二路口,22.61642,120.3036,高雄市,苓雅區,廣澤里
1729,高雄展覽館,22.60908,120.29959,高雄市,前鎮區,鎮北里
1730,苓雅路口(中山二路),22.61957,120.30258,高雄市,苓雅區,仁政里
1731,新田路口(中山二路),22.62263,120.30129,高雄市,新興區,振成里
1732,同盟路口,22.65057,120.30344,高雄市,三民區,安泰里
1733,中智路口,22.53311,120.36142,高雄市,小港區,鳳森里
1734,中利路口,22.5302,120.3576,高雄市,小港區,鳳森里
1735,中心路口,22.52669,120.34894,高雄市,小港區,鳳森里
1736,大林浦煉油廠,22.52917,120.34663,高雄市,小港區,鳳森里
1737,鳳林國小(鳳西街),22.52572,120.34364,高雄市,小港區,鳳源里
1738,鳳西街,22.52418,120.34525,高雄市,小港區,鳳興里
1739,龍興路,22.51493,120.35606,高雄市,小港區,龍鳳里
1740,鳳鼻頭(鳳鳴路),22.5118,120.36116,高雄市,小港區,鳳鳴里
1741,鳳鼻頭港,22.50985,120.36163,高雄市,林園區,中門里
1742,輕軌軟體園區站,22.60475,120.3012,高雄市,前鎮區,鎮北里
1743,邦坑,22.5173,120.35582,高雄市,小港區,龍鳳里
1744,高雄公園(捷運高雄國際機場站),22.56879,120.34368,高雄市,小港區,大苓里
1745,廈門街口,22.62533,120.31496,高雄市,苓雅區,林圍里
1746,市政大樓(四維三路),22.61997,120.31149,高雄市,苓雅區,晴朗里
1747,苓雅國中,22.61761,120.30502,高雄市,苓雅區,仁政里
1748,新田路口(中華四路),22.62114,120.29892,高雄市,前金區,文西里
1749,苓雅路口(中華四路),22.61794,120.30009,高雄市,苓雅區,田西里
1750,興中路口,22.61765,120.31123,高雄市,苓雅區,普照里
1751,苓洲國小(中華四路),22.61465,120.30145,高雄市,苓雅區,城西里
1752,正勤社區(中華五路),22.60247,120.30614,高雄市,前鎮區,忠純里
1753,南門(兵仔市),22.62074,120.35682,高雄市,鳳山區,和興里
1754,三民國中,22.64521,120.30588,高雄市,三民區,達明里
1755,正勤路,22.60212,120.3035,高雄市,前鎮區,忠純里
1756,鹽埕中路口,22.78859,120.24491,高雄市,彌陀區,鹽埕里
1757,中林路,22.53643,120.36596,高雄市,小港區,山明里
1758,喜樂廣場,22.96553,120.54321,高雄市,杉林區,月眉里
1759,嶺口(旗甲公路),22.77486,120.45039,高雄市,旗山區,南勝里
1760,長青服務中心,22.62324,120.32172,高雄市,苓雅區,林德里
1761,捷運青埔站,22.74377,120.31757,高雄市,橋頭區,橋南里
1762,菜堂寮,22.83046,120.3466,高雄市,岡山區,三和里
1763,中華路555巷,22.85161,120.24976,高雄市,路竹區,文南里
1764,橋頭區公所(隆豐路),22.7576,120.30512,高雄市,橋頭區,白樹里
1765,慈濟靜思堂,22.65409,120.30864,高雄市,三民區,灣興里
1766,正勤社區,22.60272,120.30541,高雄市,前鎮區,忠純里
1767,頂厝(阿蓮),22.89101,120.32093,高雄市,阿蓮區,青旗里
1768,石安里,22.89379,120.30826,高雄市,阿蓮區,石安里
1769,南台路口,22.63092,120.30075,高雄市,新興區,大明里
1770,同慶路,22.62738,120.32051,高雄市,苓雅區,同慶里
1771,明倫路口,22.66578,120.29739,高雄市,鼓山區,明誠里
1772,捷運五塊厝站(福德三路),22.62912,120.32764,高雄市,苓雅區,永康里
1773,南屏別院,22.65827,120.30781,高雄市,左營區,新上里
1774,屏山國小,22.69354,120.30211,高雄市,左營區,屏山里
1775,文衡文平街口,22.64114,120.34953,高雄市,鳳山區,文德里
1776,加工區(中央路),22.72338,120.30382,高雄市,楠梓區,瑞屏里
1777,中華復興路口,22.60573,120.30507,高雄市,前鎮區,建隆里
1778,民昌街,22.71791,120.28863,高雄市,楠梓區,裕昌里
1779,管仲南路口,22.60525,120.31571,高雄市,前鎮區,瑞竹里
1780,捷運巨蛋站(裕誠路),22.66572,120.3028,高雄市,鼓山區,明誠里
1781,聖和公園(輕軌凱旋二聖站),22.61211,120.32388,高雄市,前鎮區,竹東里
1782,朝天宮(明鳳三路),22.58485,120.33684,高雄市,前鎮區,明正里
1783,菜公一路口,22.68723,120.30459,高雄市,左營區,尾北里
1784,慈濟靜思堂(龍華國中),22.65666,120.30961,高雄市,左營區,新上里
1785,愛之船國賓站,22.62402,120.29035,高雄市,前金區,國民里
1786,自強中正路口,22.62919,120.29385,高雄市,前金區,後金里
1787,家樂福愛河店,22.63372,120.28577,高雄市,三民區,立德里
1788,龍德路口(大順一路),22.65469,120.29679,高雄市,鼓山區,龍子里
1789,中華五路,22.60784,120.30427,高雄市,前鎮區,振興里
1790,河西華安街口,22.64783,120.28338,高雄市,鼓山區,龍水里
1791,大順民族路口,22.65571,120.315,高雄市,三民區,灣興里
1792,鼎中路(天祥一路口),22.66853,120.32005,高雄市,三民區,鼎力里
1793,曾子路(原生植物園),22.68235,120.30368,高雄市,左營區,新光里
1794,立文路口,22.66423,120.30333,高雄市,左營區,新上里
1795,大學32街口,22.73142,120.29234,高雄市,楠梓區,藍田里
1796,英明三多二路口,22.61939,120.32366,高雄市,苓雅區,林貴里
1797,捷運三多商圈站(興中二路口),22.61506,120.30399,高雄市,苓雅區,城東里
1798,大昌二路(皓東路口),22.64765,120.33195,高雄市,三民區,寶玉里
1799,育英醫專(皓東路),22.64834,120.33303,高雄市,三民區,寶玉里
1800,春陽街口,22.64858,120.33488,高雄市,三民區,寶玉里
1801,半屏山後巷,22.68936,120.30618,高雄市,左營區,尾北里
1802,鳳北路,22.52839,120.34392,高雄市,小港區,鳳林里
1803,新光路口(圖書總館),22.6101,120.30337,高雄市,前鎮區,振興里
1804,觀音寺,22.52834,120.34145,高雄市,小港區,鳳源里
1805,鳳北路口,22.52729,120.34104,高雄市,小港區,鳳源里
1806,明誠鼎山街口,22.66019,120.32262,高雄市,三民區,灣成里
1807,莊敬公園,22.65965,120.32523,高雄市,三民區,本和里
1808,三民高中(明誠一路),22.65977,120.32816,高雄市,三民區,本和里
1809,明吉路,22.66319,120.31361,高雄市,三民區,鼎泰里
1810,明哲路口,22.66055,120.31401,高雄市,三民區,鼎泰里
1811,龍華國小,22.65506,120.29893,高雄市,鼓山區,龍子里
1812,福興街口,22.71504,120.28123,高雄市,楠梓區,盛昌里
1813,三多四路口,22.61288,120.30228,高雄市,苓雅區,意誠里
1814,久昌街,22.71253,120.28265,高雄市,楠梓區,盛昌里
1815,盛昌街,22.71125,120.28485,高雄市,楠梓區,盛昌里
1816,五甲新村,22.61722,120.35416,高雄市,鳳山區,興仁里
1817,建榮路口,22.65893,120.27855,高雄市,鼓山區,建國里
1818,鼓山國中,22.65072,120.27637,高雄市,鼓山區,正德里
1819,華安街口,22.64791,120.27706,高雄市,鼓山區,正德里
1820,厚德路口,22.64722,120.27782,高雄市,鼓山區,厚生里
1821,河南二路口,22.63273,120.28855,高雄市,前金區,新生里
1822,河邊里,22.6416,120.28251,高雄市,鼓山區,河邊里
1823,旗津漁港,22.59045,120.28678,高雄市,旗津區,南汕里
1824,海岸公園,22.60232,120.27514,高雄市,旗津區,復興里
1825,泰安路,22.90184,120.53835,高雄市,美濃區,瀰濃里
1826,梅山口,23.26408,120.82574,高雄市,桃源區,拉芙蘭里
1827,沿海一路,22.5621,120.35595,高雄市,小港區,店鎮里
1828,唐榮公司,22.54488,120.3693,高雄市,小港區,山明里
1829,大安森林,22.50875,120.36633,高雄市,林園區,中門里
1830,中門7-11站,22.50508,120.37131,高雄市,林園區,中門里
1831,港埔派出所,22.5041,120.37648,高雄市,林園區,頂厝里
1832,頂厝路口,22.50351,120.37981,高雄市,林園區,頂厝里
1833,田厝路口,22.50005,120.3871,高雄市,林園區,港嘴里
1834,國泰人壽,22.50152,120.39788,高雄市,林園區,東林里
1835,捷運三多商圈站(一心二路),22.61367,120.30527,高雄市,前鎮區,盛興里
1836,小山,22.88187,120.55872,高雄市,美濃區,龍山里
1837,中化小港廠,22.53524,120.3643,高雄市,小港區,鳳森里
1838,大業南路,22.52997,120.36686,高雄市,小港區,龍鳳里
1839,鳳林國中,22.52161,120.34883,高雄市,小港區,鳳興里
1840,龍鳳公園,22.51728,120.35321,高雄市,小港區,龍鳳里
1841,岐山一路口,22.51618,120.35432,高雄市,小港區,龍鳳里
1842,歧山二路,22.51786,120.35434,高雄市,小港區,龍鳳里
1843,鳳華路,22.52391,120.34863,高雄市,小港區,鳳興里
1844,鳳林路,22.52519,120.34763,高雄市,小港區,鳳林里
1845,大林浦,22.52662,120.34628,高雄市,小港區,鳳森里
1846,鳳林宮,22.52738,120.34459,高雄市,小港區,鳳林里
1847,松正路口,22.57083,120.37585,高雄市,小港區,松山里
1848,上林路口,22.53361,120.36881,高雄市,小港區,山明里
1849,大汕國小,22.5875,120.28864,高雄市,旗津區,南汕里
1850,小港郵局(中智街),22.52976,120.36561,高雄市,小港區,龍鳳里
1851,新威派出所,22.90193,120.6281,高雄市,六龜區,新威里
1852,德維街口,22.7273,120.31049,高雄市,楠梓區,翠屏里
1853,德祥路口,22.72695,120.3072,高雄市,楠梓區,翠屏里
1854,德賢路口,22.72646,120.30521,高雄市,楠梓區,翠屏里
1855,鳳鼻頭(沿海路),22.51255,120.36175,高雄市,小港區,鳳鳴里
1856,龍鳳路,22.52273,120.34774,高雄市,小港區,鳳興里
1857,職訓中心(大業南路),22.53625,120.37038,高雄市,小港區,山明里
1858,中智路,22.53288,120.36288,高雄市,小港區,鳳森里
1859,鳳林路一段,22.50688,120.39661,高雄市,林園區,東林里
1860,裕誠路口(大順一路),22.6539,120.2944,高雄市,鼓山區,龍子里
1861,市政大樓(民權一路),22.61918,120.31355,高雄市,苓雅區,普照里
1862,龍安宮,22.68784,120.41199,高雄市,大樹區,龍目里
1863,大智路口(大仁北路),22.66452,120.36216,高雄市,鳥松區,鳥松里
1864,大舍西路,22.7457,120.25906,高雄市,梓官區,大舍里
1865,赤東圖書館,22.73919,120.24903,高雄市,梓官區,赤東里
1866,赤崁南路,22.73736,120.24778,高雄市,梓官區,赤東里
1867,梓官區農會,22.73226,120.25055,高雄市,梓官區,禮蚵里
1868,蚵仔寮漁港,22.72696,120.25582,高雄市,梓官區,信蚵里
1869,嘉好路,22.73474,120.25461,高雄市,梓官區,茄苳里
1870,代天府,22.73733,120.25925,高雄市,梓官區,典寶里
1871,大學西路口,22.72576,120.28114,高雄市,楠梓區,中興里
1872,三里活動中心,22.56426,120.3375,高雄市,小港區,小港里
1873,廣澤市場,22.7306,120.25146,高雄市,梓官區,智蚵里
1874,武嶺路口,22.62899,120.26347,高雄市,鼓山區,桃源里
1875,赤崁社區,22.74366,120.25586,高雄市,梓官區,赤崁里
1876,過溝巷口,22.50126,120.38418,高雄市,林園區,頂厝里
1877,海墘路口,22.50748,120.36816,高雄市,林園區,中門里
1878,天祥路口(民族一路),22.6678,120.31689,高雄市,三民區,鼎泰里
1879,三多復興路口,22.61659,120.31233,高雄市,苓雅區,普照里
1880,政德路,22.68165,120.30408,高雄市,左營區,新光里
1881,大社區公所(中山路),22.73196,120.34706,高雄市,大社區,大社里
1882,仁武特殊教育學校,22.68318,120.34686,高雄市,仁武區,八卦里
1883,澄觀路口,22.6809,120.34016,高雄市,仁武區,八卦里
1884,八德西路,22.68698,120.33644,高雄市,仁武區,八卦里
1885,八德一路口,22.69218,120.33241,高雄市,仁武區,八卦里
1886,橋頭國中,22.75881,120.30715,高雄市,橋頭區,橋頭里
1887,橋頭區公所(白樹路),22.75846,120.30536,高雄市,橋頭區,橋頭里
1888,高苑工商,22.7575,120.29215,高雄市,橋頭區,東林里
1889,長潤橋,22.76221,120.27773,高雄市,橋頭區,芋寮里
1890,梓官國小,22.76052,120.26463,高雄市,梓官區,梓義里
1891,舊莊,22.98095,120.63793,高雄市,六龜區,文武里
1892,探索體驗學園,22.77289,120.25562,高雄市,彌陀區,彌陀里
1893,仕元路口,22.75595,120.29723,高雄市,橋頭區,白樹里
1894,芋寮路,22.76,120.2863,高雄市,橋頭區,芋寮里
1895,中崙路,22.76173,120.27306,高雄市,梓官區,中崙里
1896,梓義第三公園,22.76118,120.26965,高雄市,梓官區,梓義里
1897,漁港公園,22.48571,120.40003,高雄市,林園區,中汕里
1898,高雄市議會(忠孝國中),22.61995,120.34725,高雄市,鳳山區,國隆里
1899,國昌路口(國泰路二段),22.61709,120.35183,高雄市,鳳山區,國泰里
1900,台糖花卉市場,22.61415,120.35831,高雄市,鳳山區,誠義里
1901,誠義路口,22.61259,120.36036,高雄市,鳳山區,誠義里
1902,三多三路,22.61546,120.30881,高雄市,苓雅區,日中里
1903,誠義里,22.60848,120.36054,高雄市,鳳山區,誠義里
1904,中正預校(鳳頂路口),22.60734,120.36171,高雄市,鳳山區,過埤里
1905,田中央路口,22.59579,120.3595,高雄市,鳳山區,過埤里
1906,中安路口(鳳頂路),22.58587,120.3587,高雄市,鳳山區,過埤里
1907,孔鳳路口,22.58385,120.35863,高雄市,小港區,桂林里
1908,朝鳳寺(紅毛港路),22.58571,120.34299,高雄市,鳳山區,南成里
1909,國慶六街,22.58685,120.34065,高雄市,鳳山區,南成里
1910,濟天宮(明鳳三路),22.58698,120.33732,高雄市,前鎮區,明正里
1911,東林路,22.54263,120.37388,高雄市,小港區,山明里
1912,坪頂國小(大平路),22.56143,120.39198,高雄市,小港區,坪頂里
1913,新厝路公墓,22.56149,120.40231,高雄市,大寮區,新厝里
1914,新厝路,22.5612,120.40772,高雄市,大寮區,新厝里
1915,新厝路口,22.56115,120.41038,高雄市,大寮區,新厝里
1916,營房(大寮),22.55425,120.41761,高雄市,大寮區,會結里
1917,過溪路口,22.57544,120.41623,高雄市,大寮區,過溪里
1918,金皇公司,22.57759,120.41016,高雄市,大寮區,過溪里
1919,旗津國中(中洲二路),22.58948,120.28662,高雄市,旗津區,南汕里
1920,佛德街口,22.57617,120.32302,高雄市,前鎮區,草衙里
1921,佛公國小(臨廣科技產業園區),22.57353,120.31937,高雄市,前鎮區,草衙里
1922,漁港東二路口,22.57279,120.31893,高雄市,前鎮區,明孝里
1923,漁港南一路口,22.57141,120.32012,高雄市,前鎮區,明孝里
1924,旗山北站,22.89599,120.48374,高雄市,旗山區,永和里
1925,頂風埤,22.58347,120.29017,高雄市,旗津區,上竹里
1926,新生路口,22.58081,120.31321,高雄市,前鎮區,仁愛里
1927,中華路口(旗山),22.89273,120.48342,高雄市,旗山區,瑞吉里
1928,電信局(旗津),22.60353,120.27547,高雄市,旗津區,復興里
1929,中洲路,22.60615,120.27371,高雄市,旗津區,復興里
1930,旗津國小,22.60821,120.27229,高雄市,旗津區,實踐里
1931,活動中心(旗津區),22.61058,120.27089,高雄市,旗津區,慈愛里
1932,仁愛國小,22.58215,120.31711,高雄市,前鎮區,仁愛里
1933,旗津輪渡站,22.61381,120.26972,高雄市,旗津區,振興里
1934,旗后燈塔,22.61437,120.26724,高雄市,旗津區,旗下里
1935,天后宮(通山路),22.61293,120.26878,高雄市,旗津區,振興里
1936,地藏王廟,22.5962,120.28124,高雄市,旗津區,北汕里
1937,大汕頭,22.58606,120.28933,高雄市,旗津區,南汕里
1938,捷運草衙站,22.57987,120.32819,高雄市,前鎮區,明義里
1939,捷運前鎮高中站,22.58799,120.32166,高雄市,前鎮區,平等里
1940,延平路(旗山區公所),22.88758,120.48321,高雄市,旗山區,湄洲里
1941,水美加油站,22.65826,120.39951,高雄市,鳥松區,仁美里
1942,水寮國小,22.66699,120.40777,高雄市,大樹區,水寮里
1943,九曲里,22.64851,120.42133,高雄市,大樹區,九曲里
1944,自來水公司(鳳山),22.62881,120.36196,高雄市,鳳山區,曹公里
1945,慈育街口,22.66967,120.36038,高雄市,仁武區,仁慈里
1946,華欣路口,22.671,120.29616,高雄市,左營區,新下里
1947,東門路口,22.6712,120.29488,高雄市,左營區,新下里
1948,瑞豐市場,22.66931,120.29414,高雄市,鼓山區,華豐里
1949,中和里一,22.72383,120.27695,高雄市,楠梓區,中和里
1950,中和里二,22.72918,120.27296,高雄市,楠梓區,中和里
1951,旗山轉運站,22.88373,120.48433,高雄市,旗山區,大德里
1952,保安宮(梓官),22.72941,120.25596,高雄市,梓官區,信蚵里
1953,半屏山公園,22.69148,120.30292,高雄市,左營區,祥和里
1954,文武里,22.70376,120.35381,高雄市,仁武區,文武里
1955,北屋社區,22.68414,120.33961,高雄市,仁武區,八卦里
1956,八卦農會,22.68555,120.33872,高雄市,仁武區,八卦里
1957,仁武倉庫,22.69821,120.32919,高雄市,仁武區,五和里
1958,高鐵基地,22.69509,120.32098,高雄市,仁武區,高楠里
1959,建興路,22.64656,120.32282,高雄市,三民區,正興里
1960,十全路口,22.64505,120.3029,高雄市,三民區,民享里
1961,後備指揮部,22.67227,120.33144,高雄市,仁武區,大灣里
1962,鼎金里,22.6681,120.32573,高雄市,三民區,鼎金里
1963,金獅湖,22.66607,120.32512,高雄市,三民區,鼎金里
1964,民裕街口,22.6066,120.31466,高雄市,前鎮區,竹南里
1965,台鋁新村,22.61049,120.31029,高雄市,前鎮區,西山里
1966,復興三路,22.61212,120.31116,高雄市,前鎮區,盛豐里
1967,愛群國小,22.61444,120.3118,高雄市,前鎮區,忠孝里
1968,市政大樓(復興二路),22.62038,120.31034,高雄市,苓雅區,晴朗里
1969,青年路口(復興二路),22.62312,120.30917,高雄市,新興區,正氣里
1970,高雄高商(復興二路),22.62439,120.30878,高雄市,新興區,浩然里
1971,新光三越(捷運三多商圈站),22.61447,120.3061,高雄市,苓雅區,廣澤里
1972,五福路口(復興二路),22.62606,120.30811,高雄市,新興區,德生里
1973,民生路口,22.62884,120.30806,高雄市,新興區,德望里
1974,中正路口(復興一路),22.63191,120.3082,高雄市,新興區,成功里
1975,復興一路,22.636,120.30856,高雄市,新興區,南港里
1976,樹人路,22.58932,120.31915,高雄市,前鎮區,平等里
1977,鼓山三路,22.64493,120.27775,高雄市,鼓山區,正德里
1978,元亨寺(鼓山二路),22.64026,120.27917,高雄市,鼓山區,鼓岩里
1979,輕軌鼓山區公所站,22.63701,120.28062,高雄市,鼓山區,鼓岩里
1980,德昌路(中學路口),22.88163,120.48206,高雄市,旗山區,大德里
1981,鼓山派出所,22.63469,120.28246,高雄市,鼓山區,興宗里
1982,輕軌文武聖殿站(台電),22.6302,120.28072,高雄市,鼓山區,山下里
1983,大公路口(七賢三路),22.62716,120.28256,高雄市,鹽埕區,中山里
1984,光華路口(四維二路),22.62168,120.31724,高雄市,苓雅區,林中里
1985,廣東一街口,22.62255,120.31969,高雄市,苓雅區,林中里
1986,天公廟,22.90949,120.63456,高雄市,六龜區,新興里
1987,輕軌衛生局站(凱旋醫院),22.62403,120.3246,高雄市,苓雅區,林靖里
1988,四維一路,22.62459,120.32607,高雄市,苓雅區,林靖里
1989,和順街口,22.65506,120.31666,高雄市,三民區,灣子里
1990,捷運凹子底站(大順一路),22.65608,120.30267,高雄市,鼓山區,龍子里
1991,自強三路口(四維四路),22.61541,120.29883,高雄市,苓雅區,城北里
1992,中學路,22.8825,120.4792,高雄市,旗山區,太平里
1993,中華四路口,22.61652,120.30211,高雄市,苓雅區,城東里
1994,海洋帝國,22.61449,120.29208,高雄市,苓雅區,苓東里
1995,一甲(鳳山),22.60019,120.33852,高雄市,鳳山區,一甲里
1996,協善堂,22.59409,120.32927,高雄市,鳳山區,鎮南里
1997,三光街口,22.5941,120.32626,高雄市,鳳山區,福誠里
1998,福誠國小,22.59748,120.32529,高雄市,鳳山區,福誠里
1999,瑞祥高中(忠誠路),22.60036,120.32394,高雄市,前鎮區,瑞南里
2000,民生二路,22.62439,120.29308,高雄市,前金區,社西里
2001,元亨寺(興隆路),22.63774,120.27937,高雄市,鼓山區,鼓岩里
2002,萬壽山橋,22.63587,120.2792,高雄市,鼓山區,鼓岩里
2003,弘揚大第,22.66657,120.31444,高雄市,三民區,鼎泰里
2004,旗亭橋,22.88321,120.47751,高雄市,旗山區,太平里
2005,河堤公園,22.66462,120.31289,高雄市,三民區,鼎泰里
2006,京城世界,22.6638,120.31435,高雄市,三民區,鼎泰里
2007,二聖公園,22.61362,120.31805,高雄市,前鎮區,復國里
2008,沱江街口,22.60935,120.31508,高雄市,前鎮區,興東里
2009,勞工公園(復興三路),22.60779,120.30769,高雄市,前鎮區,良和里
2010,博愛路口(漢神巨蛋),22.67053,120.30233,高雄市,左營區,新下里
2011,澄清路口,22.63885,120.3432,高雄市,三民區,寶華里
2012,鼓山崎嶺,22.88597,120.4658,高雄市,旗山區,三協里
2013,山明路口(華山路),22.56636,120.3677,高雄市,小港區,山明里
2014,美麗華大廈,22.56853,120.36581,高雄市,小港區,松金里
2015,小港醫院急診室(子信幼稚園),22.5682,120.36318,高雄市,小港區,泰山里
2016,中鋼大門(台灣造船廠),22.55508,120.34872,高雄市,小港區,鳳宮里
2017,松華路,22.5677,120.37302,高雄市,小港區,山明里
2018,宏光街口(宏平幼兒園),22.57066,120.36392,高雄市,小港區,泰山里
2019,水秀路,22.56472,120.36671,高雄市,小港區,山明里
2020,松福街口,22.56795,120.3716,高雄市,小港區,松山里
2021,山明里活動中心,22.5625,120.36697,高雄市,小港區,山明里
2022,鳳陽國小,22.56074,120.36999,高雄市,小港區,山明里
2023,學明社區,22.56084,120.37331,高雄市,小港區,山明里
2024,松義街口,22.56393,120.37372,高雄市,小港區,山明里
2025,高雄餐旅大學,22.56593,120.37139,高雄市,小港區,山明里
2026,喬覺寺,22.88857,120.45931,高雄市,旗山區,三協里
2027,后安路,22.57299,120.32188,高雄市,前鎮區,草衙里
2028,明聖街口,22.58311,120.3434,高雄市,小港區,中厝里
2029,福安宮,22.58375,120.34615,高雄市,小港區,中厝里
2030,德仁路口,22.58461,120.349,高雄市,小港區,中厝里
2031,桂林國小(機場咖啡),22.58333,120.35006,高雄市,小港區,桂林里
2032,桂林教會,22.58336,120.35451,高雄市,小港區,桂林里
2033,新昌街口,22.58481,120.36189,高雄市,小港區,廈莊里
2034,中安路(勝安街口),22.58472,120.36443,高雄市,小港區,合作里
2035,明義國中,22.58122,120.36787,高雄市,小港區,孔宅里
2036,復華街口,22.58132,120.36337,高雄市,小港區,合作里
2037,華昌路,22.58356,120.36278,高雄市,小港區,合作里
2038,臨加南路,22.5757,120.3193,高雄市,前鎮區,明孝里
2039,鳳頂路,22.585,120.35798,高雄市,鳳山區,過埤里
2040,桂園路口,22.58486,120.3552,高雄市,小港區,桂林里
2041,臨加北路,22.57741,120.31847,高雄市,前鎮區,明孝里
2042,旗山分校,22.8884,120.45731,高雄市,旗山區,三協里
2043,臨加西路,22.57578,120.31872,高雄市,前鎮區,明孝里
2044,漁業署,22.57171,120.312,高雄市,前鎮區,明孝里
2045,漁業大樓,22.57191,120.31735,高雄市,前鎮區,明孝里
2046,三角公園,22.64017,120.28984,高雄市,三民區,豐裕里
2047,中仁街口,22.63923,120.29018,高雄市,三民區,豐裕里
2048,國泰社區,22.63875,120.28874,高雄市,三民區,豐裕里
2049,市中一路口,22.63776,120.28593,高雄市,三民區,千秋里
2050,京城花園,22.59752,120.34525,高雄市,鳳山區,保安里
2051,鳳甲二街,22.59649,120.34346,高雄市,鳳山區,保安里
2052,尚青市場,22.59679,120.34275,高雄市,鳳山區,保安里
2053,華興街口,22.60388,120.33723,高雄市,鳳山區,正義里
2054,中崙五路,22.59742,120.35146,高雄市,鳳山區,中崙里
2055,輕軌籬仔內站(一心一路),22.60569,120.3235,高雄市,前鎮區,竹南里
2056,實踐大學(高雄城區中心),22.61286,120.2935,高雄市,苓雅區,苓東里
2057,馬頭山,22.88725,120.44943,高雄市,內門區,內南里
2058,保華路口,22.59677,120.34695,高雄市,鳳山區,保安里
2059,中崙二路二,22.59809,120.35287,高雄市,鳳山區,中崙里
2060,高鐵路口(左營新光三越),22.68896,120.31158,高雄市,左營區,菜公里
2061,重信路,22.68459,120.30991,高雄市,左營區,福山里
2062,明誠中學(美明路),22.66537,120.29167,高雄市,鼓山區,龍水里
2063,美明路,22.66544,120.28939,高雄市,鼓山區,龍水里
2064,裕誠路,22.65766,120.29409,高雄市,鼓山區,龍子里
2065,龍德路口(神農路),22.65779,120.29668,高雄市,鼓山區,龍子里
2066,榮華新村,22.68348,120.3217,高雄市,左營區,福山里
2067,文府路口(高鐵左營站),22.68554,120.30889,高雄市,左營區,菜公里
2068,警廣站(博愛四路),22.68732,120.3169,高雄市,左營區,福山里
2069,馬頭山頂,22.88536,120.44288,高雄市,田寮區,鹿埔里
2070,文學路口(華夏路),22.68823,120.31974,高雄市,左營區,福山里
2071,山水社區,22.68678,120.32215,高雄市,左營區,福山里
2072,陽明圖書分館,22.64325,120.34219,高雄市,三民區,本揚里
2073,陽明路,22.64524,120.34257,高雄市,三民區,本揚里
2074,陽明路口,22.64663,120.34119,高雄市,三民區,本上里
2075,東光國小,22.64785,120.33934,高雄市,三民區,本安里
2076,黃興路口,22.65187,120.33638,高雄市,三民區,本元里
2077,本館路(殯葬管理處),22.6576,120.33361,高雄市,鳥松區,大華里
2078,十全國小(察哈爾二街),22.64798,120.29897,高雄市,三民區,安宜里
2079,內門路口,22.88679,120.43372,高雄市,田寮區,鹿埔里
2080,九如一路口,22.63814,120.34116,高雄市,三民區,寶華里
2081,自由三路,22.67351,120.31163,高雄市,左營區,菜公里
2082,重清路口,22.67001,120.31016,高雄市,左營區,新中里
2083,自由二路,22.66341,120.30813,高雄市,左營區,新上里
2084,仙公廟,22.61851,120.35524,高雄市,鳳山區,和興里
2085,自由一路,22.65286,120.30849,高雄市,三民區,灣興里
2086,輕軌光榮碼頭站,22.61633,120.29304,高雄市,苓雅區,苓昇里
2087,七老爺活動中心,22.60664,120.34747,高雄市,鳳山區,中崙里
2088,中崙國小,22.59955,120.35081,高雄市,鳳山區,中崙里
2089,陽明國中,22.64298,120.33989,高雄市,三民區,寶國里
2090,義德路口(義華路),22.64356,120.33591,高雄市,三民區,寶德里
2091,鹿埔分校,22.88528,120.42527,高雄市,田寮區,鹿埔里
2092,民族國中側門,22.63928,120.33224,高雄市,三民區,寶安里
2093,精華公園,22.64245,120.29955,高雄市,三民區,精華里
2094,熱河二街口,22.64371,120.29966,高雄市,三民區,德東里
2095,愛河之心,22.65103,120.30048,高雄市,三民區,安泰里
2096,玉皇宮,22.74934,120.34315,高雄市,大社區,保社里
2097,巨園建設,22.752,120.34106,高雄市,大社區,保社里
2098,遠東麗市,22.75245,120.34244,高雄市,大社區,保社里
2099,光華路口(保社里),22.74586,120.34772,高雄市,大社區,保社里
2100,鹿埔,22.88857,120.4219,高雄市,田寮區,鹿埔里
2101,保舍甲路,22.74441,120.34866,高雄市,大社區,保社里
2102,新康街口,22.61716,120.34313,高雄市,鳳山區,新強里
2103,新強路口,22.61671,120.33929,高雄市,鳳山區,新強里
2104,高雄地方法院(健保署),22.62611,120.29108,高雄市,前金區,林投里
2105,土庫三路(創新路口),22.74044,120.3269,高雄市,楠梓區,清豐里
2106,土庫二路口,22.73857,120.32617,高雄市,楠梓區,清豐里
2107,鳳頂路口,22.59458,120.36233,高雄市,鳳山區,過埤里
2108,民族路(明誠路口),22.66139,120.31593,高雄市,三民區,鼎泰里
2109,緯六路,22.69736,120.29024,高雄市,左營區,明建里
2110,汾陽路口,22.6492,120.33781,高雄市,三民區,本安里
2111,府北路,22.62885,120.28555,高雄市,鹽埕區,府北里
2112,明鳳十二街口,22.58596,120.33699,高雄市,前鎮區,明正里
2113,古亭,22.89356,120.40358,高雄市,田寮區,古亭里
2114,仁慈公園,22.67235,120.35884,高雄市,仁武區,仁慈里
2115,典昌路,22.73188,120.27046,高雄市,橋頭區,頂鹽里
2116,美德街口,22.75864,120.30337,高雄市,橋頭區,白樹里
2117,甲樹路,22.76192,120.29964,高雄市,橋頭區,白樹里
2118,公路總局南訓中心,22.76411,120.29927,高雄市,橋頭區,東林里
2119,五林路口,22.76266,120.29436,高雄市,橋頭區,東林里
2120,五林國小,22.76,120.29397,高雄市,橋頭區,東林里
2121,文安路東段,22.79443,120.24026,高雄市,彌陀區,文安里
2122,文安路,22.79402,120.23708,高雄市,彌陀區,文安里
2123,壽齡國小,22.79514,120.23392,高雄市,彌陀區,文安里
2124,古亭水庫,22.89433,120.39971,高雄市,田寮區,古亭里
2125,舊港路東段,22.79691,120.23105,高雄市,彌陀區,舊港里
2126,舊港派出所,22.79939,120.23106,高雄市,彌陀區,舊港里
2127,復興路,22.80184,120.23404,高雄市,永安區,維新里
2128,保安路口,22.80799,120.24329,高雄市,永安區,維新里
2129,永華路口,22.81882,120.22597,高雄市,永安區,永安里
2130,永安區公所,22.81831,120.22479,高雄市,永安區,永華里
2131,鳥松國小,22.66263,120.36145,高雄市,鳥松區,鳥松里
2132,大智路,22.65924,120.36122,高雄市,鳥松區,鳥松里
2133,鳳林路四段,22.53801,120.40899,高雄市,大寮區,昭明里
2134,昭明國小,22.54076,120.40978,高雄市,大寮區,昭明里
2135,南勢崎頂,22.89245,120.39814,高雄市,田寮區,古亭里
2136,赤崁(大寮),22.54354,120.41054,高雄市,大寮區,昭明里
2137,田寮區公所,22.87111,120.35917,高雄市,田寮區,南安里
2138,大群停車場,22.88623,120.39172,高雄市,田寮區,崇德里
2139,岡山郵局(民有路),22.79203,120.29664,高雄市,岡山區,岡山里
2140,大東路(鳳山龍山寺),22.62194,120.36102,高雄市,鳳山區,南興里
2141,和興里,22.61912,120.35902,高雄市,鳳山區,和興里
2142,誠義兒童公園,22.61591,120.36001,高雄市,鳳山區,誠義里
2143,高苑科大,22.84146,120.26382,高雄市,路竹區,鴨寮里
2144,新庄路口(中正路二段),22.9097,120.2007,高雄市,湖內區,忠興里
2145,白雲寺,22.90937,120.18429,高雄市,茄萣區,白雲里
2146,茄萣國小,22.90363,120.18369,高雄市,茄萣區,嘉賜里
2147,古亭橋,22.88712,120.395,高雄市,田寮區,崇德里
2148,濱海路一段,22.88441,120.18665,高雄市,茄萣區,崎漏里
2149,崎漏農會活動中心,22.87313,120.19062,高雄市,茄萣區,崎漏里
2150,興達港觀光魚市,22.87106,120.19279,高雄市,茄萣區,崎漏里
2151,民族街口,22.87811,120.23177,高雄市,湖內區,湖內里
2152,明寧靖王公園,22.8786,120.23939,高雄市,湖內區,湖內里
2153,東方設計學院,22.87966,120.24826,高雄市,湖內區,湖東里
2154,捷運鳳山西站(自由路),22.62538,120.34891,高雄市,鳳山區,協和里
2155,光遠路,22.62616,120.35856,高雄市,鳳山區,縣衙里
2156,香蕉碼頭(棧貳庫),22.61881,120.27905,高雄市,鼓山區,麗興里
2157,捆牛湖社區站,22.77708,120.38515,高雄市,燕巢區,深水里
2158,日月禪寺,22.8858,120.3904,高雄市,田寮區,崇德里
2159,甲北里,22.7431,120.29752,高雄市,橋頭區,甲北里
2160,湖仔內福德祠,22.77407,120.3698,高雄市,燕巢區,深水里
2161,瑞進瑞興路口,22.62583,120.37008,高雄市,鳳山區,瑞竹里
2162,清淨寺B(忠義路),22.699,120.39192,高雄市,仁武區,烏林里
2163,圓照寺,22.66264,120.38224,高雄市,鳥松區,坔埔里
2164,活動中心(鳥松區),22.66065,120.38087,高雄市,鳥松區,坔埔里
2165,夢時代(中華),22.59559,120.30878,高雄市,前鎮區,興邦里
2166,鳳山工業區(監理所後),22.61428,120.33253,高雄市,鳳山區,武慶里
2167,大東文化藝術中心,22.62466,120.3623,高雄市,鳳山區,三民里
2168,月世界,22.88361,120.38696,高雄市,田寮區,崇德里
2169,平成砲台(曹公廟),22.62763,120.35733,高雄市,鳳山區,鳳崗里
2170,市立圖書館(大樹分館),22.69111,120.43077,高雄市,大樹區,檨腳里
2171,北極殿(大樹),22.69369,120.42614,高雄市,大樹區,興山里
2172,和山社區,22.69733,120.41962,高雄市,大樹區,和山里
2173,花鄉,22.61072,120.36049,高雄市,鳳山區,誠義里
2174,過雄一街,22.58674,120.35771,高雄市,鳳山區,過埤里
2175,中正路(義發路口),22.61792,120.38647,高雄市,大寮區,中興里
2176,環保科技園區,22.8063,120.2716,高雄市,岡山區,本洲里
2177,中三街,22.72411,120.30265,高雄市,楠梓區,瑞屏里
2178,大寮地政,22.59269,120.39954,高雄市,大寮區,內坑里
2179,高雄男子監獄,22.59127,120.39791,高雄市,大寮區,內坑里
2180,前庄,22.62385,120.39456,高雄市,大寮區,前庄里
2181,北勢宅,22.87938,120.38412,高雄市,田寮區,崇德里
2182,八德路口(仁愛路),22.63304,120.3959,高雄市,大寮區,中庄里
2183,朝中宮,22.63298,120.39468,高雄市,大寮區,中庄里
2184,八德路口(中庄),22.63245,120.39579,高雄市,大寮區,中庄里
2185,瑞隆東路口(五甲一路),22.60567,120.34625,高雄市,鳳山區,中崙里
2186,海景街(合群社區),22.69694,120.28767,高雄市,左營區,合群里
2187,緯九路,22.69528,120.28751,高雄市,左營區,合群里
2188,四海派出所,22.69322,120.28756,高雄市,左營區,明建里
2189,四海一家,22.69045,120.28809,高雄市,左營區,明建里
2190,高雄大學(大學南路),22.73227,120.28551,高雄市,楠梓區,藍田里
2191,大學26街,22.72978,120.28445,高雄市,楠梓區,藍田里
2192,崇德市場(消防隊),22.87716,120.3815,高雄市,田寮區,崇德里
2193,實踐路,22.69031,120.29003,高雄市,左營區,明建里
2194,國軍岡山醫院,22.78914,120.2851,高雄市,岡山區,仁壽里
2195,樂安醫院,22.79218,120.28109,高雄市,岡山區,後協里
2196,高鳳路,22.58938,120.36602,高雄市,鳳山區,過埤里
2197,公園西路,22.79535,120.2849,高雄市,岡山區,前峰里
2198,牧人館,22.79933,120.29073,高雄市,岡山區,壽天里
2199,大社路,22.8629,120.26194,高雄市,路竹區,社西里
2200,大社國小,22.86701,120.26549,高雄市,路竹區,社西里
2201,一甲派出所,22.86987,120.26807,高雄市,路竹區,甲南里
2202,大仁路,22.87074,120.26978,高雄市,路竹區,甲南里
2203,崇德國小,22.87833,120.37965,高雄市,田寮區,崇德里
2204,福德宮,22.87177,120.27431,高雄市,路竹區,甲北里
2205,太平路,22.86716,120.28804,高雄市,路竹區,下坑里
2206,下坑里,22.86796,120.29012,高雄市,路竹區,下坑里
2207,新生路,22.87251,120.29121,高雄市,路竹區,竹園里
2208,竹園里,22.87461,120.29208,高雄市,路竹區,竹園里
2209,中路,22.89365,120.29363,高雄市,阿蓮區,中路里
2210,阿蓮農會(中路分部),22.89493,120.29507,高雄市,阿蓮區,中路里
2211,鳳儀宮,22.56365,120.3519,高雄市,小港區,二苓里
2212,高師大門口,22.78175,120.40442,高雄市,燕巢區,深水里
2213,大業南路口,22.5322,120.36864,高雄市,小港區,山明里
2214,翠屏岩站(中山路),22.72979,120.36693,高雄市,大社區,神農里
2215,營盤頂,22.87868,120.37723,高雄市,田寮區,西德里
2216,觀景山林站,22.7396,120.38171,高雄市,大社區,大社里
2217,義守大學站,22.72546,120.40722,高雄市,大樹區,三和里
2218,義大世界站,22.72989,120.40723,高雄市,大樹區,三和里
2219,清豐三路口(土庫路),22.73863,120.33083,高雄市,楠梓區,清豐里
2220,東方路2巷口,22.87626,120.21816,高雄市,茄萣區,崎漏里
2221,老爺里,22.604,120.344,高雄市,鳳山區,老爺里
2222,為隨社區,22.81757,120.28972,高雄市,岡山區,為隨里
2223,為隨西路,22.81458,120.29005,高雄市,岡山區,為隨里
2224,極限公園,22.67541,120.33746,高雄市,仁武區,大灣里
2225,中華橋,22.7957,120.28931,高雄市,岡山區,仁壽里
2226,佛光山講堂,22.79387,120.28808,高雄市,岡山區,前峰里
2227,民族路口(中華路),22.79221,120.28831,高雄市,岡山區,仁壽里
2228,仁和公園,22.68101,120.35234,高雄市,仁武區,仁和里
2229,糖廠(西德社區),22.87884,120.37411,高雄市,田寮區,西德里
2230,天皇別墅,22.66379,120.37566,高雄市,鳥松區,坔埔里
2231,壽峰里,22.79718,120.2863,高雄市,岡山區,壽峰里
2232,輕軌衛生局站(凱旋二路),22.62477,120.32369,高雄市,苓雅區,奏捷里
2233,永榮一街口,22.68787,120.3297,高雄市,仁武區,五和里
2234,永仁街口,22.68677,120.3355,高雄市,仁武區,八卦里
2235,平等路口(九如一路),22.63995,120.32024,高雄市,三民區,安發里
2236,明建里,22.69367,120.28976,高雄市,左營區,明建里
2237,軍校路口,22.69373,120.29188,高雄市,左營區,明建里
2238,筆秀站,22.76854,120.30497,高雄市,橋頭區,筆秀里
2239,竹山,22.87794,120.36886,高雄市,田寮區,西德里
2240,路科八路口,22.83642,120.25993,高雄市,路竹區,竹南里
2241,高雄科學園區,22.82871,120.26018,高雄市,路竹區,北嶺里
2242,旗楠路口,22.7475,120.34536,高雄市,大社區,保社里
2243,安泰街,22.74333,120.33904,高雄市,楠梓區,清豐里
2244,立安路,22.74319,120.33611,高雄市,楠梓區,清豐里
2245,立民路,22.74135,120.33727,高雄市,楠梓區,清豐里
2246,願景橋,22.65049,120.28622,高雄市,鼓山區,龍水里
2247,捷運橋頭糖廠站,22.75092,120.31351,高雄市,橋頭區,仕隆里
2248,購物廣場站,22.72984,120.40289,高雄市,大樹區,三和里
2249,新庄路口(嘉新東路),22.80753,120.30403,高雄市,岡山區,竹圍里
2250,本洲工業區,22.81247,120.27246,高雄市,岡山區,本洲里
2251,大學十七街口,22.73141,120.28057,高雄市,楠梓區,藍田里
2252,幸福公園,22.50042,120.39499,高雄市,林園區,文賢里
2253,田寮教會(市場),22.87374,120.36037,高雄市,田寮區,南安里
2254,大仁北路,22.66665,120.36175,高雄市,鳥松區,夢裡里
2255,關帝廟,22.69435,120.39348,高雄市,大樹區,龍目里
2256,安瀾宮,22.61567,120.2951,高雄市,苓雅區,苓中里
2257,岡山高中,22.79791,120.29042,高雄市,岡山區,壽天里
2258,高鳳站,22.63109,120.33696,高雄市,苓雅區,正仁里
2259,瑞隆東路口(南京路),22.60604,120.34565,高雄市,鳳山區,老爺里
2260,溪埔國中,22.71937,120.44367,高雄市,大樹區,溪埔里
2261,和山寺,22.70569,120.41701,高雄市,大樹區,和山里
2262,大樹國小(和山分校),22.70379,120.41702,高雄市,大樹區,和山里
2263,和山路,22.70154,120.41732,高雄市,大樹區,和山里
2264,德民路(右昌森林公園),22.72189,120.29342,高雄市,楠梓區,仁昌里
2265,松禾日照,22.59022,120.40372,高雄市,大寮區,三隆里
2266,崗安路,22.8728,120.35887,高雄市,田寮區,南安里
2267,援中國小(大學26街口),22.72843,120.27905,高雄市,楠梓區,中和里
2268,翠屏岩站(和平路二段),22.73015,120.36053,高雄市,大社區,神農里
2269,橋頭國小,22.76184,120.30479,高雄市,橋頭區,白樹里
2270,龍山寺,22.83907,120.41589,高雄市,田寮區,田寮里
2271,中崎,22.76226,120.32323,高雄市,橋頭區,中崎里
2272,金吉順公司,22.63806,120.37361,高雄市,鳳山區,鎮北里
2273,南山公司,22.64635,120.38871,高雄市,鳥松區,仁美里
2274,建國新城(鳳松路口),22.63563,120.36063,高雄市,鳳山區,文華里
2275,崗山頭溫泉,22.87407,120.35696,高雄市,田寮區,南安里
2276,家畜市場,22.63271,120.36386,高雄市,鳳山區,北門里
2277,烏林里,22.69659,120.3755,高雄市,仁武區,烏林里
2278,高旗工家,22.6359,120.36975,高雄市,鳳山區,北門里
2279,新生環球路口站,22.87814,120.29224,高雄市,路竹區,竹園里
2280,鳥松,22.66166,120.36358,高雄市,鳥松區,鳥松里
2281,橋頭區農會,22.75541,120.30619,高雄市,橋頭區,仕隆里
2282,澄觀澄仁路口,22.68175,120.3447,高雄市,仁武區,赤山里
2283,僑泰公司,22.6411,120.37935,高雄市,鳥松區,仁美里
2284,夢裡里,22.66741,120.36263,高雄市,鳥松區,夢裡里
2285,中二街,22.72357,120.30462,高雄市,楠梓區,瑞屏里
2286,平安橋,22.71999,120.43685,高雄市,大樹區,三和里
2287,鳳仁新村,22.63433,120.36675,高雄市,鳳山區,北門里
2288,崗山頭,22.87457,120.3559,高雄市,阿蓮區,峰山里
2289,鳳西國中,22.62073,120.35391,高雄市,鳳山區,興中里
2290,仁忠路口,22.6758,120.357,高雄市,仁武區,仁和里
2291,登發國小,22.67964,120.35468,高雄市,仁武區,仁和里
2292,慈惠堂,22.67819,120.34759,高雄市,仁武區,赤山里
2293,仁美,22.65548,120.39406,高雄市,鳥松區,仁美里
2294,仁美活動中心,22.65362,120.39381,高雄市,鳥松區,仁美里
2295,永和街口,22.56224,120.39027,高雄市,小港區,坪頂里
2296,力行路,22.639,120.36705,高雄市,鳳山區,鎮北里
2297,北平路口,22.63855,120.36913,高雄市,鳳山區,鎮北里
2298,南崗山,22.87822,120.35001,高雄市,阿蓮區,峰山里
2299,平等路口(光華路),22.62216,120.35156,高雄市,鳳山區,協和里
2300,全國加油站,22.65048,120.39203,高雄市,鳥松區,仁美里
2301,吳記工廠,22.64276,120.38225,高雄市,鳥松區,仁美里
2302,明山慈安居,22.68476,120.3643,高雄市,仁武區,考潭里
2303,磚子窯,22.8817,120.34194,高雄市,阿蓮區,阿蓮里
2304,樂善宮,22.78598,120.24325,高雄市,彌陀區,過港里
2305,光和北路,22.78397,120.24289,高雄市,彌陀區,光和里
2306,光和路,22.78318,120.24343,高雄市,彌陀區,光和里
2307,中正西路口,22.78381,120.24565,高雄市,彌陀區,光和里
2308,德祥路,22.72871,120.31167,高雄市,楠梓區,翠屏里
2309,八卦里滯洪公園,22.68332,120.32888,高雄市,仁武區,五和里
2310,源勝社區,22.88161,120.33955,高雄市,阿蓮區,南蓮里
2311,捷運橋頭車站,22.7606,120.30913,高雄市,橋頭區,橋頭里
2312,理想國,22.77482,120.26879,高雄市,岡山區,石潭里
2313,光潭路口,22.77408,120.27676,高雄市,岡山區,白米里
2314,寶米路,22.77821,120.28082,高雄市,岡山區,白米里
2315,劉厝路,22.78081,120.28834,高雄市,岡山區,劉厝里
2316,工業區(阿蓮),22.88132,120.33727,高雄市,阿蓮區,阿蓮里
2317,登科街,22.78025,120.29043,高雄市,岡山區,劉厝里
2318,岡山轉運站(岡山火車站),22.79231,120.29956,高雄市,岡山區,後紅里
2319,燁聯鋼鐵,22.83017,120.29838,高雄市,岡山區,潭底里
2320,過埤派出所,22.59288,120.3612,高雄市,鳳山區,過埤里
2321,阿蓮中正路(和平路口),22.8807,120.33294,高雄市,阿蓮區,阿蓮里
2322,阿蓮,22.87913,120.33116,高雄市,阿蓮區,南蓮里
2323,永芳里,22.6153,120.40623,高雄市,大寮區,永芳里
2324,巷尾,22.61829,120.40818,高雄市,大寮區,琉球里
2325,江山社區活動中心,22.63631,120.41038,高雄市,大寮區,中庄里
2326,中庄派出所,22.63499,120.39545,高雄市,大寮區,中庄里
2327,民族十巷口,22.63391,120.38426,高雄市,大寮區,後庄里
2328,阿蓮分駐所,22.87889,120.32932,高雄市,阿蓮區,南蓮里
2329,瑞士山莊,22.85844,120.47198,高雄市,旗山區,上洲里
2330,上洲里,22.85604,120.47404,高雄市,旗山區,上洲里
2331,鯤洲里,22.85145,120.47368,高雄市,旗山區,鯤洲里
2332,大山里,22.84839,120.47211,高雄市,旗山區,大山里
2333,中洲里,22.84418,120.46957,高雄市,旗山區,中洲里
2334,南洲里,22.84172,120.46748,高雄市,旗山區,中洲里
2335,阿蓮中山路,22.87742,120.32787,高雄市,阿蓮區,南蓮里
2336,三清殿,22.50795,120.37593,高雄市,林園區,龔厝里
2337,南蓮,22.87508,120.32685,高雄市,阿蓮區,南蓮里
2338,文昌宮,22.51233,120.39207,高雄市,林園區,王公里
2339,聖地殿,22.50859,120.37831,高雄市,林園區,龔厝里
2340,鳳林寺,22.50853,120.38939,高雄市,林園區,王公里
2341,龍潭寺,22.51122,120.38091,高雄市,林園區,林家里
2342,廣應廟,22.50658,120.38664,高雄市,林園區,廣應里
2343,林家路,22.51315,120.38327,高雄市,林園區,林家里
2344,頂磘溝,22.51201,120.38611,高雄市,林園區,王公里
2345,協天宮,22.49475,120.38918,高雄市,林園區,西溪里
2346,半廓天上聖母,22.48977,120.39013,高雄市,林園區,西溪里
2347,董龍宮,22.50194,120.38081,高雄市,林園區,頂厝里
2348,光德寺,22.87126,120.32523,高雄市,阿蓮區,南蓮里
2349,溼地公園停車場,22.49126,120.38677,高雄市,林園區,西溪里
2350,海洋公園大樓,22.49982,120.38127,高雄市,林園區,頂厝里
2351,溼地路口,22.49415,120.38338,高雄市,林園區,港嘴里
2352,港龍宮,22.49832,120.38099,高雄市,林園區,港埔里
2353,鄉仁早餐,22.49704,120.38489,高雄市,林園區,港嘴里
2354,南六站,22.78403,120.34425,高雄市,燕巢區,角宿里
2355,海成南街站,22.77333,120.31627,高雄市,燕巢區,角宿里
2356,中甲路口,22.86712,120.32384,高雄市,阿蓮區,崗山里
2357,觀水宮站,22.77597,120.32906,高雄市,燕巢區,角宿里
2358,福德宮站,22.77194,120.31863,高雄市,燕巢區,角宿里
2359,加州大地站,22.77367,120.32276,高雄市,燕巢區,角宿里
2360,海成活動中心站,22.77256,120.32046,高雄市,燕巢區,角宿里
2361,大樹下(舊衛生所),22.8175,120.42416,高雄市,旗山區,中寮里
2362,旗山區公所,22.88866,120.48346,高雄市,旗山區,湄洲里
2363,中寮國小,22.81888,120.42555,高雄市,田寮區,七星里
2364,內潭,22.82333,120.42805,高雄市,旗山區,中寮里
2365,崑山宮,22.84555,120.4458,高雄市,田寮區,田寮里
2366,頂湖,22.83777,120.4411,高雄市,旗山區,新光里
2367,下湖,22.84167,120.44593,高雄市,旗山區,新光里
2368,大遠百百貨(捷運三多商圈站),22.61352,120.30321,高雄市,苓雅區,意誠里
2369,中湖,22.83893,120.44436,高雄市,旗山區,新光里
2370,神農廟站,22.96434,120.55608,高雄市,杉林區,月眉里
2371,月美國小,22.9582,120.53592,高雄市,杉林區,月眉里
2372,月美活動中心,22.95407,120.53388,高雄市,杉林區,月美里
2373,桐竹站,22.95012,120.53259,高雄市,杉林區,月美里
2374,宣化堂牌樓,22.92591,120.5086,高雄市,旗山區,中正里
2375,新開站,22.94643,120.53259,高雄市,杉林區,月美里
2376,福安庄宣化堂,22.92352,120.50964,高雄市,旗山區,中正里
2377,下寮站,22.94035,120.5303,高雄市,杉林區,月美里
2378,阪鏟站,22.94628,120.52991,高雄市,杉林區,月美里
2379,九鬮,22.85069,120.32492,高雄市,阿蓮區,復安里
2380,天原宮,23.10048,120.59042,高雄市,甲仙區,和安里
2381,甲仙龍鳳寺,23.08549,120.60073,高雄市,甲仙區,東安里
2382,真武堂,23.07076,120.60376,高雄市,甲仙區,西安里
2383,仙林巷土地公廟,23.05755,120.56021,高雄市,甲仙區,大田里
2384,法泉寺,23.07468,120.59495,高雄市,甲仙區,東安里
2385,牛百葉,23.06658,120.55478,高雄市,甲仙區,大田里
2386,南德府,23.07632,120.59306,高雄市,甲仙區,東安里
2387,寶隆活動中心,23.04946,120.5584,高雄市,甲仙區,寶隆里
2388,清隱寺,23.06382,120.59203,高雄市,甲仙區,西安里
2389,元宋太祖宮,23.05102,120.56329,高雄市,甲仙區,寶隆里
2390,復安國小,22.84886,120.32439,高雄市,阿蓮區,復安里
2391,滴水土地公廟,23.06401,120.59068,高雄市,甲仙區,西安里
2392,王母宮,23.06425,120.58392,高雄市,甲仙區,西安里
2393,大埤頭土地公廟,22.92454,120.57555,高雄市,美濃區,興隆里
2394,廣興國小,22.91705,120.56773,高雄市,美濃區,廣德里
2395,興隆橋,22.91598,120.56543,高雄市,美濃區,興隆里
2396,美濃農會,22.90225,120.54134,高雄市,美濃區,泰安里
2397,永盛興商店,22.84273,120.54297,高雄市,美濃區,吉洋里
2398,瓦窯,22.84615,120.32351,高雄市,阿蓮區,復安里
2399,水德潭土地公,22.84476,120.54118,高雄市,美濃區,吉洋里
2400,吉豐,22.8431,120.53414,高雄市,美濃區,吉洋里
2401,和興莊,22.85753,120.51968,高雄市,美濃區,吉和里
2402,中正路三段824號,22.84273,120.5322,高雄市,美濃區,吉洋里
2403,下九寮,22.85227,120.52541,高雄市,美濃區,吉和里
2404,外六寮,22.83886,120.53316,高雄市,美濃區,吉洋里
2405,四維,22.84752,120.52671,高雄市,美濃區,吉和里
2406,精工社區,22.83254,120.5404,高雄市,美濃區,吉洋里
2407,慈福宮,22.84958,120.5226,高雄市,美濃區,吉和里
2408,田厝,22.83732,120.31779,高雄市,岡山區,嘉峰里
2409,外六寮40號,22.8365,120.53276,高雄市,美濃區,吉洋里
2410,忠孝路,22.84099,120.5174,高雄市,美濃區,吉洋里
2411,茄苳子,22.93187,120.42848,高雄市,內門區,內東里
2412,山南宮,22.91522,120.41843,高雄市,內門區,內東里
2413,內門衛生所,22.92433,120.45361,高雄市,內門區,觀亭里
2414,九龍宮,22.91719,120.42716,高雄市,內門區,內東里
2415,西門國小,22.91954,120.43102,高雄市,內門區,內東里
2416,多納里辦公處,22.91023,120.71541,高雄市,茂林區,多納里
2417,旗美高中,22.8839,120.49448,高雄市,旗山區,東平里
2418,茂林風景區,22.88094,120.65012,高雄市,茂林區,茂林里
2419,嘉峰,22.82985,120.31374,高雄市,岡山區,嘉峰里
2420,萬山停車場(萬山下部落),22.90828,120.6809,高雄市,茂林區,萬山里
2421,情人谷,22.88215,120.66479,高雄市,茂林區,茂林里
2422,萬山派出所,22.90954,120.68047,高雄市,茂林區,萬山里
2423,茂林消防分隊,22.89383,120.67051,高雄市,茂林區,茂林里
2424,屏東客運,22.66976,120.48505,屏東縣,屏東市,崇智里
2425,寶建醫院,22.68138,120.48447,屏東縣,屏東市,崇蘭里
2426,屏東署立醫院,22.67281,120.49577,屏東縣,屏東市,豐榮里
2427,基督教醫院,22.67303,120.49508,屏東縣,屏東市,興樂里
2428,屏東里港客運,22.77472,120.49423,屏東縣,里港鄉,大平村
2429,高樹大新醫院,22.8238,120.59959,屏東縣,高樹鄉,長榮村
2430,潭底,22.82591,120.30991,高雄市,岡山區,嘉峰里
2431,屏東高樹客運,22.82728,120.6003,屏東縣,高樹鄉,高樹村
2432,瑪星哈蘭 大光教會,23.27957,120.71962,高雄市,那瑪夏區,達卡努瓦里
2433,達卡努瓦里 西那的店,23.26885,120.72005,高雄市,那瑪夏區,達卡努瓦里
2434,達卡努瓦里 世文商店,23.27151,120.71928,高雄市,那瑪夏區,達卡努瓦里
2435,達卡努瓦里 皆得藥局,23.26963,120.71783,高雄市,那瑪夏區,達卡努瓦里
2436,達卡努瓦里 吉巴谷,23.26079,120.70251,高雄市,那瑪夏區,達卡努瓦里
2437,瑪雅里 民權宮,23.25586,120.69247,高雄市,那瑪夏區,瑪雅里
2438,嘉興國小,22.822,120.30554,高雄市,岡山區,嘉興里
2439,瑪雅里 民權大橋,23.24581,120.69507,高雄市,那瑪夏區,瑪雅里
2440,南沙魯里 北家扶中心,23.21884,120.69336,高雄市,那瑪夏區,南沙魯里
2441,瑪雅里 二姊茶鋪,23.23782,120.69769,高雄市,那瑪夏區,瑪雅里
2442,瑪雅里 泥巴莊,23.23134,120.69418,高雄市,那瑪夏區,瑪雅里
2443,瑪雅里區衛生所,23.24686,120.70255,高雄市,那瑪夏區,瑪雅里
2444,下青山 福德宮,23.26704,120.68429,高雄市,那瑪夏區,瑪雅里
2445,上青山 青山教會,23.26734,120.69454,高雄市,那瑪夏區,達卡努瓦里
2446,那瑪夏國中,23.23998,120.69727,高雄市,那瑪夏區,瑪雅里
2447,五甲尾,22.82134,120.30318,高雄市,岡山區,嘉興里
2448,建山國小,23.10535,120.68245,高雄市,桃源區,建山里
2449,建山里十字路口,23.10731,120.68391,高雄市,桃源區,建山里
2450,復興活動中心,23.2173,120.80458,高雄市,桃源區,復興里
2451,樂樂布農部落,23.11151,120.71169,高雄市,六龜區,寶來里
2452,瓦阿系吊橋,23.21679,120.80374,高雄市,桃源區,復興里
2453,高中里草水長老會廣場,23.1226,120.70847,高雄市,桃源區,高中里
2454,美蘭部落,23.13237,120.72073,高雄市,桃源區,高中里
2455,四社部落,23.16632,120.76767,高雄市,桃源區,桃源里
2456,藤枝部落,23.05455,120.72095,高雄市,桃源區,寶山里
2457,寶山里派出所,23.03651,120.70905,高雄市,桃源區,寶山里
2458,花果山,23.00834,120.6798,高雄市,六龜區,興龍里
2459,六龜加油站,22.99134,120.6361,高雄市,六龜區,文武里
2460,天后宮廟,22.9945,120.64338,高雄市,六龜區,中興里
2461,中興里永久屋,22.98913,120.6493,高雄市,六龜區,中興里
2462,南嘉興,22.8191,120.30244,高雄市,岡山區,嘉興里
2463,六龜區公所,22.99809,120.63322,高雄市,六龜區,六龜里
2464,慈濟資源回收站,22.93631,120.49261,高雄市,內門區,永富里
2465,溝坪衛生室,22.99107,120.50146,高雄市,內門區,溝坪里
2466,明山果集貨場,22.98025,120.4933,高雄市,內門區,永吉里
2467,竹峯宮,23.01329,120.5236,高雄市,內門區,金竹里
2468,頭社站牌,22.99927,120.50268,高雄市,內門區,溝坪里
2469,華山24號,23.01143,120.48954,高雄市,內門區,溝坪里
2470,華園29-2號,23.0001,120.49741,高雄市,內門區,溝坪里
2471,水冬瓜(山上),23.05198,120.66372,高雄市,六龜區,荖濃里
2472,三合溪,22.95576,120.64959,高雄市,六龜區,中興里
2473,尾庄,22.95974,120.65098,高雄市,六龜區,中興里
2474,扇平山莊,22.97079,120.65182,高雄市,六龜區,中興里
2475,五甲尾加油站,22.81287,120.30081,高雄市,岡山區,台上里
2476,天后宮,22.9945,120.64338,高雄市,六龜區,中興里
2477,扇平林道前,22.97498,120.65185,高雄市,六龜區,中興里
2478,龍興國小,22.99412,120.64535,高雄市,六龜區,中興里
2479,尾庄(山下),22.98423,120.65206,高雄市,六龜區,中興里
2480,瑪星哈蘭-大光教會,23.27957,120.71962,高雄市,那瑪夏區,達卡努瓦里
2481,大愛C區停車場,22.96297,120.53962,高雄市,杉林區,月眉里
2482,達卡努瓦里-西那的店,23.26885,120.72005,高雄市,那瑪夏區,達卡努瓦里
2483,達卡努瓦里-世文商店,23.27146,120.71922,高雄市,那瑪夏區,達卡努瓦里
2484,南沙魯里-北家扶中心,23.21877,120.69347,高雄市,那瑪夏區,南沙魯里
2485,達卡努瓦里-皆得藥局,23.26969,120.71777,高雄市,那瑪夏區,達卡努瓦里
2486,瑪雅里-泥巴莊,23.23134,120.69418,高雄市,那瑪夏區,瑪雅里
2487,達卡努瓦里-吉巴谷,23.26079,120.70251,高雄市,那瑪夏區,達卡努瓦里
2488,瑪雅里-二姊茶鋪,23.23778,120.69783,高雄市,那瑪夏區,瑪雅里
2489,瑪雅里-民權宮,23.25593,120.69241,高雄市,那瑪夏區,瑪雅里
2490,瑪雅里-民權大橋,23.24584,120.69521,高雄市,那瑪夏區,瑪雅里
2491,田草寮崑山宮,22.84546,120.44595,高雄市,田寮區,田寮里
2492,台上,22.80803,120.29871,高雄市,岡山區,台上里
2493,烏山,22.83441,120.42989,高雄市,田寮區,田寮里
2494,牛寮普唵宮,22.84685,120.41302,高雄市,田寮區,田寮里
2495,秀峰寺,22.83846,120.40591,高雄市,田寮區,田寮里
2496,興東路2號,22.83482,120.41134,高雄市,田寮區,田寮里
2497,行仁路,22.62586,120.34333,高雄市,苓雅區,衛武里
2498,正順廟口,22.87949,120.19051,高雄市,茄萣區,崎漏里
2499,大智路口,22.87003,120.19823,高雄市,茄萣區,崎漏里
2500,崎漏茄萣農會,22.87385,120.1911,高雄市,茄萣區,崎漏里
2501,成功路,22.80144,120.29547,高雄市,岡山區,岡山里
2502,海埔海山活動中心站,22.89547,120.22375,高雄市,湖內區,海山里
2503,三興宮站,22.89894,120.22298,高雄市,湖內區,海埔里
2504,興隆路口西羅殿,22.60694,120.40703,高雄市,大寮區,三隆里
2505,內坑路(鎮潭路口),22.58913,120.38126,高雄市,大寮區,內坑里
2506,內坑路女監獄,22.58905,120.37244,高雄市,大寮區,內坑里
2507,三隆283巷口,22.60242,120.40759,高雄市,大寮區,三隆里
2508,內坑仁德路口(內坑.仁德路口檳榔攤旁邊),22.59028,120.39007,高雄市,大寮區,內坑里
2509,上寮路口慈誠宮,22.59723,120.42364,高雄市,大寮區,上寮里
2510,上寮路154號,22.6,120.42417,高雄市,大寮區,上寮里
2511,水寮公園,22.65841,120.41543,高雄市,大樹區,久堂里
2512,岡山區公所,22.79864,120.29514,高雄市,岡山區,岡山里
2513,金山國小,22.81136,120.39812,高雄市,燕巢區,金山里
2514,東燕活動中心,22.79534,120.36945,高雄市,燕巢區,東燕里
2515,金山道院,22.80618,120.39086,高雄市,燕巢區,金山里
2516,北極殿,22.7957,120.37556,高雄市,燕巢區,東燕里
2517,車林巷口,22.79878,120.3799,高雄市,燕巢區,東燕里
2518,神農宮,22.80665,120.34325,高雄市,燕巢區,西燕里
2519,龍安宮(紅山巷),22.81637,120.35753,高雄市,燕巢區,尖山里
2520,尖山巷,22.81158,120.36653,高雄市,燕巢區,尖山里
2521,朝天宮,22.81156,120.35931,高雄市,燕巢區,尖山里
2522,三山宮,22.81583,120.35674,高雄市,燕巢區,尖山里
2523,輕軌旅運中心站,22.6118,120.29327,高雄市,苓雅區,苓東里
2524,草地仔,22.80713,120.38426,高雄市,燕巢區,尖山里
2525,南勝宮,22.81696,120.36526,高雄市,燕巢區,尖山里
2526,水沯路口,22.80869,120.37334,高雄市,燕巢區,尖山里
2527,法主宮,22.80889,120.38506,高雄市,燕巢區,尖山里
2528,清豐路口(楠梓路),22.73808,120.324,高雄市,橋頭區,橋南里
2529,臺鐵三塊厝站(中華路),22.63782,120.29264,高雄市,三民區,鳳北里
2530,小城社區,22.84909,120.27527,高雄市,路竹區,社南里
2531,路竹火車站,22.85405,120.26605,高雄市,路竹區,竹南里
2532,林園工業區,22.49945,120.40601,高雄市,林園區,五福里
2533,內湖登山步道入口,22.95542,120.46931,高雄市,內門區,三平里
2534,國泰市場,22.65007,120.27905,高雄市,鼓山區,民強里
2535,極光精舍(東),22.59324,120.40865,高雄市,大寮區,大寮里
2536,鹽田路(通德巷口),22.74696,120.28057,高雄市,橋頭區,頂鹽里
2537,頂鹽社區時鐘臺,22.748,120.27715,高雄市,橋頭區,頂鹽里
2538,頂鹽天月宮,22.74639,120.27675,高雄市,橋頭區,頂鹽里
2539,文武城隍廟,22.64086,120.27869,高雄市,鼓山區,鼓岩里
2540,7-11便利商店(鼓山門市),22.63667,120.28089,高雄市,鼓山區,鼓岩里
2541,高雄大義宮,22.63397,120.28172,高雄市,鼓山區,興宗里
2542,豐茂商行,22.63044,120.27953,高雄市,鼓山區,山下里
2543,橋頭國中站,22.75886,120.30711,高雄市,橋頭區,橋頭里
2544,臨海一路133巷口,22.62897,120.27991,高雄市,鼓山區,山下里
2545,男生宿舍-翠亨,22.62769,120.26764,高雄市,鼓山區,桃源里
2546,東校區,22.75872,120.33645,高雄市,橋頭區,中崎里
2547,楠梓國小,22.73287,120.32786,高雄市,楠梓區,東寧里
2548,高大第一綜合學院,22.73001,120.2783,高雄市,楠梓區,藍田里
2549,五塊厝,22.50318,120.40205,高雄市,林園區,五福里
2550,深水派出所,22.77238,120.38998,高雄市,燕巢區,橫山里
2551,榮源雜貨店,22.84964,120.3914,高雄市,田寮區,大同里
2552,聯聖宮,22.85873,120.38036,高雄市,田寮區,南安里
2553,阿蓮區分駐所,22.87901,120.32925,高雄市,阿蓮區,南蓮里
2554,義民爺主廟,22.87967,120.37521,高雄市,田寮區,西德里
2555,進天宮,22.87635,120.38184,高雄市,田寮區,崇德里
2556,三合社區活動中心,22.87544,120.39322,高雄市,田寮區,三和里
2557,清安宮,22.88351,120.42238,高雄市,田寮區,鹿埔里
2558,嘉興國中,22.82284,120.30923,高雄市,岡山區,嘉興里
2559,七星里辦公處,22.83084,120.40549,高雄市,田寮區,七星里
2560,田寮分隊,22.82487,120.40562,高雄市,田寮區,七星里
2561,石頭廟(僅假日停靠),22.83559,120.38657,高雄市,田寮區,新興里
2562,龍鳳寺,22.83416,120.37029,高雄市,田寮區,新興里
2563,茄萣區公所,22.90629,120.18379,高雄市,茄萣區,白雲里
2564,台鐵鼓山站,22.64154,120.28049,高雄市,鼓山區,樹德里
2565,中山大學海工館,22.62931,120.26211,高雄市,鼓山區,桃源里
2566,中山大學海科院,22.63019,120.26192,高雄市,鼓山區,桃源里
2567,中山大學文學院,22.63394,120.26111,高雄市,鼓山區,桃源里
2568,高雄市消防局鼓山分隊,22.62336,120.27564,高雄市,鼓山區,峰南里
2569,響昭寺,22.82365,120.31448,高雄市,岡山區,嘉興里
2570,消防局,22.59285,120.3077,高雄市,前鎮區,鎮北里
2571,鳳仁路口,22.70114,120.34589,高雄市,仁武區,仁武里
2572,經武路口,22.7424,120.31541,高雄市,橋頭區,新莊里
2573,橋新七路(新東一街),22.73928,120.31607,高雄市,橋頭區,新莊里
2574,橋新一路(橋新七路),22.73751,120.31608,高雄市,橋頭區,新莊里
2575,都會公園(北門),22.73652,120.3104,高雄市,橋頭區,新莊里
2576,橋新二路(橋新九路),22.73739,120.30728,高雄市,橋頭區,新莊里
2577,華崗里,22.82445,120.32167,高雄市,岡山區,華崗里
2578,六龜大橋(福龜園區),22.99547,120.63799,高雄市,六龜區,義寶里
2579,六龜區公所(衛生所),22.99751,120.63409,高雄市,六龜區,義寶里
2580,甲南里,22.86966,120.28028,高雄市,路竹區,甲南里
2581,義享天地,22.65443,120.30628,高雄市,鼓山區,龍子里
2582,耶穌聖民堂,22.64895,120.34493,高雄市,鳥松區,大華里
2583,菜公路,22.67647,120.31705,高雄市,左營區,菜公里
2584,孟子路,22.67295,120.31486,高雄市,左營區,菜公里
2585,文守路,22.67142,120.31583,高雄市,左營區,菜公里
2586,大埔(岡山),22.82473,120.32343,高雄市,岡山區,華崗里
2587,勤和村,23.17038,120.7749,高雄市,桃源區,勤和里
2588,桃源區公所,23.15892,120.76382,高雄市,桃源區,桃源里
2589,高中二里,23.13418,120.72291,高雄市,桃源區,高中里
2590,問路檳榔,22.99833,120.64351,高雄市,六龜區,中興里
2591,美濃客運站,22.90172,120.54151,高雄市,美濃區,泰安里
2592,榮成紙業,22.82567,120.26658,高雄市,路竹區,北嶺里
2593,C32凱旋公園站,22.62962,120.32287,高雄市,苓雅區,奏捷里
2594,C33衛生局站,22.62519,120.32359,高雄市,苓雅區,奏捷里
2595,C34五權國小站,22.62117,120.32515,高雄市,苓雅區,林靖里
2596,C35凱旋武昌站,22.61695,120.32678,高雄市,苓雅區,朝陽里
2597,C36凱旋二聖站,22.61254,120.32718,高雄市,鳳山區,武慶里
2598,C37輕軌機廠站,22.60848,120.32603,高雄市,前鎮區,瑞北里
2599,C01籬仔內站,22.6046,120.32459,高雄市,前鎮區,瑞竹里
2600,C02凱旋瑞田站,22.59951,120.31974,高雄市,前鎮區,瑞竹里
2601,C03前鎮之星站,22.5955,120.31528,高雄市,前鎮區,興邦里
2602,中崙寮,22.82598,120.33275,高雄市,岡山區,三和里
2603,C04凱旋中華站,22.59365,120.31046,高雄市,前鎮區,鎮東里
2604,C05夢時代站,22.59484,120.30501,高雄市,前鎮區,鎮北里
2605,C06經貿園區站,22.60094,120.30263,高雄市,前鎮區,鎮北里
2606,C07軟體園區,22.60567,120.30081,高雄市,前鎮區,鎮北里
2607,C08高雄展覽館,22.61011,120.298,高雄市,苓雅區,苓東里
2608,C09旅運中心,22.61162,120.29339,高雄市,苓雅區,苓東里
2609,C10光榮碼頭,22.61682,120.2931,高雄市,苓雅區,苓昇里
2610,C11真愛碼頭,22.61925,120.28942,高雄市,鹽埕區,沙地里
2611,C12駁二大義站,22.61856,120.28416,高雄市,鹽埕區,新化里
2612,C13駁二蓬萊站,22.62049,120.27988,高雄市,鹽埕區,新豐里
2613,C14哈瑪星站,22.62165,120.27586,高雄市,鼓山區,麗興里
2614,C15壽山公園站,22.62654,120.27868,高雄市,鼓山區,登山里
2615,C16文武聖殿站,22.62956,120.28072,高雄市,鼓山區,山下里
2616,C17鼓山區公所站,22.63618,120.28252,高雄市,鼓山區,興宗里
2617,山隙,22.82895,120.34137,高雄市,岡山區,三和里
2618,小木屋,23.009,120.56856,高雄市,杉林區,杉林里
2619,灰窯(田寮),22.83219,120.34894,高雄市,田寮區,新興里
2620,甲仙轉運站,23.08271,120.58787,高雄市,甲仙區,西安里
2621,旗山醫院(中學路),22.88111,120.48291,高雄市,旗山區,大德里
2622,龍肚國中,22.87862,120.56965,高雄市,美濃區,龍山里
2623,瑪星哈蘭 那瑪夏區公所,23.27667,120.72055,高雄市,那瑪夏區,達卡努瓦里
2624,永齡農場,22.97602,120.54794,高雄市,杉林區,上平里
2625,旗山溪洲醫院,22.89281,120.48325,高雄市,旗山區,瑞吉里
2626,建國站,22.63789,120.30028,高雄市,三民區,港西里
2627,高雄車站(站西路),22.63924,120.30208,高雄市,三民區,港西里
2628,台銀仁武分行,22.68228,120.33979,高雄市,仁武區,八卦里
2629,崗山路口,22.84066,120.35382,高雄市,田寮區,新興里
2630,大樹區果菜市場,22.72988,120.44548,高雄市,大樹區,溪埔里
2631,輕軌凱旋二聖站(二聖路),22.61202,120.3277,高雄市,前鎮區,瑞誠里
2632,建軍站,22.62487,120.34307,高雄市,苓雅區,衛武里
2633,台鐵正義站(澄清路),22.63425,120.34451,高雄市,三民區,寶民里
2634,台鐵鳳山站,22.63143,120.35759,高雄市,鳳山區,曹公里
2635,紅毛山,23.01886,120.54851,高雄市,杉林區,木梓里
2636,海邊青年路口(輕軌光榮碼頭站),22.61804,120.29363,高雄市,苓雅區,苓洲里
2637,一甲觀音亭,22.87389,120.27036,高雄市,路竹區,甲南里
2638,市立醫院(崇明路),22.96934,120.22556,台南市,東區,崇明里
2639,秋菊園,22.84029,120.35581,高雄市,田寮區,新興里
2640,市立醫院,22.96885,120.22572,台南市,東區,崇成里
2641,杉林派出所,22.97455,120.54178,高雄市,杉林區,上平里
2642,甲仙區公所(衛生所),23.08393,120.58824,高雄市,甲仙區,和安里
2643,六龜衛生所,22.99737,120.63409,高雄市,六龜區,義寶里
2644,南路竹(高客),22.85532,120.26119,高雄市,路竹區,竹南里
2645,市立鳳山醫院,22.62974,120.36279,高雄市,鳳山區,北門里
2646,永和一街口,22.69451,120.33146,高雄市,仁武區,五和里
2647,武當山,22.88006,120.31287,高雄市,阿蓮區,港後里
2648,崙頂加水站,22.87833,120.31309,高雄市,阿蓮區,港後里
2649,轉角公園,22.87379,120.31583,高雄市,阿蓮區,港後里
2650,中甲廟,22.86572,120.318,高雄市,阿蓮區,港後里
2651,營盤代天府,22.86028,120.32851,高雄市,阿蓮區,崗山里
2652,崗后宮,22.8591,120.3316,高雄市,阿蓮區,崗山里
2653,鉅芳超商,22.84202,120.33336,高雄市,阿蓮區,復安里
2654,滿祥電池,22.84642,120.32372,高雄市,阿蓮區,復安里
2655,來旺超商,22.85485,120.33303,高雄市,阿蓮區,復安里
2656,部洋廟,22.84008,120.35844,高雄市,田寮區,新興里
2657,五米路榕樹下,22.89237,120.3186,高雄市,阿蓮區,青旗里
2658,頂厝磚仔窯,22.89123,120.3236,高雄市,阿蓮區,青旗里
2659,天朝后宮,22.88571,120.34743,高雄市,阿蓮區,阿蓮里
2660,部洋,22.83919,120.36134,高雄市,田寮區,新興里
2661,瑪星哈蘭-那瑪夏區公所,23.27662,120.72062,高雄市,那瑪夏區,達卡努瓦里
2662,和發上發六路口,22.59482,120.42847,高雄市,大寮區,上寮里
2663,上發八路,22.59783,120.43354,高雄市,大寮區,上寮里
2664,那瑪夏區公所,23.27662,120.72063,高雄市,那瑪夏區,達卡努瓦里
2665,臺鐵內惟站(中華一路),22.66814,120.28746,高雄市,鼓山區,鼓峰里
2666,C18鼓山站,22.64198,120.28105,高雄市,鼓山區,樹德里
2667,C19馬卡道站,22.64701,120.28141,高雄市,鼓山區,龍水里
2668,C20臺鐵美術館站,22.65207,120.28167,高雄市,鼓山區,民強里
2669,田洋,22.83603,120.36636,高雄市,田寮區,新興里
2670,牛稠埔(田寮),22.83564,120.36924,高雄市,田寮區,新興里
2671,田寮入口,22.83244,120.38965,高雄市,田寮區,新興里
2672,牛路灣,22.82863,120.39103,高雄市,田寮區,七星里
2673,下尾仔,22.82484,120.40059,高雄市,田寮區,七星里
2674,埤子尾(七星路),22.82393,120.40646,高雄市,田寮區,七星里
2675,水蛙潭,22.82968,120.40725,高雄市,田寮區,七星里
2676,祖師田,22.83241,120.40571,高雄市,田寮區,七星里
2677,德榮街口,22.68589,120.33109,高雄市,仁武區,八卦里
2678,田寮,22.83806,120.40627,高雄市,田寮區,田寮里
2679,高雄工職,22.65081,120.32607,高雄市,三民區,灣利里
2680,岡山國中(大德二路),22.78955,120.30325,高雄市,岡山區,後紅里
2681,程庄,22.79119,120.30856,高雄市,岡山區,程香里
2682,聖帝堂,22.79013,120.31225,高雄市,岡山區,程香里
2683,變電所(安招),22.78914,120.32702,高雄市,燕巢區,瓊林里
2684,木業公司(安招),22.78922,120.331,高雄市,燕巢區,瓊林里
2685,安正路口,22.79131,120.34344,高雄市,燕巢區,安招里
2686,塑膠公司,22.79162,120.34544,高雄市,燕巢區,安招里
2687,岡山新厝,22.79264,120.35194,高雄市,燕巢區,安招里
2688,仁光路口,22.68441,120.35053,高雄市,仁武區,灣內里
2689,水庫入口,22.7928,120.35644,高雄市,燕巢區,南燕里
2690,工兵學校,22.79321,120.35948,高雄市,燕巢區,西燕里
2691,燕巢衛生所,22.79324,120.36112,高雄市,燕巢區,西燕里
2692,燕巢市場,22.79066,120.36285,高雄市,燕巢區,南燕里
2693,湖子內路口,22.77887,120.36108,高雄市,燕巢區,南燕里
2694,角宿,22.77069,120.35971,高雄市,燕巢區,角宿里
2695,加宏路口,22.71543,120.29306,高雄市,楠梓區,建昌里
2696,捷運世運站(世運大道),22.70102,120.30181,高雄市,楠梓區,宏南里
2697,義大醫院,22.76486,120.36398,高雄市,燕巢區,角宿里
2698,世運主場館,22.70098,120.29819,高雄市,楠梓區,宏南里
2699,仁德街口(中華路),22.70003,120.35121,高雄市,仁武區,文武里
2700,曹公路,22.62838,120.35722,高雄市,鳳山區,鳳崗里
2701,北門,22.63344,120.36147,高雄市,鳳山區,北門里
2702,建國路口(鳳松路),22.63607,120.36236,高雄市,鳳山區,武松里
2703,園藝試驗所,22.6396,120.36337,高雄市,鳳山區,武松里
2704,牛稠埔(鳳山),22.64472,120.3649,高雄市,鳳山區,忠誠里
2705,三叢竹,22.6496,120.36546,高雄市,鳥松區,鳥松里
2706,澄清湖路口,22.65861,120.36441,高雄市,鳥松區,鳥松里
2707,長庚醫院,22.65082,120.35702,高雄市,鳥松區,鳥松里
2708,正修科大(澄清湖),22.65152,120.34873,高雄市,鳥松區,大華里
2709,八德二路,22.70084,120.3251,高雄市,仁武區,五和里
2710,大華里(本館路),22.64785,120.3465,高雄市,鳥松區,大華里
2711,文明巷,22.65373,120.33842,高雄市,鳥松區,大華里
2712,大豐一路口,22.65348,120.33181,高雄市,三民區,本館里
2713,鼎金國中,22.65469,120.3197,高雄市,三民區,灣成里
2714,三民高中(金山路),22.66288,120.32604,高雄市,三民區,鼎西里
2715,鼎強街口(星展銀行),22.66738,120.32093,高雄市,三民區,鼎力里
2716,文藻外語大學(鼎中路),22.67098,120.32079,高雄市,三民區,鼎力里
2717,獅湖國小(鼎中路),22.67351,120.32162,高雄市,三民區,鼎盛里
2718,榮總,22.6775,120.32211,高雄市,左營區,福山里
2719,外埔(楠梓),22.73138,120.33715,高雄市,楠梓區,五常里
2720,新莊高中(大中二路),22.679,120.31697,高雄市,左營區,菜公里
2721,新民國小,22.67642,120.3127,高雄市,左營區,菜公里
2722,新莊國小,22.66912,120.30797,高雄市,左營區,新中里
2723,新庄仔,22.66981,120.30541,高雄市,左營區,新中里
2724,華夏路口(新莊一路),22.67222,120.29884,高雄市,左營區,新下里
2725,公訓中心,22.67714,120.30004,高雄市,左營區,新光里
2726,蓮潭會館,22.67829,120.29959,高雄市,左營區,新光里
2727,物產館蓮潭站,22.6784,120.29581,高雄市,左營區,埤東里
2728,蓮池潭(勝利路),22.67982,120.29205,高雄市,左營區,埤東里
2729,左營農會,22.6821,120.28828,高雄市,左營區,埤西里
2730,店仔頂路口,22.68436,120.28937,高雄市,左營區,聖南里
2731,中路里,22.88922,120.29296,高雄市,阿蓮區,中路里
2732,左營大路,22.68628,120.29116,高雄市,左營區,頂西里
2733,豐穀宮(進學路口),22.69049,120.2964,高雄市,左營區,尾北里
2734,菜公路口(左營大路),22.69197,120.2981,高雄市,左營區,屏山里
2735,海功路(進學路口),22.69375,120.29492,高雄市,左營區,復興里
2736,國軍左營醫院,22.70212,120.29253,高雄市,左營區,復興里
2737,莒光新村(軍校路),22.70625,120.29289,高雄市,左營區,莒光里
2738,北右昌(右昌街),22.71433,120.28947,高雄市,楠梓區,裕昌里
2739,興昌里,22.71713,120.28713,高雄市,楠梓區,裕昌里
2740,五福社區,22.71897,120.28406,高雄市,楠梓區,國昌里
2741,援中港,22.72265,120.27781,高雄市,楠梓區,中和里
2742,中路國小,22.89441,120.29944,高雄市,阿蓮區,中路里
2743,高雄大學(德中路),22.72774,120.27396,高雄市,楠梓區,中和里
2744,草橋,22.73122,120.27124,高雄市,橋頭區,頂鹽里
2745,東寶公司,22.73458,120.26815,高雄市,橋頭區,頂鹽里
2746,大舍南路(典寶橋),22.73902,120.26461,高雄市,梓官區,典寶里
2747,亞熱帶,22.7431,120.26301,高雄市,梓官區,典寶里
2748,大舍甲,22.74843,120.26314,高雄市,梓官區,大舍里
2749,同安,22.7519,120.26578,高雄市,梓官區,同安里
2750,南梓官,22.7575,120.2675,高雄市,梓官區,梓平里
2751,梓官,22.75996,120.26711,高雄市,梓官區,梓和里
2752,建軍站(捷運衛武營站),22.62491,120.34323,高雄市,苓雅區,衛武里
2753,信義路,22.76228,120.26255,高雄市,梓官區,梓信里
2754,分歧站,22.77095,120.25766,高雄市,彌陀區,彌陀里
2755,二高,22.7741,120.25449,高雄市,彌陀區,彌陀里
2756,彌陀國中(中正南路),22.77744,120.25093,高雄市,彌陀區,彌陀里
2757,彌陀區公所,22.78043,120.24928,高雄市,彌陀區,彌壽里
2758,彌陀國小,22.78417,120.24804,高雄市,彌陀區,彌靖里
2759,國軍左營醫院(世運大道路口),22.70108,120.29239,高雄市,左營區,合群里
2760,鼎強街口,22.6672,120.32093,高雄市,三民區,鼎中里
2761,光復路,22.62901,120.35905,高雄市,鳳山區,鳳崗里
2762,花旗山莊,22.87302,120.47429,高雄市,旗山區,三協里
2763,建楠路,22.72689,120.32864,高雄市,楠梓區,中陽里
2764,旗南一路,22.8697,120.47301,高雄市,旗山區,三協里
2765,和昌,22.86443,120.4706,高雄市,旗山區,三協里
2766,武鹿,22.86103,120.46869,高雄市,旗山區,上洲里
2767,衛光里,22.85686,120.46865,高雄市,旗山區,上洲里
2768,溪洲國小,22.84736,120.46564,高雄市,旗山區,大山里
2769,溪洲,22.84359,120.46445,高雄市,旗山區,南洲里
2770,7-11溪洲門市,22.83977,120.46327,高雄市,旗山區,南洲里
2771,公園仔,22.83774,120.46268,高雄市,旗山區,南洲里
2772,大洲國中,22.83579,120.46242,高雄市,旗山區,新光里
2773,永記公司,22.53077,120.3706,高雄市,小港區,山明里
2774,新光里,22.83232,120.46262,高雄市,旗山區,新光里
2775,大竹圍,22.82816,120.46247,高雄市,旗山區,新光里
2776,尚和,22.81477,120.46164,高雄市,旗山區,南勝里
2777,叢仔坑,22.80942,120.46156,高雄市,旗山區,南勝里
2778,南勝湖,22.79995,120.45907,高雄市,旗山區,南勝里
2779,德勝巷,22.79696,120.45807,高雄市,旗山區,南勝里
2780,砂石場,22.7903,120.45612,高雄市,旗山區,南勝里
2781,嶺口,22.77373,120.44928,高雄市,旗山區,南勝里
2782,文化院,22.77332,120.44604,高雄市,旗山區,南勝里
2783,嶺口營房,22.77346,120.44405,高雄市,旗山區,南勝里
2784,大學西路口(第一綜合大樓),22.72996,120.27833,高雄市,楠梓區,藍田里
2785,燕巢國中(榮民之家),22.78604,120.36236,高雄市,燕巢區,南燕里
2786,南光-旗楠,22.77319,120.44061,高雄市,旗山區,南勝里
2787,樹樺農場,22.77386,120.43539,高雄市,旗山區,南勝里
2788,五腳松,22.77428,120.43169,高雄市,旗山區,南勝里
2789,馬場,22.78052,120.42576,高雄市,燕巢區,深水里
2790,天主堂,22.78075,120.42284,高雄市,燕巢區,深水里
2791,敬老院,22.78095,120.41858,高雄市,燕巢區,深水里
2792,烏山巷,22.78155,120.41222,高雄市,燕巢區,深水里
2793,奧深水,22.78176,120.40913,高雄市,燕巢區,深水里
2794,南勢巷,22.77882,120.40749,高雄市,燕巢區,深水里
2795,深水國小,22.77725,120.40585,高雄市,燕巢區,深水里
2796,歷史博物館(大公路),22.62648,120.28503,高雄市,鹽埕區,瀨南里
2797,石格,22.77369,120.40462,高雄市,燕巢區,深水里
2798,竹崎(高雄科大.燕巢),22.77239,120.4012,高雄市,燕巢區,橫山里
2799,清照寺,22.77273,120.39272,高雄市,燕巢區,橫山里
2800,深水,22.77226,120.39005,高雄市,燕巢區,橫山里
2801,塔仔腳,22.77089,120.38512,高雄市,燕巢區,橫山里
2802,橫山國小,22.76784,120.37956,高雄市,燕巢區,橫山里
2803,橫山路口,22.76606,120.37705,高雄市,燕巢區,橫山里
2804,樹德科技大學(橫山路),22.76527,120.37578,高雄市,燕巢區,橫山里
2805,高雄看守所,22.76135,120.36909,高雄市,燕巢區,橫山里
2806,角宿路口,22.7611,120.36001,高雄市,燕巢區,鳳雄里
2807,文賢市場,22.79405,120.29586,高雄市,岡山區,岡山里
2808,北鳳雄,22.75566,120.35748,高雄市,燕巢區,鳳雄里
2809,鳳山厝,22.75347,120.3551,高雄市,燕巢區,鳳雄里
2810,鳳山厝農場,22.75054,120.35087,高雄市,大社區,保社里
2811,萬金松,22.74746,120.34606,高雄市,大社區,保社里
2812,北國麗景,22.74156,120.33835,高雄市,楠梓區,清豐里
2813,土庫(楠梓),22.73915,120.33598,高雄市,楠梓區,清豐里
2814,楠梓運動園區(土庫路),22.73565,120.33309,高雄市,楠梓區,清豐里
2815,楠梓派出所(楠梓路),22.73066,120.32859,高雄市,楠梓區,東寧里
2816,楠梓農會,22.72873,120.32947,高雄市,楠梓區,享平里
2817,楠梓站,22.72655,120.32497,高雄市,楠梓區,中陽里
2818,台灣銀行(健保署),22.62731,120.29,高雄市,前金區,林投里
2819,稔田里,22.71258,120.32566,高雄市,楠梓區,稔田里
2820,中華社區,22.70909,120.32487,高雄市,楠梓區,稔田里
2821,半屏山(高楠路),22.70106,120.32346,高雄市,仁武區,高楠里
2822,台灣時報,22.69787,120.32284,高雄市,仁武區,高楠里
2823,高楠里,22.69225,120.32175,高雄市,仁武區,高楠里
2824,福檳新村,22.68633,120.32059,高雄市,左營區,福山里
2825,新莊高中(民族一路),22.6807,120.31951,高雄市,左營區,福山里
2826,菜公路口(民族一路),22.67509,120.31843,高雄市,左營區,菜公里
2827,文藻外語大學(民族一路),22.67069,120.31755,高雄市,左營區,菜公里
2828,民族大順路口,22.65724,120.31565,高雄市,三民區,灣興里
2829,瑞源路口,22.62973,120.29716,高雄市,前金區,青山里
2830,隆峰寺,22.6529,120.31525,高雄市,三民區,灣興里
2831,高雄車站(建國路),22.63781,120.30095,高雄市,三民區,港西里
2832,自立十全路口,22.6447,120.29641,高雄市,三民區,十美里
2833,旗津海水浴場,22.61022,120.26811,高雄市,旗津區,慈愛里
2834,糖部,22.89532,120.62554,高雄市,六龜區,新威里
2835,長興路口,22.87932,120.60944,高雄市,六龜區,新寮里
2836,橫山尾(美濃),22.88011,120.56311,高雄市,美濃區,龍山里
2837,高美醫專,22.88879,120.5511,高雄市,美濃區,合和里
2838,成功路(美濃),22.89375,120.54753,高雄市,美濃區,合和里
2839,美濃國中,22.89556,120.54404,高雄市,美濃區,合和里
2840,岡山農會,22.79553,120.29572,高雄市,岡山區,岡山里
2841,樟山里,23.25342,120.82014,高雄市,桃源區,拉芙蘭里
2842,梅山里,23.27339,120.82565,高雄市,桃源區,梅山里
2843,雷音寺,22.89861,120.52336,高雄市,美濃區,福安里
2844,舊茶亭,22.89383,120.51398,高雄市,美濃區,福安里
2845,義民廟,22.88618,120.49876,高雄市,旗山區,東平里
2846,福德祠,22.63235,120.3978,高雄市,大寮區,中庄里
2847,秋涼山,22.87951,120.47673,高雄市,旗山區,三協里
2848,頭林巷口,22.87661,120.47528,高雄市,旗山區,三協里
2849,清水寺(溪洲),22.85061,120.46681,高雄市,旗山區,大山里
2850,監工站,23.16222,120.77366,高雄市,桃源區,桃源里
2851,復興里,23.2193,120.80389,高雄市,桃源區,復興里
2852,梅蘭里,23.24037,120.81258,高雄市,桃源區,拉芙蘭里
2853,春雨公司,22.80954,120.29253,高雄市,岡山區,台上里
2854,察哈爾二街(捷運後驛站),22.64777,120.30158,高雄市,三民區,安泰里
2855,中崙二路一,22.60025,120.35296,高雄市,鳳山區,中民里
2856,成功國小,22.61386,120.29764,高雄市,苓雅區,苓東里
2857,北汕二路,22.48272,120.40662,高雄市,林園區,中汕里
2858,北汕里,22.48327,120.4099,高雄市,林園區,北汕里
2859,捷運西子灣站(輕軌哈瑪星站),22.62152,120.27517,高雄市,鼓山區,麗興里
2860,合和里,22.89723,120.54237,高雄市,美濃區,合和里
2861,方厝,22.63229,120.4004,高雄市,大寮區,中庄里
2862,遼寧街口(自立路),22.64209,120.29614,高雄市,三民區,十美里
2863,先勝路口,22.68132,120.28149,高雄市,左營區,崇實里
2864,紹興街,22.56489,120.35479,高雄市,小港區,二苓里
2865,仁愛三街口,22.61601,120.31055,高雄市,苓雅區,日中里
2866,四維永泰路口,22.61437,120.2959,高雄市,苓雅區,苓雅里
2867,新堀江,22.62368,120.30297,高雄市,新興區,振成里
2868,名湖社區,22.68667,120.35278,高雄市,仁武區,灣內里
2869,大連街,22.64195,120.30499,高雄市,三民區,達仁里
2870,介壽路(左營海軍軍區),22.68103,120.28568,高雄市,左營區,崇實里
2871,漁人碼頭(公園路口),22.62311,120.28036,高雄市,鹽埕區,港都里
2872,前鎮站,22.59141,120.30558,高雄市,前鎮區,鎮北里
2873,德民路口(三山街),22.71646,120.28282,高雄市,楠梓區,興昌里
2874,過埤國小,22.59134,120.36276,高雄市,鳳山區,過埤里
2875,過埤路口,22.58898,120.36279,高雄市,鳳山區,過埤里
2876,前鎮高中,22.58696,120.32022,高雄市,前鎮區,平等里
2877,頂庄路,22.58832,120.36147,高雄市,鳳山區,過埤里
2878,永豐崗山南街口,22.60341,120.3343,高雄市,前鎮區,瑞隆里
2879,翡翠晶鑽,22.58836,120.3602,高雄市,鳳山區,過埤里
2880,7-11鳳頂門市,22.59291,120.35849,高雄市,鳳山區,過埤里
2881,過埤公園,22.59319,120.35568,高雄市,鳳山區,過埤里
2882,保仁街口,22.59467,120.35099,高雄市,鳳山區,保安里
2883,保南二路,22.59521,120.34985,高雄市,鳳山區,保安里
2884,中崙四路,22.59947,120.35255,高雄市,鳳山區,中崙里
2885,中正預校(誠愛一街口),22.60735,120.35915,高雄市,鳳山區,誠義里
2886,陽明國小,22.64417,120.33531,高雄市,三民區,寶泰里
2887,新富路口,22.612,120.34151,高雄市,鳳山區,新強里
2888,六隧,22.9513,120.64189,高雄市,六龜區,文武里
2889,復興保安路口,22.8044,120.24284,高雄市,永安區,維新里
2890,天闊溫泉,23.06193,120.68058,高雄市,六龜區,新發里
2891,打鐵店,22.62999,120.40556,高雄市,大寮區,中庄里
2892,風車公園,22.58984,120.28465,高雄市,旗津區,南汕里
